store_id,zone,state,city,pincode,p1DC,status,format
8892,South 1,Karnataka,Bangalore,560055,R396,OPERATIONAL,Digital
TSF5,East,West Bengal,Kolkata,700035,SLKO,OPERATIONAL,Digital
TO71,EAST,Jharkhand,Ranchi,834003,R278,OPERATIONAL,DIGITAL EXPRESS MINI
8930,North 1,Rajasthan,Alwar,301001,SJ93,OPERATIONAL,Digital
7519,West 1,Maharashtra,Pune,411029,V014,OPERATIONAL,DIGITAL EXPRESS MINI
7737,North 1,Delhi NCR,Ghaziabad,201001,SJ93,OPERATIONAL,DIGITAL EXPRESS MINI
7838,East,West Bengal,Siliguri,734001,SLLN,OPERATIONAL,DIGITAL EXPRESS MINI
8731,South 2,Telangana,Hyderabad,500039,SE40,OPERATIONAL,Digital
6984,West 2,Madhya Pradesh,Chhindwara,480001,SACU,OPERATIONAL,DIGITAL EXPRESS MINI
9185,East,West Bengal,Purulia,723101,SLKO,OPERATIONAL,Digital
3731,North 2,Uttar Pradesh,Sikandarabad,203205,SJ93,OPERATIONAL,DIGITAL EXPRESS MINI
T83R,South 1,Karnataka,Bangalore,560078,R396,OPERATIONAL,DIGITAL EXPRESS MINI
7590,East,West Bengal,Kolkata,700040,SLKO,OPERATIONAL,DIGITAL EXPRESS MINI
7521,West 1,Maharashtra,Pune,411014,V014,OPERATIONAL,DIGITAL EXPRESS MINI
7734,West 2,Gujarat,Vadodara,390007,SLTY,OPERATIONAL,DIGITAL EXPRESS MINI
TE59,East,North East,Aizawl,796005,S597,OPERATIONAL,DIGITAL EXPRESS MINI
6648,South 1,Telangana,Ibrahimpatnam,501506,SE40,OPERATIONAL,DIGITAL EXPRESS MINI
TR67,South 2,Telangana,Hyderabad,500088,SE40,OPERATIONAL,Digital
9188,West 2,Madhya Pradesh,Jabalpur,482002,SACU,OPERATIONAL,DIGITAL EXPRESS MINI
T2SN,North 1,Jammu & Kashmir,Jammu,,Y695,OPERATIONAL,Digital
8944,North 2,Uttar Pradesh,Bareily,243002,SC28,OPERATIONAL,Digital
TDJ9,West 2,Madhya Pradesh,Jabalpur,482005,SACU,OPERATIONAL,DIGITAL EXPRESS MINI
TSD3,East,Assam,Tezpur,784001,S597,OPERATIONAL,Digital
T728,South 3,Tamil Nadu,Chennai,600100,SJ99,OPERATIONAL,Digital
T82A,West,Maharashtra,Nashik,,R696,OPERATIONAL,Digital
6144,West 1,Maharashtra,Mumbai,400071,R696,OPERATIONAL,DIGITAL EXPRESS MINI
TFI2,East,Jharkhand,Jamshedpur,831001,R278,OPERATIONAL,DIGITAL EXPRESS MINI
TI3G,East,West Bengal,Raiganj,,SLLN,OPERATIONAL,Digital
6178,East,Odisha,Dhenkanal,759001,R201,OPERATIONAL,DIGITAL EXPRESS MINI
TI8V,South 1,Telangana,Secunderabad,,SE40,OPERATIONAL,DIGITAL EXPRESS MINI
7645,North 1,Punjab,Ludhiana,141001,S0CV,OPERATIONAL,DIGITAL EXPRESS MINI
3834,East,West Bengal,Kolkata,700029,SLKO,OPERATIONAL,Digital
TTZ5,South 2,Andhra Pradesh,Narsaraopet,522601,S0UG,OPERATIONAL,Digital
6326,North 2,Uttar Pradesh,Saharanpur,247001,SLOR,OPERATIONAL,DIGITAL EXPRESS MINI
T662,South 1,Karnataka,Mysore,570001,R396,OPERATIONAL,Digital
9521,East,West Bengal,Kolkata,700064,SLKO,OPERATIONAL,DIGITAL EXPRESS MINI
6622,South 2,Kerala,Kochi,682017,SD78,OPERATIONAL,DIGITAL EXPRESS MINI
8697,South 2,Telangana,Hyderabad,500048,SE40,OPERATIONAL,Digital
7963,South 2,Tamil Nadu,Salem,636004,S0TC,OPERATIONAL,DIGITAL EXPRESS MINI
3603,North 2,Uttar Pradesh,Mahoba,210427,SC28,OPERATIONAL,DIGITAL EXPRESS MINI
T785,East,North East,Shillong,793003,S597,OPERATIONAL,DIGITAL EXPRESS MINI
7661,West 2,Rajasthan,Jaipur,302015,R810,OPERATIONAL,DIGITAL EXPRESS MINI
8964,North 1,Punjab,Chandigarh,160002,S0CV,OPERATIONAL,Digital
8461,North 1,Delhi NCR,Delhi,110019,SJ93,OPERATIONAL,DIGITAL EXPRESS MINI
3889,North 1,Punjab,Taran Taran,143401,S0CV,OPERATIONAL,DIGITAL EXPRESS MINI
T29P,South 2,Tamil Nadu,Madhurai,625014,S0TC,OPERATIONAL,DIGITAL EXPRESS MINI
3804,East,Odisha,Baripada,757001,R201,OPERATIONAL,DIGITAL EXPRESS MINI
9119,North 1,Jammu & Kashmir,Baramulla,193121,Y695,OPERATIONAL,DIGITAL EXPRESS MINI
3678,South 1,Andhra Pradesh,Tadepallegudam,534101,S0UG,OPERATIONAL,DIGITAL EXPRESS MINI
9133,South 1,Karnataka,Mysore,570009,R396,OPERATIONAL,DIGITAL EXPRESS MINI
7846,West 2,Gujarat,Jamnagar,361004,SLTY,OPERATIONAL,DIGITAL EXPRESS MINI
T53T,Central,Gujarat,Vapi,396195,SLTY,OPERATIONAL,Digital
6196,West 1,Maharashtra,Buldana,443001,SACU,OPERATIONAL,DIGITAL EXPRESS MINI
6814,North 2,Uttar Pradesh,Aligarh,202001,SJ93,OPERATIONAL,DIGITAL EXPRESS MINI
7909,West 2,Rajasthan,Kota,324007,R810,OPERATIONAL,DIGITAL EXPRESS MINI
TJ4W,North 2,Jharkhand,Ranchi,,R278,OPERATIONAL,Digital
3783,South 1,Andhra Pradesh,Pithapuram,533450,R804,OPERATIONAL,DIGITAL EXPRESS MINI
TKE1,South 1,Karnataka,Nanjangud,571301,R396,OPERATIONAL,DIGITAL EXPRESS MINI
7585,South 2,Tamil Nadu,Chennai,600021,SJ99,OPERATIONAL,DIGITAL EXPRESS MINI
7768,North 1,Delhi NCR,Delhi,110085,SJ93,OPERATIONAL,DIGITAL EXPRESS MINI
3745,South 2,Kerala,Kottayam,686001,SD78,OPERATIONAL,DIGITAL EXPRESS MINI
3697,South 2,Kerala,Punalur,691305,SD78,OPERATIONAL,DIGITAL EXPRESS MINI
6822,North 1,Jammu & Kashmir,Jammu,180015,Y695,OPERATIONAL,Digital
TFJ5,Central,Madhya Pradesh,Indore,452009,S0GZ,OPERATIONAL,Digital
3733,South 1,Andhra Pradesh,Bhimavaram,531420,S0UG,OPERATIONAL,DIGITAL EXPRESS MINI
3762,North 2,Uttar Pradesh,Muradnagar,201206,SLOR,OPERATIONAL,DIGITAL EXPRESS MINI
TDW6,South 2,Tamil Nadu,Coimbatore,641026,S0TC,OPERATIONAL,DIGITAL EXPRESS MINI
TDC5,North 2,Uttar Pradesh,Lucknow,226005,SC28,OPERATIONAL,DIGITAL EXPRESS MINI
7566,South 2,Telangana,Hyderabad,500059,SE40,OPERATIONAL,DIGITAL EXPRESS MINI
TEH4,South 3,Tamil Nadu,Katpadi,632007,SJ99,OPERATIONAL,Digital
9183,South 2,Telangana,Siddipet,502103,SE40,OPERATIONAL,Digital
TU64,East,West Bengal,Uttarpara,712232,SLKO,OPERATIONAL,Digital
6504,South 1,Karnataka,Shimoga,577201,R396,OPERATIONAL,DIGITAL EXPRESS MINI
7468,West 2,Gujarat,Surat,395002,SLTY,OPERATIONAL,DIGITAL EXPRESS MINI
7928,West 2,Gujarat,Vadodara,390009,SLTY,OPERATIONAL,DIGITAL EXPRESS MINI
8467,South 1,Karnataka,Bangalore,560054,R396,OPERATIONAL,DIGITAL EXPRESS MINI
9124,South 1,Karnataka,Haveri,581110,R396,OPERATIONAL,DIGITAL EXPRESS MINI
6936,North 1,Delhi NCR,Noida,201301,SJ93,OPERATIONAL,DIGITAL EXPRESS MINI
6910,East,West Bengal,Kolkata,711405,SLKO,OPERATIONAL,DIGITAL EXPRESS MINI
7596,North 1,Delhi NCR,Faridabad,121003,SJ93,OPERATIONAL,DIGITAL EXPRESS MINI
7729,West 2,Gujarat,Vadodara,390018,SLTY,OPERATIONAL,DIGITAL EXPRESS MINI
8472,West 1,Maharashtra,Mumbai,400080,R696,OPERATIONAL,DIGITAL EXPRESS MINI
3703,East,Jharkhand,Ramgarh,829122,R278,OPERATIONAL,DIGITAL EXPRESS MINI
3792,West 2,Rajasthan,Suratgarh,335001,R810,OPERATIONAL,DIGITAL EXPRESS MINI
3626,West 2,Rajasthan,Churu,331507,R810,OPERATIONAL,DIGITAL EXPRESS MINI
TOD2,West,Maharashtra,Wardha,442001,SACU,OPERATIONAL,Digital
6835,South 1,Karnataka,Bangalore,560068,R396,OPERATIONAL,Digital
TGJ9,East,West Bengal,"Ashoknagar, Golbazar",743222,SLKO,OPERATIONAL,DIGITAL EXPRESS MINI
9156,South 2,Tamil Nadu,Kumbakonam,612001,S0TC,OPERATIONAL,DIGITAL EXPRESS MINI
7784,North 2,Uttarakhand,Haridwar,249403,SLOR,OPERATIONAL,Digital
6922,West 1,Maharashtra,Beed,431128,V014,OPERATIONAL,DIGITAL EXPRESS MINI
3842,North 2,Uttar Pradesh,Kannauj,209721,SC28,OPERATIONAL,DIGITAL EXPRESS MINI
6381,South 2,Tamil Nadu,Salem,636007,S0TC,OPERATIONAL,DIGITAL EXPRESS MINI
TB88,West,Maharashtra,Mumbai,,R696,OPERATIONAL,Digital
TUF5,South 2,Telangana,Hyderabad,500084,SE40,OPERATIONAL,Digital
TKT5,South 1,Karnataka,Bangalore,560061,R396,OPERATIONAL,DIGITAL EXPRESS MINI
TVM4,West,Maharashtra,Jalna,431203,V014,OPERATIONAL,Digital
7908,West 2,Madhya Pradesh,Gwalior,474009,SJ93,OPERATIONAL,DIGITAL EXPRESS MINI
6284,West 1,Maharashtra,Sangli,416416,V014,OPERATIONAL,DIGITAL EXPRESS MINI
6860,North 1,Punjab,Amritsar,143001,S0CV,OPERATIONAL,DIGITAL EXPRESS MINI
TN50,North 2,Bihar,Darbhanga,846001,R394,OPERATIONAL,DIGITAL EXPRESS MINI
6318,North 2,Jharkhand,Dhanbad,826001,R278,OPERATIONAL,DIGITAL EXPRESS MINI
3857,West 1,Maharashtra,Chakan,410501,V014,OPERATIONAL,DIGITAL EXPRESS MINI
3800,South 2,Tamil Nadu,Kambam,625516,S0TC,OPERATIONAL,DIGITAL EXPRESS MINI
TAE4,South 2,Telangana,Hyderabad,500072,SE40,OPERATIONAL,Digital
8963,East,Assam,Guwahati,781005,S597,OPERATIONAL,Digital
7512,West 1,Maharashtra,Pune,411043,V014,OPERATIONAL,DIGITAL EXPRESS MINI
7878,West 1,Maharashtra,Solapur,413002,V014,OPERATIONAL,DIGITAL EXPRESS MINI
9571,East,West Bengal,Habra,743263,SLKO,OPERATIONAL,DIGITAL EXPRESS MINI
TM91,South 2,Telangana,Warangal,506001,SE40,OPERATIONAL,Digital
6287,West 2,Gujarat,Surat,395007,SLTY,OPERATIONAL,DIGITAL EXPRESS MINI
3667,South 2,Tamil Nadu,Kanyakumari,629702,S0TC,OPERATIONAL,DIGITAL EXPRESS MINI
6868,North 1,Haryana,Jind,126102,SJ93,OPERATIONAL,DIGITAL EXPRESS MINI
3750,South 2,Tamil Nadu,Mettur,636401,S0TC,OPERATIONAL,DIGITAL EXPRESS MINI
7690,EAST,Jharkhand,Ranchi,834005,R278,OPERATIONAL,DIGITAL EXPRESS MINI
TCC3,East,Jharkhand,Ranchi,834001,R278,OPERATIONAL,DIGITAL EXPRESS MINI
3773,North 2,Bihar,Jamui (Np),811307,R394,OPERATIONAL,DIGITAL EXPRESS MINI
TDK0,West 1,Maharashtra,Pune,411060,V014,OPERATIONAL,DIGITAL EXPRESS MINI
3812,South 1,Andhra Pradesh,Machhlipatnam,521001,S0UG,OPERATIONAL,DIGITAL EXPRESS MINI
TY19,South 2,Telangana,Hyderabad,500017,SE40,OPERATIONAL,DIGITAL EXPRESS MINI
8890,South 1,Karnataka,Bangalore,560018,R396,OPERATIONAL,Digital
8752,West 1,Maharashtra,Mumbai,400067,R696,OPERATIONAL,DIGITAL EXPRESS MINI
9559,South 1,Karnataka,Bangalore,560066,R396,OPERATIONAL,Digital
TSE6,East,Odisha,Sundergarh,770001,R201,OPERATIONAL,Digital
3649,North 2,Bihar,Gopalganj,841428,R394,OPERATIONAL,DIGITAL EXPRESS MINI
6839,South 1,Karnataka,Gulbarga,585101,SE40,OPERATIONAL,DIGITAL EXPRESS MINI
6999,West 2,Gujarat,Bhuj,370001,SLTY,OPERATIONAL,DIGITAL EXPRESS MINI
TLY1,East,West Bengal,Kolkata,700012,SLKO,OPERATIONAL,Digital
TN22,East,Odisha,Rourkela,769004,R278,OPERATIONAL,Digital
6641,EAST,West Bengal,Baharampur,742101,SLKO,OPERATIONAL,DIGITAL EXPRESS MINI
7723,East,West Bengal,Kolkata,743165,SLKO,OPERATIONAL,DIGITAL EXPRESS MINI
6556,EAST,West Bengal,English Bazar(Malda),732102,SLLN,OPERATIONAL,DIGITAL EXPRESS MINI
7927,South 2,Telangana,Hyderabad,500020,SE40,OPERATIONAL,DIGITAL EXPRESS MINI
TSF2,South 3,Tamil Nadu,Salem,636007,S0TC,OPERATIONAL,Digital
3627,North 2,Uttar Pradesh,Raibareilly,229001,SC28,OPERATIONAL,DIGITAL EXPRESS MINI
6341,North 2,Uttar Pradesh,Agra,282007,SJ93,OPERATIONAL,DIGITAL EXPRESS MINI
3630,North 2,Uttar Pradesh,Ghazipur,233001,SC28,OPERATIONAL,DIGITAL EXPRESS MINI
6739,West 2,Rajasthan,Jaipur,302017,R810,OPERATIONAL,DIGITAL EXPRESS MINI
TOD3,South 1,Karnataka,Bangalore,560102,R396,OPERATIONAL,Digital
TEI5,West 1,Chhattisgarh,Bilaspur,495006,S573,OPERATIONAL,DIGITAL EXPRESS MINI
6738,South 1,Andhra Pradesh,Vijaywada,520002,S0UG,OPERATIONAL,DIGITAL EXPRESS MINI
6555,East,West Bengal,Kolkata,711401,SLKO,OPERATIONAL,DIGITAL EXPRESS MINI
7582,North 1,Delhi NCR,Delhi,110088,SJ93,OPERATIONAL,DIGITAL EXPRESS MINI
TU65,North 1,Delhi NCR,Gurgaon,122004,SJ93,OPERATIONAL,Digital
7823,North 1,Delhi NCR,Ghaziabad,201005,SJ93,OPERATIONAL,DIGITAL EXPRESS MINI
3860,South 2,Tamil Nadu,Arcot,632503,SJ99,OPERATIONAL,DIGITAL EXPRESS MINI
6533,South 1,Andhra Pradesh,Cuddapah,516001,SJ99,OPERATIONAL,DIGITAL EXPRESS MINI
6352,West 1,Maharashtra,Sangli,416410,V014,OPERATIONAL,DIGITAL EXPRESS MINI
TDI8,North 2,Uttar Pradesh,Varanasi,221010,SC28,OPERATIONAL,Digital
T2QN,South 1,Andhra Pradesh,Tenali,,S0UG,OPERATIONAL,Digital
7895,South 1,Andhra Pradesh,Vishakhapatnam,530016,R804,OPERATIONAL,DIGITAL EXPRESS MINI
6365,North 2,Uttar Pradesh,Jhansi,284002,SC28,OPERATIONAL,DIGITAL EXPRESS MINI
6959,North 1,Punjab,Sangrur,148001,S0CV,OPERATIONAL,DIGITAL EXPRESS MINI
7899,South 2,Kerala,Trivandrum,695101,SD78,OPERATIONAL,DIGITAL EXPRESS MINI
7550,West 1,Maharashtra,Pune,411040,V014,OPERATIONAL,DIGITAL EXPRESS MINI
8923,West,Maharashtra,Pune,411007,V014,OPERATIONAL,Digital
3873,South 1,Telangana,Sirpur Kaghaznagar,504296,SE40,OPERATIONAL,DIGITAL EXPRESS MINI
7905,East,West Bengal,Kolkata,700005,SLKO,OPERATIONAL,DIGITAL EXPRESS MINI
TJJ1,South 1,Karnataka,Bangalore,560032,R396,OPERATIONAL,DIGITAL EXPRESS MINI
TI73,Central,Chhattisgarh,Durg-Bhilainagar,490023,S573,OPERATIONAL,Digital
3763,North 1,Haryana,Sirsa,125055,SJ93,OPERATIONAL,DIGITAL EXPRESS MINI
3568,South 2,Tamil Nadu,Gobichettipalayam,638452,S0TC,OPERATIONAL,DIGITAL EXPRESS MINI
6500,South 1,Karnataka,Bellary,583103,R396,OPERATIONAL,DIGITAL EXPRESS MINI
T0R1,West 2,Gujarat,Himmatnagar,,SLTY,OPERATIONAL,Digital
6537,South 2,Tamil Nadu,Chennai,600013,SJ99,OPERATIONAL,DIGITAL EXPRESS MINI
7786,South 2,Telangana,Hyderabad,500011,SE40,OPERATIONAL,DIGITAL EXPRESS MINI
6793,South 2,Kerala,Alappuzha,688011,SD78,OPERATIONAL,DIGITAL EXPRESS MINI
3696,South 1,Telangana,Kodad,508206,SE40,OPERATIONAL,DIGITAL EXPRESS MINI
6694,East,West Bengal,Kolkata,711009,SLKO,OPERATIONAL,DIGITAL EXPRESS MINI
TJW0,North 1,Haryana,Yamunanagar,135001,S0CV,OPERATIONAL,DIGITAL EXPRESS MINI
3869,North 2,Uttarakhand,Rudrapur,263153,SLOR,OPERATIONAL,Digital
7843,East,Odisha,Cuttack,753014,R201,OPERATIONAL,DIGITAL EXPRESS MINI
7711,EAST,Odisha,Bhubaneshwar,751015,R201,OPERATIONAL,DIGITAL EXPRESS MINI
TDG3,Central,Gujarat,Ahmedabad,380022,SLTY,OPERATIONAL,Digital
6391,North 2,Uttar Pradesh,Gorakhpur,273001,SC28,OPERATIONAL,DIGITAL EXPRESS MINI
6421,West 1,Maharashtra,Mumbai,421302,R696,OPERATIONAL,DIGITAL EXPRESS MINI
TX69,EAST,Jharkhand,Ranchi,834001,R278,OPERATIONAL,DIGITAL EXPRESS MINI
7864,West 2,Madhya Pradesh,Indore,452001,S0GZ,OPERATIONAL,DIGITAL EXPRESS MINI
TVA6,South 1,Karnataka,Hubli,580030,R396,OPERATIONAL,Digital
9561,East,Odisha,Puri,752002,R201,OPERATIONAL,Digital
T1VH,South 2,Telangana,Hyderabad,500075,SE40,OPERATIONAL,Digital
6262,South 2,Telangana,Hyderabad,500029,SE40,OPERATIONAL,DIGITAL EXPRESS MINI
TDK1,West 2,Rajasthan,Kota,324001,R810,OPERATIONAL,DIGITAL EXPRESS MINI
T515,East,North East,Dharmanagar,799250,S597,OPERATIONAL,DIGITAL EXPRESS MINI
6150,South 3,Tamil Nadu,Vellore,632012,SJ99,OPERATIONAL,Digital
6629,South 3,Tamil Nadu,Chennai,600099,SJ99,OPERATIONAL,Digital
7813,North 2,Uttar Pradesh,Lucknow,226024,SC28,OPERATIONAL,DIGITAL EXPRESS MINI
3806,East,West Bengal,Nabadwip,741302,SLKO,OPERATIONAL,DIGITAL EXPRESS MINI
T051,North 1,Rajasthan,Jaipur,302021,R810,OPERATIONAL,Digital
TH21,South 2,Telangana,Mancherial,504208,SE40,OPERATIONAL,Digital
8760,West 1,Maharashtra,Mumbai,400077,R696,OPERATIONAL,DIGITAL EXPRESS MINI
8716,South 3,Tamil Nadu,Madurai,625020,S0TC,OPERATIONAL,Digital
6658,South 1,Andhra Pradesh,Bapatla,522101,S0UG,OPERATIONAL,DIGITAL EXPRESS MINI
9513,North 1,Jammu & Kashmir,Srinagar,190001,Y695,OPERATIONAL,DIGITAL EXPRESS MINI
6774,EAST,Assam,Silchar,788001,S597,OPERATIONAL,DIGITAL EXPRESS MINI
T2JV,South 1,Telangana,Bhongir,,SE40,OPERATIONAL,DIGITAL EXPRESS MINI
3690,South 1,Andhra Pradesh,Proddatur,516360,S0UG,OPERATIONAL,DIGITAL EXPRESS MINI
T28E,North 1,Delhi NCR,Delhi,110088,SJ93,OPERATIONAL,DIGITAL EXPRESS MINI
TCC2,East,West Bengal,Bankura,722202,SLKO,OPERATIONAL,DIGITAL EXPRESS MINI
7903,West 2,Madhya Pradesh,Indore,452009,S0GZ,OPERATIONAL,DIGITAL EXPRESS MINI
6915,South 3,Kerala,Alleppey,688003,SD78,OPERATIONAL,Digital
7586,South 1,Karnataka,Bangalore,560084,R396,OPERATIONAL,DIGITAL EXPRESS MINI
7839,East,Jharkhand,Bokaro Steel City,827013,R278,OPERATIONAL,DIGITAL EXPRESS MINI
6481,South 2,Tamil Nadu,Madurai,625020,S0TC,OPERATIONAL,DIGITAL EXPRESS MINI
6833,East,West Bengal,Kolkata,712258,SLKO,OPERATIONAL,DIGITAL EXPRESS MINI
8987,East,West Bengal,Kolkata,700124,SLKO,OPERATIONAL,Digital
3845,East,Assam,Jorhat,785001,S597,OPERATIONAL,Digital
8813,South 2,Telangana,Hyderabad,500003,SE40,OPERATIONAL,Digital
7608,East,West Bengal,Kolkata,712248,SLKO,OPERATIONAL,DIGITAL EXPRESS MINI
6673,South 1,Karnataka,Bagalkot,587101,R396,OPERATIONAL,DIGITAL EXPRESS MINI
T1JO,South 2,Telangana,Jagtial,505327,SE40,OPERATIONAL,Digital
6347,North 1,Punjab,Chandigarh,160035,S0CV,OPERATIONAL,DIGITAL EXPRESS MINI
TJY6,South 1,Karnataka,Bangalore,560037,R396,OPERATIONAL,DIGITAL EXPRESS MINI
7551,East,West Bengal,Kolkata,700014,SLKO,OPERATIONAL,DIGITAL EXPRESS MINI
6933,West 2,Gujarat,Patan,384265,SLTY,OPERATIONAL,DIGITAL EXPRESS MINI
TP18,West 1,Chhattisgarh,Bilaspur,495001,S573,OPERATIONAL,DIGITAL EXPRESS MINI
7904,East,West Bengal,Kolkata,700094,SLKO,OPERATIONAL,DIGITAL EXPRESS MINI
6755,North 2,Uttar Pradesh,Firozabad,283203,SJ93,OPERATIONAL,DIGITAL EXPRESS MINI
TH74,West 2,Rajasthan,Jaipur,302018,R810,OPERATIONAL,DIGITAL EXPRESS MINI
7599,West 1,Maharashtra,Pune,411033,V014,OPERATIONAL,DIGITAL EXPRESS MINI
TJV6,West,Maharashtra,Pune,410506,V014,OPERATIONAL,Digital
7610,West 1,Maharashtra,Mumbai,401107,R696,OPERATIONAL,DIGITAL EXPRESS MINI
6610,East,West Bengal,Kolkata,743347,SLKO,OPERATIONAL,DIGITAL EXPRESS MINI
T1BY,North 2,Uttarakhand,Dehradun,248014,SLOR,OPERATIONAL,Digital
TX34,West,Maharashtra,Mumbai,400053,R696,OPERATIONAL,Digital
6672,North 2,Bihar,Samastipur,848101,R394,OPERATIONAL,DIGITAL EXPRESS MINI
7490,North 1,Delhi NCR,Delhi,110076,SJ93,OPERATIONAL,DIGITAL EXPRESS MINI
T2TZ,North 2,Jharkhand,Dhanbad,,R278,OPERATIONAL,Digital
6396,West 1,Maharashtra,Kolhapur,416010,V014,OPERATIONAL,DIGITAL EXPRESS MINI
3594,East,West Bengal,Haldia,721602,SLKO,OPERATIONAL,DIGITAL EXPRESS MINI
6256,North 2,Uttar Pradesh,Kanpur,208011,SC28,OPERATIONAL,DIGITAL EXPRESS MINI
3813,South 1,Andhra Pradesh,Chittoor,517001,SJ99,OPERATIONAL,DIGITAL EXPRESS MINI
7510,North 1,Delhi NCR,Noida,201301,SJ93,OPERATIONAL,DIGITAL EXPRESS MINI
6615,South 2,Tamil Nadu,Coimbatore,641041,S0TC,OPERATIONAL,DIGITAL EXPRESS MINI
8912,West,Maharashtra,Mumbai,400064,R696,OPERATIONAL,Digital
7821,West 1,Maharashtra,Mumbai,401305,R696,OPERATIONAL,DIGITAL EXPRESS MINI
8687,West,Maharashtra,Mumbai,400054,R696,OPERATIONAL,Digital
7238,North 2,Bihar,Patna,800020,R394,OPERATIONAL,DIGITAL EXPRESS MINI
8761,West 1,Maharashtra,Mumbai,400066,R696,OPERATIONAL,DIGITAL EXPRESS MINI
6161,East,Odisha,Jatani,752050,R201,OPERATIONAL,DIGITAL EXPRESS MINI
TEI7,West 2,Madhya Pradesh,Indore,453331,S0GZ,OPERATIONAL,DIGITAL EXPRESS MINI
6167,East,West Bengal,Islampur,733202,SLLN,OPERATIONAL,DIGITAL EXPRESS MINI
TSF0,West,Maharashtra,Ichalkaranji,416115,V014,OPERATIONAL,Digital
TC88,East,West Bengal,Cooch Behar,736101,SLLN,OPERATIONAL,Digital
8970,West,Maharashtra,Kolhapur,416002,V014,OPERATIONAL,Digital
TSE1,West,Maharashtra,Pune,411038,V014,OPERATIONAL,Digital
9558,East,West Bengal,Kolkata,700028,SLKO,OPERATIONAL,DIGITAL EXPRESS MINI
7814,South 1,Telangana,Warangal,506002,SE40,OPERATIONAL,DIGITAL EXPRESS MINI
7606,North 1,Delhi NCR,Delhi,110034,SJ93,OPERATIONAL,DIGITAL EXPRESS MINI
TO49,East,West Bengal,Kolkata,700137,SLKO,OPERATIONAL,DIGITAL EXPRESS MINI
7450,West 2,Gujarat,Ahmedabad,380009,SLTY,OPERATIONAL,DIGITAL EXPRESS MINI
TW28,North 1,Rajasthan,Jaipur,302012,R810,OPERATIONAL,Digital
TTS2,South 1,Karnataka,Chickmangaluru,577101,R396,OPERATIONAL,Digital
6865,North 1,Haryana,Hansi,125033,SJ93,OPERATIONAL,DIGITAL EXPRESS MINI
TU14,North 2,Uttar Pradesh,Meerut,250001,SLOR,OPERATIONAL,DIGITAL EXPRESS MINI
6174,North 2,Uttar Pradesh,Barabanki,220001,SC28,OPERATIONAL,DIGITAL EXPRESS MINI
3756,South 1,Telangana,Armoor(Kotarmoor),503224,SE40,OPERATIONAL,DIGITAL EXPRESS MINI
6977,West 1,Goa,Margao,403401,R396,OPERATIONAL,DIGITAL EXPRESS MINI
T4ON,West 1,HYDRABAD,Nanded,,SE40,OPERATIONAL,DIGITAL EXPRESS MINI
TK86,South 2,Telangana,Hyderabad,500084,SE40,OPERATIONAL,Digital
TGO1,South 1,Karnataka,Belgaum,590001,R396,OPERATIONAL,DIGITAL EXPRESS MINI
8933,South 3,Tamil Nadu,Chennai,600002,SJ99,OPERATIONAL,Digital
6250,South 1,Karnataka,Bangalore,560091,R396,OPERATIONAL,DIGITAL EXPRESS MINI
6440,South 2,Andhra Pradesh,Guntur,522007,S0UG,OPERATIONAL,Digital
6889,South 1,Andhra Pradesh,Sattenapalle,522403,S0UG,OPERATIONAL,DIGITAL EXPRESS MINI
6119,West 1,Maharashtra,Sangamner,422605,R696,OPERATIONAL,DIGITAL EXPRESS MINI
TCI0,North 2,Bihar,MUZAFFARPUR,842001,R394,OPERATIONAL,Digital
8945,North 1,Delhi NCR,Ghaziabad,201012,SJ93,OPERATIONAL,Digital
TEH3,West,Maharashtra,Mumbai,410206,R696,OPERATIONAL,Digital
8941,South 3,Tamil Nadu,Coimbatore,641001,S0TC,OPERATIONAL,Digital
T9RG,North 2,Uttar Pradesh,Jhansi,,SC28,OPERATIONAL,Digital
6753,South 1,Andhra Pradesh,Kakinada,533001,R804,OPERATIONAL,DIGITAL EXPRESS MINI
6479,West 2,Rajasthan,Jaipur,302029,R810,OPERATIONAL,DIGITAL EXPRESS MINI
TS90,East,Odisha,Anugul,759122,R201,OPERATIONAL,DIGITAL EXPRESS MINI
TT14,North 2,Uttar Pradesh,Varanasi,221002,SC28,OPERATIONAL,DIGITAL EXPRESS MINI
TW84,South 2,Telangana,Hyderabad,500039,SE40,OPERATIONAL,DIGITAL EXPRESS MINI
9171,West 1,Maharashtra,Jalna,431203,V014,OPERATIONAL,DIGITAL EXPRESS MINI
6182,South 2,Tamil Nadu,Ambasamudram,627425,S0TC,OPERATIONAL,DIGITAL EXPRESS MINI
9572,West 1,Maharashtra,Mumbai,400059,R696,OPERATIONAL,DIGITAL EXPRESS MINI
6022,West 2,Madhya Pradesh,Sehore,466001,S0GZ,OPERATIONAL,DIGITAL EXPRESS MINI
7859,South 2,Tamil Nadu,Madurai,625020,S0TC,OPERATIONAL,DIGITAL EXPRESS MINI
6146,East,Jharkhand,Chaibasa,833201,R278,OPERATIONAL,DIGITAL EXPRESS MINI
3671,South 1,Andhra Pradesh,Sri Kalahasti,517655,SJ99,OPERATIONAL,DIGITAL EXPRESS MINI
T730,South 1,Karnataka,Bangalore,560057,R396,OPERATIONAL,Digital
T0UT,North 1,Haryana,Yamunanagar,,S0CV,OPERATIONAL,Digital
TOH3,West,Maharashtra,Yavatmal,445001,SACU,OPERATIONAL,Digital
TCR7,East,Sikkim,Gangtok,737103,SLLN,OPERATIONAL,Digital
6488,West 2,Gujarat,Ahmedabad,382350,SLTY,OPERATIONAL,DIGITAL EXPRESS MINI
3658,West 2,Rajasthan,Bundi,323001,R810,OPERATIONAL,DIGITAL EXPRESS MINI
3692,South 2,Tamil Nadu,Pollachi,642001,S0TC,OPERATIONAL,DIGITAL EXPRESS MINI
7914,South 1,Andhra Pradesh,Vishakhapatnam,530016,R804,OPERATIONAL,DIGITAL EXPRESS MINI
3775,South 2,Kerala,Taliparamba,670141,SD78,OPERATIONAL,DIGITAL EXPRESS MINI
3893,North 1,Jammu & Kashmir,Jammu,180001,Y695,OPERATIONAL,DIGITAL EXPRESS MINI
TES5,South 2,Tamil Nadu,Chennai,600050,SJ99,OPERATIONAL,DIGITAL EXPRESS MINI
TEB9,North 1,Delhi NCR,Noida,201310,SJ93,OPERATIONAL,DIGITAL EXPRESS MINI
6656,South 1,Andhra Pradesh,Anakapalle,531001,R804,OPERATIONAL,DIGITAL EXPRESS MINI
6756,North 2,Uttar Pradesh,Shahjahanpur,242001,SC28,OPERATIONAL,DIGITAL EXPRESS MINI
6820,EAST,Assam,Guwahati,781006,S597,OPERATIONAL,DIGITAL EXPRESS MINI
6575,West 2,Madhya Pradesh,Bina,470113,S0GZ,OPERATIONAL,DIGITAL EXPRESS MINI
3728,West 2,Madhya Pradesh,Burhanpur,450331,S0GZ,OPERATIONAL,DIGITAL EXPRESS MINI
9184,South 2,Telangana,Nalgonda,508001,SE40,OPERATIONAL,Digital
6638,North 2,Uttar Pradesh,Bareily,243003,SC28,OPERATIONAL,DIGITAL EXPRESS MINI
6962,South 1,Karnataka,Robertson Pet,563122,R396,OPERATIONAL,DIGITAL EXPRESS MINI
T591,North 1,Punjab,Amritsar,143001,S0CV,OPERATIONAL,Digital
3685,South 1,Karnataka,Ilkal,587125,R396,OPERATIONAL,DIGITAL EXPRESS MINI
TEG6,West,Maharashtra,Pune,411017,V014,OPERATIONAL,Digital
T618,North 2,Uttar Pradesh,Moradabad,244001,SJ93,OPERATIONAL,Digital
TX53,South 2,Telangana,Hyderabad,500047,SE40,OPERATIONAL,DIGITAL EXPRESS MINI
TGE5,South 2,Andhra Pradesh,Prakasam,523187,S0UG,OPERATIONAL,Digital
T36M,North 1,Punjab,Ludhiana,141008,S0CV,OPERATIONAL,Digital
3885,West 1,Maharashtra,Manmad,423104,R696,OPERATIONAL,DIGITAL EXPRESS MINI
6968,South 1,Karnataka,Koppal,583231,R396,OPERATIONAL,DIGITAL EXPRESS MINI
TKR2,West 2,Rajasthan,Jaipur,302026,R810,OPERATIONAL,DIGITAL EXPRESS MINI
3548,East,Jharkhand,Giridih,815301,R278,OPERATIONAL,DIGITAL EXPRESS MINI
TEY0,North 2,Uttar Pradesh,Allahabad,211004,SC28,OPERATIONAL,DIGITAL EXPRESS MINI
7994,West 2,Madhya Pradesh,Jabalpur,482002,SACU,OPERATIONAL,DIGITAL EXPRESS MINI
TKR3,West 1,Maharashtra,Pune,411001,V014,OPERATIONAL,DIGITAL EXPRESS MINI
3645,North 2,Uttar Pradesh,Unnao,209801,SC28,OPERATIONAL,DIGITAL EXPRESS MINI
7609,North 1,Delhi NCR,Gurgaon,122001,SJ93,OPERATIONAL,DIGITAL EXPRESS MINI
6659,South 1,Andhra Pradesh,Gudur,524101,SJ99,OPERATIONAL,DIGITAL EXPRESS MINI
TJN1,West 2,Rajasthan,Jodhpur,342005,R810,OPERATIONAL,DIGITAL EXPRESS MINI
6980,West 2,Madhya Pradesh,Balaghat,481001,SACU,OPERATIONAL,DIGITAL EXPRESS MINI
3609,South 1,Telangana,Tandur,501141,SE40,OPERATIONAL,DIGITAL EXPRESS MINI
6268,West 1,Maharashtra,Pune,411009,V014,OPERATIONAL,DIGITAL EXPRESS MINI
3895,South 2,Tamil Nadu,Villupuram,605602,SJ99,OPERATIONAL,DIGITAL EXPRESS MINI
8721,West,Maharashtra,Pune,410201,V014,OPERATIONAL,Digital
3600,West 1,Maharashtra,Akot,444101,SACU,OPERATIONAL,DIGITAL EXPRESS MINI
8822,South 2,Telangana,Hyderabad,500072,SE40,OPERATIONAL,Digital
7575,North 2,Uttarakhand,Deharadun,248001,SLOR,OPERATIONAL,Digital
6363,North 2,Uttar Pradesh,Agra,282001,SJ93,OPERATIONAL,DIGITAL EXPRESS MINI
9193,South 3,Tamil Nadu,Chennai,600119,SJ99,OPERATIONAL,Digital
6651,South 1,Telangana,Nalgonda,508001,SE40,OPERATIONAL,DIGITAL EXPRESS MINI
T9MM,South 3,Tamil Nadu,Coimbatore,641015,S0TC,OPERATIONAL,Digital
7787,South 1,Andhra Pradesh,Vishakhapatnam,530020,R804,OPERATIONAL,DIGITAL EXPRESS MINI
TL39,North 2,Bihar,Bhagalpur,812006,R394,OPERATIONAL,DIGITAL EXPRESS MINI
6960,North 1,Punjab,Sirhind,140406,S0CV,OPERATIONAL,DIGITAL EXPRESS MINI
T79Q,East,West Bengal,Kolkata,700 078,SLKO,OPERATIONAL,Digital
8701,North 1,Rajasthan,Udaipur,313004,R810,OPERATIONAL,Digital
7691,North 2,Uttar Pradesh,Lucknow,226010,SC28,OPERATIONAL,DIGITAL EXPRESS MINI
7473,South 2,Tamil Nadu,Madurai,625010,S0TC,OPERATIONAL,DIGITAL EXPRESS MINI
TG7K,Central,Gujarat,Surat,,SLTY,OPERATIONAL,Digital
TY33,West 2,Madhya Pradesh,Bhopal,462023,S0GZ,OPERATIONAL,DIGITAL EXPRESS MINI
6456,North 2,Jharkhand,Dhanbad,826001,R278,OPERATIONAL,DIGITAL EXPRESS MINI
6921,South 1,Telangana,Sircilla,505301,SE40,OPERATIONAL,DIGITAL EXPRESS MINI
8844,North 1,Delhi NCR,Delhi,110070,SJ93,OPERATIONAL,Digital
3802,North 2,Uttar Pradesh,Firozabad,283203,SJ93,OPERATIONAL,DIGITAL EXPRESS MINI
6410,South 1,Telangana,Not Assigned,505209,SE40,OPERATIONAL,DIGITAL EXPRESS MINI
3639,North 2,Uttar Pradesh,Sultanpur,228001,SC28,OPERATIONAL,DIGITAL EXPRESS MINI
3532,East,Odisha,Kendrapara,754211,R201,OPERATIONAL,DIGITAL EXPRESS MINI
9503,West 2,Gujarat,Navsari,396445,SLTY,OPERATIONAL,DIGITAL EXPRESS MINI
TO50,South 2,Telangana,Hyderabad,500070,SE40,OPERATIONAL,DIGITAL EXPRESS MINI
7804,South 1,Karnataka,Mangalore,575003,R396,OPERATIONAL,DIGITAL EXPRESS MINI
3751,South 2,Tamil Nadu,Mannargudi,614001,S0TC,OPERATIONAL,DIGITAL EXPRESS MINI
6282,North 1,Punjab,Amritsar,143001,S0CV,OPERATIONAL,DIGITAL EXPRESS MINI
TZ8C,North 2,Uttar Pradesh,Kanpur,208012,SC28,OPERATIONAL,Digital
TQ50,South 1,Karnataka,Dharwad,580008,R396,OPERATIONAL,Digital
7588,North 1,Delhi NCR,Delhi,110041,SJ93,OPERATIONAL,DIGITAL EXPRESS MINI
TQA7,South 3,Tamil Nadu,Coimbatore,641004,S0TC,OPERATIONAL,Digital
TJW9,North 1,Delhi NCR,Delhi,110049,SJ93,OPERATIONAL,Digital
6247,West 2,Gujarat,Ahmedabad,380052,SLTY,OPERATIONAL,DIGITAL EXPRESS MINI
7640,East,West Bengal,Kolkata,700150,SLKO,OPERATIONAL,DIGITAL EXPRESS MINI
TCI9,West 1,Maharashtra,Nagpur,440017,SACU,OPERATIONAL,DIGITAL EXPRESS MINI
3892,North 1,Delhi NCR,Gurgaon,122002,SJ93,OPERATIONAL,DIGITAL EXPRESS MINI
3552,South 2,Tamil Nadu,Krishnagiri,635001,SJ99,OPERATIONAL,DIGITAL EXPRESS MINI
TCI7,South 3,Tamil Nadu,Chennai,600017,SJ99,OPERATIONAL,Digital
3729,North 1,Haryana,Karnal,132001,SJ93,OPERATIONAL,Digital
7697,South 2,Tamil Nadu,Erode,638011,S0TC,OPERATIONAL,DIGITAL EXPRESS MINI
T0DX,East,West Bengal,Baidyabati,,SLKO,OPERATIONAL,DIGITAL EXPRESS MINI
3577,West 2,Rajasthan,Chittaurgarh,323001,R810,OPERATIONAL,DIGITAL EXPRESS MINI
6422,North 2,Uttar Pradesh,Shahjahanpur,242001,SC28,OPERATIONAL,DIGITAL EXPRESS MINI
6029,West 1,Maharashtra,Karad,415110,V014,OPERATIONAL,DIGITAL EXPRESS MINI
TDW5,North 1,Delhi NCR,Delhi,110059,SJ93,OPERATIONAL,DIGITAL EXPRESS MINI
TLK7,North 1,Haryana,Sonepat,131001,SJ93,OPERATIONAL,Digital
3721,North 1,Delhi NCR,Delhi,110027,SJ93,OPERATIONAL,DIGITAL EXPRESS MINI
9117,East,Assam,Duliajan,786692,S597,OPERATIONAL,DIGITAL EXPRESS MINI
TGG6,North 2,Bihar,Gaya,823001,R394,OPERATIONAL,DIGITAL EXPRESS MINI
7443,West 2,Gujarat,Rajkot,360001,SLTY,OPERATIONAL,DIGITAL EXPRESS MINI
TZ28,West 1,Maharashtra,Mumbai,421002,R696,Closed,DIGITAL EXPRESS MINI
TKB9,North 2,Uttar Pradesh,Varanasi,221001,SC28,OPERATIONAL,DIGITAL EXPRESS MINI
3796,West,Maharashtra,Mumbai,400071,R696,OPERATIONAL,Digital
8730,Central,Madhya Pradesh,Bhopal,462042,S0GZ,OPERATIONAL,Digital
6438,East,West Bengal,Kolkata,711315,SLKO,OPERATIONAL,DIGITAL EXPRESS MINI
3591,East,West Bengal,Basirhat,743411,SLKO,OPERATIONAL,DIGITAL EXPRESS MINI
3727,North 2,Uttar Pradesh,Khatauli,251201,SLOR,OPERATIONAL,DIGITAL EXPRESS MINI
T1FS,South 2,Andhra Pradesh,Gudivada,521301,S0UG,OPERATIONAL,Digital
TN62,South 1,Telangana,Suryapet,508213,SE40,OPERATIONAL,DIGITAL EXPRESS MINI
3571,South 2,Tamil Nadu,Aruppukottai,626101,S0TC,OPERATIONAL,DIGITAL EXPRESS MINI
6512,West 2,Gujarat,Surat,394210,SLTY,OPERATIONAL,DIGITAL EXPRESS MINI
7671,South 1,Karnataka,Hubli-Dharwad,580030,R396,OPERATIONAL,DIGITAL EXPRESS MINI
7788,South 1,Andhra Pradesh,Vishakhapatnam,530002,R804,OPERATIONAL,DIGITAL EXPRESS MINI
7956,East,Odisha,Bhubaneshwar,751009,R201,OPERATIONAL,DIGITAL EXPRESS MINI
TG89,North 1,Delhi NCR,Delhi,110005,SJ93,OPERATIONAL,Digital
TR49,West 2,Madhya Pradesh,Indore,452018,S0GZ,OPERATIONAL,DIGITAL EXPRESS MINI
9157,North 1,Delhi NCR,Ghaziabad,201001,SJ93,OPERATIONAL,DIGITAL EXPRESS MINI
6766,West 2,Rajasthan,Jaipur,302020,R810,OPERATIONAL,DIGITAL EXPRESS MINI
3544,West 2,Gujarat,Dhrangadhra,383310,SLTY,OPERATIONAL,DIGITAL EXPRESS MINI
TVM2,North 2,Uttarakhand,Dehradun,248001,SLOR,OPERATIONAL,Digital
7670,South 1,Karnataka,Mysore,570002,R396,OPERATIONAL,DIGITAL EXPRESS MINI
3596,North 2,Uttar Pradesh,Deoband,247554,SLOR,OPERATIONAL,DIGITAL EXPRESS MINI
6503,North 1,Punjab,Bhatinda,151005,S0CV,OPERATIONAL,DIGITAL EXPRESS MINI
8974,West,Maharashtra,Pune,411004,V014,OPERATIONAL,Digital
8797,West 1,Maharashtra,Mumbai,400013,R696,OPERATIONAL,DIGITAL EXPRESS MINI
3582,North 2,Uttar Pradesh,Hardoi,241001,SC28,OPERATIONAL,DIGITAL EXPRESS MINI
T0UR,South 1,Karnataka,Bangalore,,R396,OPERATIONAL,Digital
7439,North 1,Haryana,Yamunanagar,135003,S0CV,OPERATIONAL,DIGITAL EXPRESS MINI
3723,South 1,Karnataka,Gangawati,575001,R396,OPERATIONAL,DIGITAL EXPRESS MINI
3569,South 2,Tamil Nadu,Thiruvarur,610001,S0TC,OPERATIONAL,DIGITAL EXPRESS MINI
8836,South 2,Telangana,Hyderabad,500048,SE40,OPERATIONAL,Digital
6590,North 1,Haryana,Kaithal,136027,SJ93,OPERATIONAL,DIGITAL EXPRESS MINI
7868,South 1,Karnataka,Mangalore,576104,R396,OPERATIONAL,DIGITAL EXPRESS MINI
6348,West 1,Maharashtra,Solapur,413005,V014,OPERATIONAL,DIGITAL EXPRESS MINI
8902,Central,Madhya Pradesh,Bhopal,462011,S0GZ,OPERATIONAL,Digital
TB85,North 2,Uttar Pradesh,Gorakhpur,273008,SC28,OPERATIONAL,Digital
9192,South 3,Tamil Nadu,Chennai,600042,SJ99,OPERATIONAL,Digital
T83J,Central,Madhya Pradesh,Sagar,,S0GZ,OPERATIONAL,Digital
8993,North 1,Delhi NCR,Delhi,110092,SJ93,OPERATIONAL,DIGITAL EXPRESS MINI
7916,North 1,Delhi NCR,Delhi,110053,SJ93,OPERATIONAL,DIGITAL EXPRESS MINI
TVK3,Central,Chhattisgarh,Raipur,492001,S573,OPERATIONAL,Digital
6691,South 2,Andhra Pradesh,Guntur,522007,S0UG,OPERATIONAL,DIGITAL EXPRESS MINI
3862,South 2,Kerala,Trivandrum,695011,SD78,OPERATIONAL,DIGITAL EXPRESS MINI
3761,East,Odisha,Rayagada (Raigarh),765001,R201,OPERATIONAL,DIGITAL EXPRESS MINI
6480,South 2,Kerala,Kollam,691001,SD78,OPERATIONAL,DIGITAL EXPRESS MINI
7448,North 2,Uttar Pradesh,Agra,282008,SJ93,OPERATIONAL,DIGITAL EXPRESS MINI
3673,West 2,Rajasthan,Makrana,341505,R810,OPERATIONAL,DIGITAL EXPRESS MINI
7972,North 1,Punjab,Chandigarh,160019,S0CV,OPERATIONAL,DIGITAL EXPRESS MINI
6957,North 1,Punjab,Rampura Phul,151103,S0CV,OPERATIONAL,DIGITAL EXPRESS MINI
8722,North 1,Rajasthan,Jaipur,302017,R810,OPERATIONAL,Digital
TVK2,North 2,Uttar Pradesh,Gorakhpur,273004,SC28,OPERATIONAL,Digital
6263,North 1,Delhi NCR,Noida,201304,SJ93,OPERATIONAL,DIGITAL EXPRESS MINI
TSE7,South 2,Andhra Pradesh,Chittoor,517001,SJ99,OPERATIONAL,Digital
9172,East,Jharkhand,Deoghar,814112,R278,OPERATIONAL,DIGITAL EXPRESS MINI
6626,North 2,Bihar,Muzaffarpur,842002,R394,OPERATIONAL,DIGITAL EXPRESS MINI
TEB8,East,West Bengal,Kolkata,700151,SLKO,OPERATIONAL,DIGITAL EXPRESS MINI
7775,North 1,Delhi NCR,Delhi,110046,SJ93,OPERATIONAL,DIGITAL EXPRESS MINI
7666,West 2,Madhya Pradesh,Indore,452001,S0GZ,OPERATIONAL,DIGITAL EXPRESS MINI
6180,South 2,Tamil Nadu,Tenkasi,627811,S0TC,OPERATIONAL,DIGITAL EXPRESS MINI
6199,West 2,Rajasthan,Beawar,305901,R810,OPERATIONAL,DIGITAL EXPRESS MINI
7988,East,Jharkhand,Jamshedpur,831001,R278,OPERATIONAL,DIGITAL EXPRESS MINI
TGK0,South 1,Karnataka,Channapatna,562160,R396,OPERATIONAL,DIGITAL EXPRESS MINI
6857,South 1,Karnataka,Bangalore,560102,R396,OPERATIONAL,DIGITAL EXPRESS MINI
T61V,West,Maharashtra,Pune,,V014,OPERATIONAL,Digital
TEG9,South 2,Andhra Pradesh,Proddatur,516360,SJ99,OPERATIONAL,Digital
3870,East,West Bengal,Kolkata,700068,SLKO,OPERATIONAL,DIGITAL EXPRESS MINI
6757,North 1,Himachal Pradesh,Shimla,171009,S0CV,OPERATIONAL,DIGITAL EXPRESS MINI
9190,North 1,Delhi NCR,Faridabad,121001,SJ93,OPERATIONAL,DIGITAL EXPRESS MINI
6737,South 2,Kerala,Palakkad,678002,SD78,OPERATIONAL,DIGITAL EXPRESS MINI
8792,South 1,Karnataka,Bangalore,560037,R396,OPERATIONAL,Digital
TY08,South 3,Tamil Nadu,Namakkal,637001,S0TC,OPERATIONAL,Digital
TNP0,South 1,Karnataka,Bangalore,560067,R396,OPERATIONAL,Digital
7964,East,West Bengal,Kolkata,700050,SLKO,OPERATIONAL,DIGITAL EXPRESS MINI
3557,North 2,Uttar Pradesh,Orai,285001,SC28,OPERATIONAL,DIGITAL EXPRESS MINI
T39E,South 2,Andhra Pradesh,Vijayawada,520004,S0UG,OPERATIONAL,Digital
6393,North 2,Uttarakhand,Roorkee,247667,SLOR,OPERATIONAL,DIGITAL EXPRESS MINI
7780,North 2,Uttar Pradesh,Kanpur,208027,SC28,OPERATIONAL,DIGITAL EXPRESS MINI
7756,EAST,Odisha,Rourkela,769012,R278,OPERATIONAL,DIGITAL EXPRESS MINI
6192,East,Odisha,Sunabeda,764036,R201,OPERATIONAL,DIGITAL EXPRESS MINI
7996,South 2,Kerala,Kozhikode,673571,SD78,OPERATIONAL,DIGITAL EXPRESS MINI
3545,West 2,Gujarat,Valsad,396001,SLTY,OPERATIONAL,DIGITAL EXPRESS MINI
3714,West 1,Maharashtra,Satara,415001,V014,OPERATIONAL,DIGITAL EXPRESS MINI
T44L,North 1,Delhi NCR,Faridabad,121002,SJ93,OPERATIONAL,Digital
7611,North 1,Delhi NCR,Delhi,110045,SJ93,OPERATIONAL,DIGITAL EXPRESS MINI
3610,South 1,Andhra Pradesh,Tadipatri,515411,R396,OPERATIONAL,DIGITAL EXPRESS MINI
T9OE,South 1,Karnataka,Bangalore,560102,R396,OPERATIONAL,Digital
6335,North 2,Jharkhand,Dhanbad,826001,R278,OPERATIONAL,DIGITAL EXPRESS MINI
TLI5,South 1,Karnataka,Bangalore,560016,R396,OPERATIONAL,DIGITAL EXPRESS MINI
7530,South 2,Telangana,Hyderabad,500040,SE40,OPERATIONAL,DIGITAL EXPRESS MINI
7879,South 2,Tamil Nadu,Madurai,625009,S0TC,OPERATIONAL,DIGITAL EXPRESS MINI
7672,South 2,Telangana,Hyderabad,500060,SE40,OPERATIONAL,DIGITAL EXPRESS MINI
TPI3,North 2,Uttarakhand,Dehradun,248007,SLOR,OPERATIONAL,DIGITAL EXPRESS MINI
3684,South 2,Tamil Nadu,Valparai,642127,S0TC,OPERATIONAL,DIGITAL EXPRESS MINI
6698,West 2,Gujarat,Ahmedabad,382418,SLTY,OPERATIONAL,DIGITAL EXPRESS MINI
6134,North 2,Uttar Pradesh,Ballia,277001,SC28,OPERATIONAL,DIGITAL EXPRESS MINI
3635,North 2,Uttar Pradesh,Renukoot,231217,SC28,OPERATIONAL,DIGITAL EXPRESS MINI
8841,South 2,Andhra Pradesh,Vizag,530013,R804,OPERATIONAL,Digital
TDI4,South 1,Karnataka,Mangalore,575001,R396,OPERATIONAL,Digital
TCN7,North 2,Bihar,Motihari,845401,R394,OPERATIONAL,Digital
6777,North 2,Uttar Pradesh,Bareily,243001,SC28,OPERATIONAL,DIGITAL EXPRESS MINI
3580,North 2,Uttar Pradesh,Chhibramau,209721,SC28,OPERATIONAL,DIGITAL EXPRESS MINI
6419,West 1,Maharashtra,Mumbai,400602,R696,OPERATIONAL,DIGITAL EXPRESS MINI
6530,West 1,Maharashtra,Chandrapur,442401,SACU,OPERATIONAL,DIGITAL EXPRESS MINI
7865,West 2,Madhya Pradesh,Jabalpur,482001,SACU,OPERATIONAL,DIGITAL EXPRESS MINI
6668,North 2,Bihar,Jamalpur,811214,R394,OPERATIONAL,DIGITAL EXPRESS MINI
7613,West 1,Maharashtra,Mumbai,400078,R696,Closed,DIGITAL EXPRESS MINI
6624,South 1,Karnataka,Mysore,570023,R396,OPERATIONAL,DIGITAL EXPRESS MINI
TW2A,South 1,Karnataka,Mysore,570023,R396,OPERATIONAL,Digital
8768,South 2,Telangana,Hyderabad,500009,SE40,OPERATIONAL,Digital
TZ29,South 1,Karnataka,Bangalore,560005,R396,OPERATIONAL,DIGITAL EXPRESS MINI
7773,North 2,Uttar Pradesh,Lucknow,226025,SC28,OPERATIONAL,DIGITAL EXPRESS MINI
6332,West 2,Rajasthan,Ajmer,305004,R810,OPERATIONAL,DIGITAL EXPRESS MINI
7983,South 2,Kerala,Thrissur,680005,SD78,OPERATIONAL,DIGITAL EXPRESS MINI
TAVD,North 2,Uttar Pradesh,Ayodhya,224001,SC28,OPERATIONAL,Digital
6653,South 1,Andhra Pradesh,Vinukonda,522647,S0UG,OPERATIONAL,DIGITAL EXPRESS MINI
6900,West 1,Chhattisgarh,Raigarh,496551,S573,OPERATIONAL,DIGITAL EXPRESS MINI
T666,South 1,Karnataka,Shahabad,585228,SE40,OPERATIONAL,DIGITAL EXPRESS MINI
T55S,West,Maharashtra,Miraj,416410,V014,OPERATIONAL,Digital
T9RJ,South 2,Telangana,Sangareddy,502001,SE40,OPERATIONAL,Digital
6805,South 1,Karnataka,Belgaum,590006,R396,OPERATIONAL,DIGITAL EXPRESS MINI
7779,West 2,Rajasthan,Jaipur,302033,R810,OPERATIONAL,DIGITAL EXPRESS MINI
6531,West 1,Maharashtra,Pune,411061,V014,OPERATIONAL,DIGITAL EXPRESS MINI
6411,West 1,Maharashtra,Mumbai,421004,R696,Closed,DIGITAL EXPRESS MINI
3748,South 2,Tamil Nadu,Chidambaram,608001,SJ99,OPERATIONAL,DIGITAL EXPRESS MINI
TFF2,North 2,Uttar Pradesh,Kanpur,208006,SC28,OPERATIONAL,Digital
3741,South 2,Kerala,Tirur,676101,SD78,OPERATIONAL,DIGITAL EXPRESS MINI
TQB3,West,Maharashtra,Mumbai,400086,R696,OPERATIONAL,Digital
TM84,East,West Bengal,Kolkata,700137,SLKO,OPERATIONAL,Digital
TW39,South 3,Tamil Nadu,Theni,625531,S0TC,OPERATIONAL,Digital
3877,East,West Bengal,Kolkata,700047,SLKO,OPERATIONAL,DIGITAL EXPRESS MINI
6273,West 2,Madhya Pradesh,Ujjain,456001,S0GZ,OPERATIONAL,DIGITAL EXPRESS MINI
6353,North 1,Delhi NCR,Delhi,110034,SJ93,OPERATIONAL,DIGITAL EXPRESS MINI
6024,South 1,Andhra Pradesh,Adoni,518301,SE40,OPERATIONAL,DIGITAL EXPRESS MINI
8475,South 2,Telangana,Hyderabad,500010,SE40,OPERATIONAL,DIGITAL EXPRESS MINI
6497,South 2,Kerala,Kozhikode,673508,SD78,OPERATIONAL,DIGITAL EXPRESS MINI
8683,Central,Madhya Pradesh,Jabalpur,482008,SACU,OPERATIONAL,Digital
6316,East,West Bengal,Kolkata,700107,SLKO,OPERATIONAL,DIGITAL EXPRESS MINI
TEH6,West 2,Madhya Pradesh,Gwalior,474001,SJ93,OPERATIONAL,DIGITAL EXPRESS MINI
3871,South 1,Andhra Pradesh,Mangalagiri,522503,S0UG,OPERATIONAL,DIGITAL EXPRESS MINI
TJQ8,North 2,Uttar Pradesh,Prayagraj,211001,SC28,OPERATIONAL,DIGITAL EXPRESS MINI
TES4,South 2,Tamil Nadu,Tiruvallur,602001,SJ99,OPERATIONAL,DIGITAL EXPRESS MINI
6524,West 1,Maharashtra,Mumbai,400080,R696,OPERATIONAL,DIGITAL EXPRESS MINI
6176,South 1,Andhra Pradesh,Guntakal,515801,R396,OPERATIONAL,DIGITAL EXPRESS MINI
9613,West 2,Madhya Pradesh,Sarni,460449,S0GZ,OPERATIONAL,DIGITAL EXPRESS MINI
9638,East,North East,Dimapur,797112,S597,OPERATIONAL,DIGITAL EXPRESS MINI
9123,South 1,Karnataka,Chitradurga,577501,R396,OPERATIONAL,DIGITAL EXPRESS MINI
7799,North 1,Delhi NCR,Delhi,110018,SJ93,OPERATIONAL,DIGITAL EXPRESS MINI
TXTV,South 3,Tamil Nadu,Arcot,632503,SJ99,OPERATIONAL,Digital
TGE6,East,West Bengal,Kolkata,712102,SLKO,OPERATIONAL,Digital
7880,North 2,Jharkhand,Dhanbad,828111,R278,OPERATIONAL,DIGITAL EXPRESS MINI
3749,South 2,Tamil Nadu,Chengalpattu,603001,SJ99,OPERATIONAL,DIGITAL EXPRESS MINI
6996,West 2,Madhya Pradesh,Shahdol,484001,S0GZ,OPERATIONAL,DIGITAL EXPRESS MINI
3512,North 2,Uttar Pradesh,Chandausi,202412,SJ93,OPERATIONAL,DIGITAL EXPRESS MINI
9601,East,North East,Imphal,795001,S597,OPERATIONAL,DIGITAL EXPRESS MINI
TKI0,East,Assam,Bongaigaon,783380,S597,OPERATIONAL,Digital
8636,West,Maharashtra,Mumbai,400074,R696,OPERATIONAL,Digital
8815,South 2,Telangana,Hyderabad,500036,SE40,OPERATIONAL,Digital
7781,North 1,Delhi NCR,Delhi,110070,SJ93,OPERATIONAL,DIGITAL EXPRESS MINI
TCJ9,North 1,Haryana,Jind,126102,SJ93,OPERATIONAL,DIGITAL EXPRESS MINI
6384,North 2,Bihar,Patna,800025,R394,OPERATIONAL,DIGITAL EXPRESS MINI
7556,North 1,Delhi NCR,Delhi,110095,SJ93,OPERATIONAL,DIGITAL EXPRESS MINI
7686,South 1,Karnataka,Bangalore,560052,R396,OPERATIONAL,Digital
7738,West 1,Maharashtra,Nashik,422005,R696,OPERATIONAL,DIGITAL EXPRESS MINI
TKF3,South 1,Andhra Pradesh,Kakinada,533005,R804,OPERATIONAL,DIGITAL EXPRESS MINI
6695,EAST,Jharkhand,Jamshedpur,831001,R278,OPERATIONAL,DIGITAL EXPRESS MINI
6896,North 2,Bihar,Lakhisarai,811311,R394,OPERATIONAL,DIGITAL EXPRESS MINI
TKT4,South 1,Karnataka,Bangalore,560054,R396,OPERATIONAL,DIGITAL EXPRESS MINI
9129,South 2,Kerala,Kayamkulam,690502,SD78,OPERATIONAL,DIGITAL EXPRESS MINI
TXUD,Central,Chhattisgarh,Raipur,492001,S573,OPERATIONAL,Digital
TTZ6,South 2,Andhra Pradesh,Vizag,530003,R804,OPERATIONAL,Digital
8962,South 2,Andhra Pradesh,Rajahmundry,533101,S0UG,OPERATIONAL,Digital
6685,East,West Bengal,Kolkata,712201,SLKO,OPERATIONAL,DIGITAL EXPRESS MINI
TN51,South 3,Tamil Nadu,Hosur,635126,R396,OPERATIONAL,Digital
8938,South 3,Tamil Nadu,Chennai,600117,SJ99,OPERATIONAL,Digital
T82C,East,West Bengal,Haldia,721657,SLKO,OPERATIONAL,DIGITAL EXPRESS MINI
6483,South 1,Andhra Pradesh,Kurnool,518001,SE40,OPERATIONAL,DIGITAL EXPRESS MINI
TEZ6,South 2,Telangana,Hyderabad,500062,SE40,OPERATIONAL,DIGITAL EXPRESS MINI
TDG9,East,West Bengal,Kolkata,700122,SLKO,OPERATIONAL,DIGITAL EXPRESS MINI
6406,South 1,Andhra Pradesh,Vishakhapatnam,530017,R804,OPERATIONAL,DIGITAL EXPRESS MINI
6967,South 1,Karnataka,Jamkhandi,587301,R396,OPERATIONAL,DIGITAL EXPRESS MINI
3898,South 3,Tamil Nadu,Chennai,600059,SJ99,OPERATIONAL,Digital
3853,South 2,Tamil Nadu,Chennai,600045,SJ99,OPERATIONAL,DIGITAL EXPRESS MINI
TJY0,South 2,Telangana,Hyderabad,501508,SE40,OPERATIONAL,Digital
3795,South 1,Karnataka,Kolar,563101,R396,OPERATIONAL,DIGITAL EXPRESS MINI
6163,North 2,Uttarakhand,Haldwani,263139,SLOR,OPERATIONAL,DIGITAL EXPRESS MINI
7542,North 1,Delhi NCR,Delhi,110024,SJ93,OPERATIONAL,DIGITAL EXPRESS MINI
TVL8,West,Maharashtra,Pune,412207,V014,OPERATIONAL,Digital
7960,North 1,Punjab,Chandigarh,160022,S0CV,OPERATIONAL,DIGITAL EXPRESS MINI
TN64,South 1,Goa,Panaji,403521,R396,OPERATIONAL,Digital
6395,West 1,Maharashtra,Solapur,413003,V014,OPERATIONAL,DIGITAL EXPRESS MINI
3808,West 2,Rajasthan,Dausa,303303,R810,OPERATIONAL,DIGITAL EXPRESS MINI
7601,West 1,Maharashtra,Pune,411048,V014,OPERATIONAL,DIGITAL EXPRESS MINI
8959,South 2,Telangana,Hyderabad,500062,SE40,OPERATIONAL,Digital
6378,West 1,Chhattisgarh,Bilaspur,495001,S573,OPERATIONAL,DIGITAL EXPRESS MINI
6172,West 2,Rajasthan,Kishangarh,305801,R810,OPERATIONAL,DIGITAL EXPRESS MINI
6469,North 1,Haryana,Hissar,125005,SJ93,OPERATIONAL,DIGITAL EXPRESS MINI
6128,South 2,Tamil Nadu,Arani,632301,SJ99,OPERATIONAL,DIGITAL EXPRESS MINI
T0WI,West,Maharashtra,Mumbai,,R696,OPERATIONAL,Digital
6286,West 2,Madhya Pradesh,Gwalior,474011,SJ93,OPERATIONAL,DIGITAL EXPRESS MINI
TJC9,EAST,West Bengal,Raiganj,733134,SLLN,OPERATIONAL,DIGITAL EXPRESS MINI
7999,South 2,Kerala,Kochi,682005,SD78,OPERATIONAL,DIGITAL EXPRESS MINI
TCW9,West 1,Maharashtra,Pune,411040,V014,OPERATIONAL,DIGITAL EXPRESS MINI
6754,West 2,Gujarat,Surat,395001,SLTY,OPERATIONAL,DIGITAL EXPRESS MINI
6665,South 1,Karnataka,Yadgir,585202,SE40,OPERATIONAL,DIGITAL EXPRESS MINI
TGB3,South 1,Karnataka,Bangalore,560070,R396,OPERATIONAL,DIGITAL EXPRESS MINI
TP73,South 1,Karnataka,Bangalore,560048,R396,OPERATIONAL,Digital
TJE6,South 1,Karnataka,Bangalore,560068,R396,OPERATIONAL,DIGITAL EXPRESS MINI
3526,North 1,Punjab,Firozpur Cantt.,152001,S0CV,OPERATIONAL,DIGITAL EXPRESS MINI
9508,West 1,Maharashtra,Mumbai,421301,R696,OPERATIONAL,DIGITAL EXPRESS MINI
T2UC,West,Maharashtra,Aurangabad,,V014,OPERATIONAL,Digital
9195,North 1,Jammu & Kashmir,Jammu,180005,Y695,OPERATIONAL,DIGITAL EXPRESS MINI
TSD4,South 1,Karnataka,Bangalore,560032,R396,OPERATIONAL,Digital
3508,West 1,Maharashtra,Mumbai,421302,R696,OPERATIONAL,DIGITAL EXPRESS MINI
TZ8F,North 2,Uttar Pradesh,Lucknow,226010,SC28,OPERATIONAL,Digital
6655,South 1,Andhra Pradesh,Yemmiganur,518360,SE40,OPERATIONAL,DIGITAL EXPRESS MINI
T9KT,South 1,Telangana,Sangareddy,502295,SE40,OPERATIONAL,DIGITAL EXPRESS MINI
TEE7,South 2,Tamil Nadu,Chennai,600087,SJ99,OPERATIONAL,DIGITAL EXPRESS MINI
7692,EAST,Jharkhand,Ranchi,834009,R278,OPERATIONAL,DIGITAL EXPRESS MINI
3558,West 2,Gujarat,Silvasa,396230,SLTY,OPERATIONAL,DIGITAL EXPRESS MINI
7703,South 1,Karnataka,Bangalore,560010,R396,OPERATIONAL,DIGITAL EXPRESS MINI
TNQ1,South 1,Karnataka,Bangalore,560102,R396,OPERATIONAL,Digital
7615,East,West Bengal,Kolkata,712223,SLKO,OPERATIONAL,DIGITAL EXPRESS MINI
7634,West 1,Maharashtra,Mumbai,421301,R696,OPERATIONAL,DIGITAL EXPRESS MINI
TSD9,South 3,Tamil Nadu,Chennai,600014,SJ99,OPERATIONAL,Digital
7720,North 1,Punjab,Amritsar,143001,S0CV,OPERATIONAL,DIGITAL EXPRESS MINI
TZ8E,West,Maharashtra,Nashik,422010,R696,OPERATIONAL,Digital
T2RY,South 1,Karnataka,Tumkur,,R396,OPERATIONAL,Digital
TN87,South 1,Karnataka,Bangalore,560022,R396,OPERATIONAL,DIGITAL EXPRESS MINI
6579,West 2,Madhya Pradesh,Chhatarpur,471001,S0GZ,OPERATIONAL,DIGITAL EXPRESS MINI
TN24,North 2,Bihar,Patna,800004,R394,OPERATIONAL,DIGITAL EXPRESS MINI
TW23,South 1,Andhra Pradesh,Samalkota,533440,R804,OPERATIONAL,DIGITAL EXPRESS MINI
TO78,EAST,West Bengal,Medinipur,721101,SLKO,OPERATIONAL,DIGITAL EXPRESS MINI
3839,North 1,Himachal Pradesh,Hamirpur,177001,S0CV,OPERATIONAL,DIGITAL EXPRESS MINI
TKI1,East,Odisha,Balangir,767001,R201,OPERATIONAL,Digital
TLL3,South 1,Karnataka,Belgaum,590001,R396,OPERATIONAL,Digital
TSE4,West,Maharashtra,Mumbai,421301,R696,OPERATIONAL,Digital
9145,South 3,Tamil Nadu,Chennai,600056,SJ99,OPERATIONAL,Digital
6542,EAST,West Bengal,Kharagpur,721301,SLKO,OPERATIONAL,DIGITAL EXPRESS MINI
TTZ8,South 2,Andhra Pradesh,Zirakpur,531001,R804,OPERATIONAL,Digital
3784,North 2,Uttar Pradesh,Obra,231219,SC28,OPERATIONAL,DIGITAL EXPRESS MINI
7969,South 2,Telangana,Hyderabad,500054,SE40,OPERATIONAL,DIGITAL EXPRESS MINI
T54M,East,Odisha,Berhampur,760002,R201,OPERATIONAL,DIGITAL EXPRESS MINI
T753,West,Maharashtra,Baramati,413102,V014,OPERATIONAL,Digital
T633,North 1,Punjab,Mohali,160063,S0CV,OPERATIONAL,Digital
TM83,South 2,Andhra Pradesh,Guntur,522413,S0UG,OPERATIONAL,Digital
3513,North 2,Uttar Pradesh,Jalaun,285123,SJ93,OPERATIONAL,DIGITAL EXPRESS MINI
7576,South 2,Telangana,Hyderabad,500049,SE40,OPERATIONAL,DIGITAL EXPRESS MINI
7525,East,West Bengal,Kolkata,700129,SLKO,OPERATIONAL,DIGITAL EXPRESS MINI
TGS0,North 1,Haryana,Rohtak,124001,SJ93,OPERATIONAL,DIGITAL EXPRESS MINI
8676,North 1,Delhi NCR,Delhi,110043,SJ93,OPERATIONAL,Digital
TY11,North 1,Rajasthan,Udaipur,313001,R810,OPERATIONAL,Digital
6130,North 2,Uttar Pradesh,Deoria,274001,SC28,OPERATIONAL,DIGITAL EXPRESS MINI
TM85,EAST,West Bengal,Hooghly,712136,SLKO,OPERATIONAL,DIGITAL EXPRESS MINI
7680,West 1,Maharashtra,Nagpur,440025,SACU,OPERATIONAL,DIGITAL EXPRESS MINI
7700,West 2,Madhya Pradesh,Bhopal,462010,S0GZ,OPERATIONAL,DIGITAL EXPRESS MINI
6884,West 2,Gujarat,Anand,388001,SLTY,OPERATIONAL,DIGITAL EXPRESS MINI
3799,North 1,Himachal Pradesh,Paonta,173025,S0CV,OPERATIONAL,DIGITAL EXPRESS MINI
7557,South 1,Karnataka,Bangalore,560036,R396,OPERATIONAL,DIGITAL EXPRESS MINI
TM19,Central,Gujarat,Ahmedabad,380015,SLTY,OPERATIONAL,Digital
TLL4,North 1,Delhi NCR,Noida,201301,SJ93,OPERATIONAL,Digital
3814,East,Odisha,Sambalpur,768004,R201,OPERATIONAL,Digital
3615,South 1,Karnataka,Doddaballapur,561203,R396,OPERATIONAL,DIGITAL EXPRESS MINI
TES8,North 2,Uttar Pradesh,Saharanpur,247001,SLOR,OPERATIONAL,DIGITAL EXPRESS MINI
6458,East,Odisha,Cuttack,753001,R201,OPERATIONAL,DIGITAL EXPRESS MINI
3661,South 2,Tamil Nadu,Rajapalayam,626117,S0TC,OPERATIONAL,DIGITAL EXPRESS MINI
7871,East,West Bengal,Durgapur,713216,SLKO,OPERATIONAL,DIGITAL EXPRESS MINI
3787,East,Odisha,Bhawanipatna,766001,R201,OPERATIONAL,DIGITAL EXPRESS MINI
3515,North 2,Uttarakhand,Rishikesh,249201,SLOR,OPERATIONAL,DIGITAL EXPRESS MINI
TR14,North 1,Punjab,Zirakpur,140603,S0CV,OPERATIONAL,Digital
8936,South 3,Tamil Nadu,Chennai,600050,SJ99,OPERATIONAL,Digital
T754,South 2,Telangana,Nizamabad,503001,SE40,OPERATIONAL,Digital
6885,South 1,Andhra Pradesh,Nellore,524003,SJ99,OPERATIONAL,DIGITAL EXPRESS MINI
9196,North 1,Rajasthan,Bhilwara,311006,R810,OPERATIONAL,Digital
3663,West 2,Madhya Pradesh,Singrauli,486886,SC28,OPERATIONAL,DIGITAL EXPRESS MINI
6346,South 2,Tamil Nadu,Pondicherry,605001,SJ99,OPERATIONAL,DIGITAL EXPRESS MINI
TW29,West 1,Chhattisgarh,Raipur,492013,S573,OPERATIONAL,DIGITAL EXPRESS MINI
9127,East,Assam,Nagaon,782001,S597,OPERATIONAL,DIGITAL EXPRESS MINI
TW85,East,West Bengal,Kolkata,743248,SLKO,OPERATIONAL,DIGITAL EXPRESS MINI
9520,South 2,Kerala,Calicut,673004,SD78,OPERATIONAL,DIGITAL EXPRESS MINI
6735,South 1,Telangana,Nizamabad,503003,SE40,OPERATIONAL,DIGITAL EXPRESS MINI
TVM5,East,West Bengal,Kolkata,700020,SLKO,OPERATIONAL,Digital
6444,West 1,Maharashtra,Pune,411044,V014,OPERATIONAL,DIGITAL EXPRESS MINI
TGJ6,South 2,Telangana,Hyderabad,500038,SE40,OPERATIONAL,Digital
6516,West 2,Rajasthan,Udaipur,313001,R810,OPERATIONAL,DIGITAL EXPRESS MINI
8661,South 2,Telangana,Hyderabad,500014,SE40,OPERATIONAL,Digital
9176,Central,Gujarat,Ahmedabad,382480,SLTY,OPERATIONAL,Digital
3570,North 1,Delhi NCR,Delhi,110007,SJ93,OPERATIONAL,DIGITAL EXPRESS MINI
8823,South 2,Telangana,Hyderabad,500044,SE40,OPERATIONAL,Digital
7621,South 2,Tamil Nadu,Chennai,600118,SJ99,OPERATIONAL,DIGITAL EXPRESS MINI
7467,South 1,Karnataka,Bangalore,560056,R396,OPERATIONAL,DIGITAL EXPRESS MINI
6635,West 2,Gujarat,Ahmedabad,380008,SLTY,OPERATIONAL,DIGITAL EXPRESS MINI
6345,East,West Bengal,Kolkata,712235,SLKO,OPERATIONAL,DIGITAL EXPRESS MINI
6940,North 1,Punjab,Firozpur,152002,S0CV,OPERATIONAL,DIGITAL EXPRESS MINI
3559,West 1,Maharashtra,Vasai,401209,R696,OPERATIONAL,DIGITAL EXPRESS MINI
6990,West 2,Madhya Pradesh,Morena,476001,SJ93,OPERATIONAL,DIGITAL EXPRESS MINI
TC99,East,North East,Itanagar,791113,S597,OPERATIONAL,DIGITAL EXPRESS MINI
TH24,West 2,Rajasthan,Jaipur,302039,R810,OPERATIONAL,DIGITAL EXPRESS MINI
6858,West 1,Maharashtra,Mumbai,400019,R696,OPERATIONAL,DIGITAL EXPRESS MINI
7489,South 2,Tamil Nadu,Coimbatore,641034,S0TC,OPERATIONAL,DIGITAL EXPRESS MINI
9526,South 3,Tamil Nadu,Coimbatore,641035,S0TC,OPERATIONAL,Digital
7562,North 1,Delhi NCR,Delhi,110032,SJ93,OPERATIONAL,DIGITAL EXPRESS MINI
7776,North 2,Uttar Pradesh,Meerut,250002,SLOR,OPERATIONAL,DIGITAL EXPRESS MINI
6474,North 1,Haryana,Rohtak,124001,SJ93,OPERATIONAL,DIGITAL EXPRESS MINI
6572,West 1,Maharashtra,Anjangaon,444705,SACU,OPERATIONAL,DIGITAL EXPRESS MINI
6661,South 1,Andhra Pradesh,Madanapalle,517325,R396,OPERATIONAL,DIGITAL EXPRESS MINI
3770,South 2,Kerala,Mallapuram,676519,SD78,OPERATIONAL,DIGITAL EXPRESS MINI
6760,South 2,Tamil Nadu,Tiruppur,641604,S0TC,OPERATIONAL,DIGITAL EXPRESS MINI
TC80,South 1,Karnataka,Shimoga,577201,R396,OPERATIONAL,Digital
TDJ0,North 2,Bihar,Patna,800020,R394,OPERATIONAL,Digital
7874,South 1,Karnataka,Bangalore,560040,R396,OPERATIONAL,DIGITAL EXPRESS MINI
6307,East,West Bengal,Asansol,713304,SLKO,OPERATIONAL,DIGITAL EXPRESS MINI
3628,North 2,Uttar Pradesh,Basti,272001,SC28,OPERATIONAL,DIGITAL EXPRESS MINI
3856,West 2,Madhya Pradesh,Mandsaur,458001,S0GZ,OPERATIONAL,DIGITAL EXPRESS MINI
6988,West 2,Madhya Pradesh,Hoshangabad,461001,S0GZ,OPERATIONAL,DIGITAL EXPRESS MINI
TM10,North 2,Bihar,Aurangabad,824101,R394,OPERATIONAL,DIGITAL EXPRESS MINI
T0ET,North 2,Bihar,Patna,,R394,OPERATIONAL,DIGITAL EXPRESS MINI
3579,West 2,Gujarat,Vadodara,390008,SLTY,OPERATIONAL,DIGITAL EXPRESS MINI
8896,South 1,Karnataka,Hubli,580021,R396,OPERATIONAL,Digital
6454,South 2,Tamil Nadu,Dindigul,624001,S0TC,OPERATIONAL,DIGITAL EXPRESS MINI
TOI4,Central,Madhya Pradesh,Gwalior,474001,SJ93,OPERATIONAL,Digital
7605,West 1,Maharashtra,Mumbai,401105,R696,OPERATIONAL,DIGITAL EXPRESS MINI
6265,North 2,Uttar Pradesh,Aligarh,202001,SJ93,OPERATIONAL,DIGITAL EXPRESS MINI
3641,East,Odisha,Bhadrak,756001,R201,OPERATIONAL,DIGITAL EXPRESS MINI
7713,EAST,Odisha,Bhubaneshwar,751007,R201,OPERATIONAL,DIGITAL EXPRESS MINI
3634,North 2,Uttar Pradesh,Ganga Ghat,209801,SC28,OPERATIONAL,DIGITAL EXPRESS MINI
3523,East,West Bengal,Chakdaha,741222,SLKO,OPERATIONAL,DIGITAL EXPRESS MINI
TO34,North 1,Rajasthan,Jaipur,302004,R810,OPERATIONAL,Digital
6401,South 1,Karnataka,Bangalore,560094,R396,OPERATIONAL,Digital
TZ8D,West,Maharashtra,Beed,431122,V014,OPERATIONAL,Digital
TCO0,East,West Bengal,Malda,732101,SLLN,OPERATIONAL,Digital
TK85,South 2,Andhra Pradesh,Vijayawada,522501,S0UG,OPERATIONAL,Digital
6909,East,West Bengal,Kolkata,700032,SLKO,OPERATIONAL,DIGITAL EXPRESS MINI
7654,North 1,Punjab,Mohali,160055,S0CV,OPERATIONAL,DIGITAL EXPRESS MINI
7819,East,West Bengal,Asansol,713304,SLKO,OPERATIONAL,DIGITAL EXPRESS MINI
8924,West,Maharashtra,Pune,411057,V014,OPERATIONAL,Digital
8948,North 2,Uttar Pradesh,Lucknow,226005,SC28,OPERATIONAL,Digital
6177,South 2,Tamil Nadu,Srivilliputtur,626125,S0TC,OPERATIONAL,DIGITAL EXPRESS MINI
TXXH,West,Maharashtra,Mumbai,400007,R696,OPERATIONAL,Digital
7696,West 2,Rajasthan,Jaipur,302012,R810,OPERATIONAL,DIGITAL EXPRESS MINI
6126,South 2,Tamil Nadu,Nagapattinam,611001,S0TC,OPERATIONAL,DIGITAL EXPRESS MINI
7923,East,Jharkhand,Ranchi,834002,R278,OPERATIONAL,DIGITAL EXPRESS MINI
TG6U,West 1,Maharashtra,Solapur,413001,V014,OPERATIONAL,DIGITAL EXPRESS MINI
7977,South 2,Tamil Nadu,Salem,636004,S0TC,OPERATIONAL,DIGITAL EXPRESS MINI
3631,North 2,Uttar Pradesh,Laharpur,261135,SC28,OPERATIONAL,DIGITAL EXPRESS MINI
9678,South 3,Kerala,Thrissur,680553,SD78,OPERATIONAL,Digital
TI0Z,North 2,Jharkhand,Dhanbad,,R278,OPERATIONAL,Digital
6424,South 1,Karnataka,Bangalore,560094,R396,OPERATIONAL,DIGITAL EXPRESS MINI
TQ28,South 1,Karnataka,Bellary,583104,R396,OPERATIONAL,Digital
6973,West 2,Gujarat,Himmatnagar,383001,SLTY,OPERATIONAL,DIGITAL EXPRESS MINI
6513,North 1,Haryana,Panipat,132103,SJ93,OPERATIONAL,DIGITAL EXPRESS MINI
T11L,Central,Madhya Pradesh,Indore,452016,S0GZ,OPERATIONAL,Digital
TIX4,North 1,Delhi NCR,Gurgaon,122103,SJ93,OPERATIONAL,Digital
8927,West,Maharashtra,Sangli,416416,V014,OPERATIONAL,Digital
7793,EAST,Jharkhand,Ranchi,834001,R278,OPERATIONAL,DIGITAL EXPRESS MINI
7892,South 1,Karnataka,Hubli-Dharwad,580020,R396,OPERATIONAL,DIGITAL EXPRESS MINI
6416,North 2,Uttarakhand,Dehradun,248006,SLOR,OPERATIONAL,DIGITAL EXPRESS MINI
7461,South 2,Telangana,Hyderabad,500059,SE40,OPERATIONAL,DIGITAL EXPRESS MINI
6646,South 1,Andhra Pradesh,Kavali,524201,S0UG,OPERATIONAL,DIGITAL EXPRESS MINI
3805,North 1,Himachal Pradesh,Solan,173212,S0CV,OPERATIONAL,DIGITAL EXPRESS MINI
7764,South 2,Kerala,Thrissur,680121,SD78,OPERATIONAL,DIGITAL EXPRESS MINI
7475,West 2,Madhya Pradesh,Bhopal,462011,S0GZ,OPERATIONAL,DIGITAL EXPRESS MINI
9632,East,Assam,Guwahati,781003,S597,OPERATIONAL,Digital
TJ3X,West,Maharashtra,Dhule,,R696,OPERATIONAL,Digital
3887,East,Assam,Goalpara,783101,S597,OPERATIONAL,DIGITAL EXPRESS MINI
6431,South 1,Andhra Pradesh,Tirupati,517501,SJ99,OPERATIONAL,DIGITAL EXPRESS MINI
6523,West 2,Gujarat,Ahmedabad,380013,SLTY,OPERATIONAL,DIGITAL EXPRESS MINI
8824,South 2,Telangana,Hyderabad,500027,SE40,OPERATIONAL,Digital
6541,East,West Bengal,Kolkata,743235,SLKO,OPERATIONAL,DIGITAL EXPRESS MINI
T597,North 1,Punjab,Jalandhar,144022,S0CV,OPERATIONAL,Digital
6595,West 1,Maharashtra,Amalner,425401,R696,OPERATIONAL,DIGITAL EXPRESS MINI
TGB4,East,West Bengal,Kolkata,700141,SLKO,OPERATIONAL,DIGITAL EXPRESS MINI
3879,East,West Bengal,Kolkata,700060,SLKO,OPERATIONAL,DIGITAL EXPRESS MINI
6535,South 1,Andhra Pradesh,Ongole,523001,S0UG,OPERATIONAL,DIGITAL EXPRESS MINI
3778,South 2,Kerala,Nedumangad,695541,SD78,OPERATIONAL,DIGITAL EXPRESS MINI
7589,West 1,Maharashtra,Pune,411028,V014,OPERATIONAL,DIGITAL EXPRESS MINI
TFB7,West,Maharashtra,Mumbai,400709,R696,OPERATIONAL,Digital
TW82,South 3,Kerala,Palakkad,678013,SD78,OPERATIONAL,Digital
3618,South 2,Tamil Nadu,Attur,636102,S0TC,OPERATIONAL,DIGITAL EXPRESS MINI
9557,South 3,Kerala,Kollam,691001,SD78,OPERATIONAL,Digital
7833,South 2,Tamil Nadu,Coimbatore,641011,S0TC,OPERATIONAL,DIGITAL EXPRESS MINI
8673,South 2,Andhra Pradesh,Eluru,534002,S0UG,OPERATIONAL,Digital
6476,West 1,Maharashtra,Mumbai,400080,R696,OPERATIONAL,DIGITAL EXPRESS MINI
7998,West 2,Gujarat,Vadodara,390025,SLTY,OPERATIONAL,DIGITAL EXPRESS MINI
3752,West 1,Maharashtra,Chopda,425107,R696,Closed,DIGITAL EXPRESS MINI
8978,South 3,Tamil Nadu,Chennai,600044,SJ99,OPERATIONAL,Digital
TAZ4,South 3,Tamil Nadu,Chennai,600026,SJ99,OPERATIONAL,Digital
6560,North 2,Uttar Pradesh,Varanasi,221002,SC28,OPERATIONAL,DIGITAL EXPRESS MINI
TES0,South 1,Karnataka,Bangalore,560049,R396,OPERATIONAL,Digital
T86Y,East,West Bengal,Kolkata,700129,SLKO,OPERATIONAL,Digital
3556,South 2,Tamil Nadu,Gudiyatham,632602,SJ99,OPERATIONAL,DIGITAL EXPRESS MINI
6317,East,West Bengal,Kolkata,700108,SLKO,OPERATIONAL,DIGITAL EXPRESS MINI
8996,North 1,Delhi NCR,Delhi,110092,SJ93,OPERATIONAL,DIGITAL EXPRESS MINI
7896,South 2,Tamil Nadu,Madurai,625001,S0TC,OPERATIONAL,DIGITAL EXPRESS MINI
3565,West 2,Gujarat,Anand,388120,SLTY,OPERATIONAL,DIGITAL EXPRESS MINI
7673,North 1,Punjab,Ludhiana,141001,S0CV,OPERATIONAL,DIGITAL EXPRESS MINI
7827,East,Jharkhand,Bokaro Steel City,827004,R278,OPERATIONAL,DIGITAL EXPRESS MINI
6441,East,Odisha,Rourkela,769001,R278,OPERATIONAL,DIGITAL EXPRESS MINI
6923,North 2,Uttar Pradesh,Moradabad,244001,SJ93,OPERATIONAL,DIGITAL EXPRESS MINI
8972,West,Maharashtra,Mumbai,400049,R696,OPERATIONAL,Digital
3693,North 2,Uttar Pradesh,Bhadohi,221401,SC28,OPERATIONAL,DIGITAL EXPRESS MINI
3888,North 1,Punjab,Phagwara,144401,S0CV,OPERATIONAL,DIGITAL EXPRESS MINI
T634,East,North East,Shillong,793001,S597,OPERATIONAL,DIGITAL EXPRESS MINI
TU53,North 2,Jharkhand,Dhanbad,826001,R278,OPERATIONAL,DIGITAL EXPRESS MINI
8465,North 1,Haryana,Panchkula,134109,S0CV,OPERATIONAL,Digital
8979,South 3,Tamil Nadu,Chennai,600053,SJ99,OPERATIONAL,Digital
3899,South 2,Kerala,Cherthala,688524,SD78,OPERATIONAL,DIGITAL EXPRESS MINI
6689,North 2,Bihar,Muzaffarpur,842001,R394,OPERATIONAL,DIGITAL EXPRESS MINI
TVL1,Central,Madhya Pradesh,Bhopal,462022,S0GZ,OPERATIONAL,Digital
7848,West 2,Rajasthan,Ajmer,305001,R810,OPERATIONAL,DIGITAL EXPRESS MINI
T647,North 2,Bihar,Begusarai,851101,R394,OPERATIONAL,DIGITAL EXPRESS MINI
TCB1,North 2,Uttar Pradesh,Lucknow,226006,SC28,OPERATIONAL,Digital
7873,South 1,Karnataka,Bangalore,560016,R396,OPERATIONAL,DIGITAL EXPRESS MINI
3622,North 2,Uttar Pradesh,Gonda,271002,SC28,OPERATIONAL,DIGITAL EXPRESS MINI
TY23,South 2,Telangana,Khammam,507101,S0UG,OPERATIONAL,Digital
6305,North 2,Uttar Pradesh,Muzaffarnagar,251001,SLOR,OPERATIONAL,DIGITAL EXPRESS MINI
3835,North 2,Uttar Pradesh,Dadri,201301,SJ93,OPERATIONAL,DIGITAL EXPRESS MINI
6315,West 1,Chhattisgarh,Bhilai,490023,S573,OPERATIONAL,DIGITAL EXPRESS MINI
6428,West 1,Maharashtra,Nashik,422002,R696,OPERATIONAL,DIGITAL EXPRESS MINI
TH23,East,Nagaland,Kohima,797001,S597,OPERATIONAL,DIGITAL EXPRESS MINI
TZ06,North 1,Haryana,Ambala Cantt,133001,S0CV,OPERATIONAL,DIGITAL EXPRESS MINI
8843,North 1,Delhi NCR,Delhi,110092,SJ93,OPERATIONAL,Digital
TJ4V,North 1,Punjab,Dasua,,S0CV,OPERATIONAL,DIGITAL EXPRESS MINI
6429,South 2,Tamil Nadu,Thanjavur,613007,S0TC,OPERATIONAL,DIGITAL EXPRESS MINI
TN63,East,West Bengal,Darjeeling,734101,SLLN,OPERATIONAL,Digital
7731,West 1,Maharashtra,Nanded,431602,SE40,OPERATIONAL,DIGITAL EXPRESS MINI
6387,South 1,Karnataka,Bangalore,560050,R396,OPERATIONAL,DIGITAL EXPRESS MINI
7791,West 2,Gujarat,Surat,394210,SLTY,OPERATIONAL,DIGITAL EXPRESS MINI
6928,West 2,Gujarat,Morvi,363642,SLTY,OPERATIONAL,DIGITAL EXPRESS MINI
TR16,South 1,Andhra Pradesh,Chirala,523157,S0UG,OPERATIONAL,DIGITAL EXPRESS MINI
6435,East,Odisha,Berhampur,760001,R201,OPERATIONAL,DIGITAL EXPRESS MINI
7900,East,Odisha,Bhubaneshwar,751012,R201,OPERATIONAL,DIGITAL EXPRESS MINI
TVL6,Central,Madhya Pradesh,Rewa,486001,SACU,OPERATIONAL,Digital
9594,North 1,Delhi NCR,Delhi,110018,SJ93,OPERATIONAL,Digital
TZZS,South 1,Karnataka,Doddaballapur,561203,R396,OPERATIONAL,Digital
7681,South 2,Tamil Nadu,Tiruppur,641601,S0TC,OPERATIONAL,DIGITAL EXPRESS MINI
6129,West 1,Maharashtra,Ambejogai,431517,V014,OPERATIONAL,DIGITAL EXPRESS MINI
TO89,East,West Bengal,Kolkata,700041,SLKO,OPERATIONAL,DIGITAL EXPRESS MINI
8762,North 1,Delhi NCR,Delhi,110028,SJ93,OPERATIONAL,DIGITAL EXPRESS MINI
TGB2,East,West Bengal,Canning South,743329,SLKO,OPERATIONAL,DIGITAL EXPRESS MINI
TSE3,East,West Bengal,Kolkata,700047,SLKO,OPERATIONAL,Digital
TM06,North 2,Bihar,Patna,800006,R394,OPERATIONAL,DIGITAL EXPRESS MINI
3666,South 2,Tamil Nadu,Tindivanam,604001,SJ99,OPERATIONAL,DIGITAL EXPRESS MINI
T1RH,East,West Bengal,Kolkata,700144,SLKO,OPERATIONAL,DIGITAL EXPRESS MINI
7932,North 2,Uttar Pradesh,Varanasi,221010,SC28,OPERATIONAL,DIGITAL EXPRESS MINI
TCR8,East,West Bengal,Kolkata,700035,SLKO,OPERATIONAL,DIGITAL EXPRESS MINI
6312,South 1,Karnataka,Udupi,576101,R396,OPERATIONAL,DIGITAL EXPRESS MINI
8699,East,West Bengal,Kolkata,700120,SLKO,OPERATIONAL,Digital
7679,West 2,Rajasthan,Jaipur,302012,R810,OPERATIONAL,DIGITAL EXPRESS MINI
6278,South 2,Tamil Nadu,Chennai,603202,SJ99,OPERATIONAL,DIGITAL EXPRESS MINI
7834,South 2,Tamil Nadu,Coimbatore,641024,S0TC,OPERATIONAL,DIGITAL EXPRESS MINI
T24N,West,Maharashtra,Mumbai,400092,R696,OPERATIONAL,Digital
6302,West 2,Gujarat,Surat,395009,SLTY,OPERATIONAL,DIGITAL EXPRESS MINI
TOW1,West 1,Maharashtra,Mumbai,400097,R696,OPERATIONAL,DIGITAL EXPRESS MINI
TFJ7,South 1,Karnataka,Bangalore,560072,R396,OPERATIONAL,DIGITAL EXPRESS MINI
T2UA,North 2,JHARKHAND,Dhanbad,,R278,OPERATIONAL,Digital
3672,West 2,Rajasthan,Nawalgarh,333042,R810,OPERATIONAL,DIGITAL EXPRESS MINI
7561,West 1,Maharashtra,Pune,411040,V014,OPERATIONAL,DIGITAL EXPRESS MINI
7625,North 1,Delhi NCR,Delhi,110088,SJ93,OPERATIONAL,DIGITAL EXPRESS MINI
TPO8,East,West Bengal,Asansol,713303,SLKO,OPERATIONAL,Digital
3689,West 1,Maharashtra,Washim,444505,SACU,OPERATIONAL,DIGITAL EXPRESS MINI
9649,East,West Bengal,Jaigaon,736182,SLLN,OPERATIONAL,Digital
T16J,South 2,Telangana,Anantpur,515004,R396,OPERATIONAL,Digital
6543,East,West Bengal,Kolkata,722410,SLKO,OPERATIONAL,DIGITAL EXPRESS MINI
3789,South 3,Kerala,Thripunithra,682301,SD78,OPERATIONAL,Digital
T53Y,East,Tripura,Agartala,799001,S597,OPERATIONAL,Digital
6843,North 1,Haryana,Ambala Ua,133001,S0CV,OPERATIONAL,DIGITAL EXPRESS MINI
8947,North 2,Uttar Pradesh,Kanpur,208001,SC28,OPERATIONAL,Digital
3617,South 2,Tamil Nadu,Bhavani,638183,S0TC,OPERATIONAL,DIGITAL EXPRESS MINI
6955,North 1,Punjab,Rajpura,140401,S0CV,OPERATIONAL,DIGITAL EXPRESS MINI
7961,South 2,Tamil Nadu,Tiruchirappalli,620002,S0TC,OPERATIONAL,DIGITAL EXPRESS MINI
7941,West 1,Maharashtra,Pune,411046,V014,OPERATIONAL,DIGITAL EXPRESS MINI
TO11,East,West Bengal,Howrah,711202,SLKO,OPERATIONAL,Digital
TW12,EAST,West Bengal,Siliguri,734005,SLLN,OPERATIONAL,DIGITAL EXPRESS MINI
7574,West 1,Maharashtra,Mumbai,400708,R696,OPERATIONAL,DIGITAL EXPRESS MINI
TGJ5,South 3,Kerala,Calicut,673006,SD78,OPERATIONAL,Digital
6336,South 1,Karnataka,Bangalore,560069,R396,OPERATIONAL,DIGITAL EXPRESS MINI
6409,West 1,Maharashtra,Nashik,422008,R696,OPERATIONAL,DIGITAL EXPRESS MINI
6382,South 1,Andhra Pradesh,Kakinada,533003,R804,OPERATIONAL,DIGITAL EXPRESS MINI
3576,West 2,Gujarat,Modasa,383315,SLTY,OPERATIONAL,DIGITAL EXPRESS MINI
6978,West 1,Goa,Panaji,403001,R396,OPERATIONAL,DIGITAL EXPRESS MINI
8829,South 2,Telangana,Hyderabad,500072,SE40,OPERATIONAL,Digital
6436,South 1,Telangana,Karimnagar,505001,SE40,OPERATIONAL,DIGITAL EXPRESS MINI
TGM2,East,West Bengal,Krishnanagar,741101,SLKO,OPERATIONAL,Digital
8690,South 2,Andhra Pradesh,Tirupati,517501,SJ99,OPERATIONAL,Digital
9155,North 1,Delhi NCR,Delhi,110006,SJ93,OPERATIONAL,DIGITAL EXPRESS MINI
7986,West 1,Maharashtra,Mumbai,410210,R696,OPERATIONAL,DIGITAL EXPRESS MINI
TFF8,North 2,Uttar Pradesh,Jhansi,284128,SC28,OPERATIONAL,DIGITAL EXPRESS MINI
TJQ9,South 2,Telangana,Hyderabad,500013,SE40,OPERATIONAL,DIGITAL EXPRESS MINI
TV04,North 2,Uttar Pradesh,Lucknow,226003,SC28,OPERATIONAL,DIGITAL EXPRESS MINI
7694,North 1,Delhi NCR,Delhi,110091,SJ93,OPERATIONAL,DIGITAL EXPRESS MINI
6880,North 1,Delhi NCR,Noida,201301,SJ93,OPERATIONAL,DIGITAL EXPRESS MINI
7617,East,West Bengal,Kolkata,700075,SLKO,OPERATIONAL,DIGITAL EXPRESS MINI
6127,South 2,Tamil Nadu,Tirupathur,635601,SJ99,OPERATIONAL,DIGITAL EXPRESS MINI
TJR0,South 2,Telangana,Hyderabad,500062,SE40,OPERATIONAL,DIGITAL EXPRESS MINI
7762,West 1,Maharashtra,Mumbai,400605,R696,OPERATIONAL,DIGITAL EXPRESS MINI
6987,West 2,Madhya Pradesh,Guna,473001,S0GZ,OPERATIONAL,DIGITAL EXPRESS MINI
7740,West 1,Maharashtra,Nashik,422101,R696,OPERATIONAL,DIGITAL EXPRESS MINI
6246,South 2,Kerala,Kannur,670011,SD78,OPERATIONAL,DIGITAL EXPRESS MINI
8971,West,Maharashtra,Mumbai,400092,R696,OPERATIONAL,Digital
7552,West 1,Maharashtra,Mumbai,400086,R696,OPERATIONAL,DIGITAL EXPRESS MINI
7637,North 1,Delhi NCR,Faridabad,121002,SJ93,OPERATIONAL,DIGITAL EXPRESS MINI
8717,South 1,Karnataka,Bangalore,560011,R396,OPERATIONAL,Digital
3563,West 2,Gujarat,Bardoli,394601,SLTY,OPERATIONAL,DIGITAL EXPRESS MINI
7581,North 1,Delhi NCR,Gurgaon,122001,SJ93,OPERATIONAL,DIGITAL EXPRESS MINI
6392,West 1,Maharashtra,Mumbai,400078,R696,OPERATIONAL,DIGITAL EXPRESS MINI
6561,EAST,Odisha,Sambalpur,768004,R201,OPERATIONAL,DIGITAL EXPRESS MINI
7884,West 2,Rajasthan,Udaipur,313001,R810,OPERATIONAL,DIGITAL EXPRESS MINI
6887,South 1,Andhra Pradesh,Narasaraopet,522601,S0UG,OPERATIONAL,DIGITAL EXPRESS MINI
8737,West 1,Maharashtra,Mumbai,400701,R696,OPERATIONAL,DIGITAL EXPRESS MINI
3680,West 2,Madhya Pradesh,Itarsi,461111,S0GZ,OPERATIONAL,DIGITAL EXPRESS MINI
6350,South 1,Telangana,Sangareddy,502001,SE40,OPERATIONAL,DIGITAL EXPRESS MINI
TEZ7,South 2,Telangana,Hyderabad,500036,SE40,OPERATIONAL,Digital
TG1N,South 1,Karnataka,Bangalore,,R396,OPERATIONAL,Digital
TP70,West 1,Chhattisgarh,Raipur,492001,S573,OPERATIONAL,DIGITAL EXPRESS MINI
TL27,South 1,Andhra Pradesh,Vishakhapatnam,530008,R804,OPERATIONAL,DIGITAL EXPRESS MINI
7728,West 1,Maharashtra,Kolhapur,416003,V014,OPERATIONAL,DIGITAL EXPRESS MINI
6631,West 2,Rajasthan,Alwar,301001,SJ93,OPERATIONAL,DIGITAL EXPRESS MINI
6891,North 2,Bihar,Purnia,854301,SLLN,OPERATIONAL,DIGITAL EXPRESS MINI
TY72,EAST,Odisha,Bhubaneshwar,751024,R201,OPERATIONAL,DIGITAL EXPRESS MINI
6260,North 1,Delhi NCR,Delhi,110043,SJ93,OPERATIONAL,DIGITAL EXPRESS MINI
TQ26,West 2,Rajasthan,Jodhpur,342001,R810,OPERATIONAL,DIGITAL EXPRESS MINI
8464,West,Maharashtra,Mumbai,400706,R696,OPERATIONAL,Digital
3525,West 2,Gujarat,Ahmedabad,380024,SLTY,OPERATIONAL,DIGITAL EXPRESS MINI
3838,South 3,Kerala,Kottayam,686006,SD78,OPERATIONAL,Digital
8766,North 1,Rajasthan,Jaipur,302020,R810,OPERATIONAL,Digital
TKQ7,West,Maharashtra,Pune,411045,V014,OPERATIONAL,Digital
7567,East,West Bengal,Kolkata,700074,SLKO,OPERATIONAL,DIGITAL EXPRESS MINI
6355,North 2,Uttar Pradesh,Varanasi,221103,SC28,OPERATIONAL,DIGITAL EXPRESS MINI
6597,West 1,Maharashtra,Hingoli,431701,V014,OPERATIONAL,DIGITAL EXPRESS MINI
7514,South 1,Karnataka,Bangalore,560066,R396,OPERATIONAL,DIGITAL EXPRESS MINI
6550,EAST,Odisha,Sambalpur,768005,R201,OPERATIONAL,DIGITAL EXPRESS MINI
9181,East,Assam,Tezpur,784001,S597,OPERATIONAL,DIGITAL EXPRESS MINI
T1XE,West 1,Maharashtra,Mumbai,400022,R696,OPERATIONAL,DIGITAL EXPRESS MINI
TC82,North 1,Delhi NCR,Greater Noida,201308,SJ93,OPERATIONAL,Digital
T79R,South 2,Tamil Nadu,Kanchipuram,,SJ99,OPERATIONAL,Digital
3706,South 2,Tamil Nadu,Theni,625531,S0TC,OPERATIONAL,DIGITAL EXPRESS MINI
TCW6,North 2,Uttar Pradesh,Lucknow,226002,SC28,OPERATIONAL,Digital
TSE9,North 2,Uttarakhand,Roorkee,247667,SLOR,OPERATIONAL,Digital
TDQ0,West,Maharashtra,Pune,411038,V014,OPERATIONAL,Digital
8943,South 3,Tamil Nadu,Madurai,625002,S0TC,OPERATIONAL,Digital
6439,North 2,Bihar,Muzaffarpur,842001,R394,OPERATIONAL,DIGITAL EXPRESS MINI
7945,West 2,Gujarat,Bhavnagar,364001,SLTY,OPERATIONAL,DIGITAL EXPRESS MINI
7820,West 2,Madhya Pradesh,Indore,452004,S0GZ,OPERATIONAL,DIGITAL EXPRESS MINI
TCJ6,South 1,Karnataka,Bangalore,560064,R396,OPERATIONAL,Digital
TU92,South 1,Karnataka,Bangalore,560100,R396,OPERATIONAL,Digital
TCO1,North 1,Rajasthan,Jaipur,302033,R810,OPERATIONAL,Digital
TEH0,East,West Bengal,Durgapur,713213,SLKO,OPERATIONAL,Digital
3744,North 2,Uttar Pradesh,Etah,207001,SJ93,OPERATIONAL,DIGITAL EXPRESS MINI
3683,West 1,Maharashtra,Pune,411041,V014,OPERATIONAL,DIGITAL EXPRESS MINI
T4QG,East,Odisha,Cuttack,,R201,OPERATIONAL,Digital
8789,North 1,Delhi NCR,Ghaziabad,201010,SJ93,OPERATIONAL,DIGITAL EXPRESS MINI
TX33,East,Odisha,Bhubaneshwar,751024,R201,OPERATIONAL,Digital
6417,West 1,Maharashtra,Mumbai,400011,R696,OPERATIONAL,DIGITAL EXPRESS MINI
6951,North 1,Punjab,Batala,143505,S0CV,OPERATIONAL,DIGITAL EXPRESS MINI
9576,West 2,Gujarat,Bharuch,392210,SLTY,OPERATIONAL,DIGITAL EXPRESS MINI
7472,South 1,Karnataka,Bangalore,560093,R396,OPERATIONAL,DIGITAL EXPRESS MINI
TA9T,West,Maharashtra,Mumbai,400706,R696,OPERATIONAL,Digital
7509,South 2,Tamil Nadu,Chennai,600026,SJ99,OPERATIONAL,DIGITAL EXPRESS MINI
9131,South 2,Telangana,Hyderabad,500034,SE40,OPERATIONAL,Digital
TDW7,North 1,Delhi NCR,Delhi,201012,SJ93,OPERATIONAL,DIGITAL EXPRESS MINI
TZ98,East,West Bengal,Kolkata,743144,SLKO,OPERATIONAL,DIGITAL EXPRESS MINI
6867,North 1,Haryana,Jhajjar,124103,SJ93,OPERATIONAL,DIGITAL EXPRESS MINI
TEG7,North 1,Delhi NCR,Delhi,110058,SJ93,OPERATIONAL,Digital
7668,South 2,Tamil Nadu,Chennai,600088,SJ99,OPERATIONAL,DIGITAL EXPRESS MINI
7674,West 1,Maharashtra,Nashik,422005,R696,OPERATIONAL,DIGITAL EXPRESS MINI
3785,South 2,Kerala,Tellicherry,670001,SD78,OPERATIONAL,DIGITAL EXPRESS MINI
3514,North 2,Uttar Pradesh,Etawah,206001,SC28,OPERATIONAL,DIGITAL EXPRESS MINI
TXWA,South 3,Tamil Nadu,Chennai,600050,SJ99,OPERATIONAL,Digital
TI55,South 2,Telangana,Hyderabad,500049,SE40,OPERATIONAL,Digital
TQ27,North 2,Bihar,Darbhanga,846004,R394,OPERATIONAL,Digital
9135,West,Maharashtra,Mumbai,421201,R696,OPERATIONAL,Digital
7526,East,West Bengal,Kolkata,700032,SLKO,OPERATIONAL,DIGITAL EXPRESS MINI
7501,West 1,Maharashtra,Mumbai,400014,R696,OPERATIONAL,DIGITAL EXPRESS MINI
6740,South 1,Andhra Pradesh,Kurnool,518003,SE40,OPERATIONAL,DIGITAL EXPRESS MINI
TR12,South 2,Telangana,Hyderabad,500083,SE40,OPERATIONAL,Digital
6114,West 2,Madhya Pradesh,Nagda,456331,S0GZ,OPERATIONAL,DIGITAL EXPRESS MINI
8893,South 1,Karnataka,Bangalore,560086,R396,OPERATIONAL,Digital
3732,North 2,Uttar Pradesh,Jahangirabad,203001,SJ93,OPERATIONAL,DIGITAL EXPRESS MINI
TY51,North 2,Uttarakhand,Rudrapur,263153,SLOR,OPERATIONAL,DIGITAL EXPRESS MINI
7825,East,West Bengal,Siliguri,734001,SLLN,OPERATIONAL,DIGITAL EXPRESS MINI
9633,South 2,Tamil Nadu,Panruti,607106,S0TC,OPERATIONAL,DIGITAL EXPRESS MINI
6525,West 1,Maharashtra,Ichalkaranji,416115,V014,OPERATIONAL,DIGITAL EXPRESS MINI
7465,West 2,Rajasthan,Ajmer,305003,R810,OPERATIONAL,DIGITAL EXPRESS MINI
7733,West 1,Maharashtra,Nanded,431602,SE40,OPERATIONAL,DIGITAL EXPRESS MINI
3612,South 1,Karnataka,Chikmagalur,577101,R396,OPERATIONAL,DIGITAL EXPRESS MINI
3528,West 2,Gujarat,Ahmedabad,380015,SLTY,OPERATIONAL,DIGITAL EXPRESS MINI
8466,West 1,Maharashtra,Mumbai,400101,R696,Closed,DIGITAL EXPRESS MINI
8872,Central,Gujarat,Ahmedabad,380054,SLTY,OPERATIONAL,Digital
6452,North 1,Haryana,Hissar,125001,SJ93,OPERATIONAL,DIGITAL EXPRESS MINI
T768,West,Maharashtra,Pune,411019,V014,OPERATIONAL,Digital
TFJ0,West 2,Gujarat,Ahmedabad,380055,SLTY,OPERATIONAL,DIGITAL EXPRESS MINI
3836,North 1,Himachal Pradesh,Bilaspur_Hp,174001,S0CV,OPERATIONAL,DIGITAL EXPRESS MINI
9194,North 1,Punjab,Nawanshahr,144514,S0CV,OPERATIONAL,DIGITAL EXPRESS MINI
9507,West 1,Maharashtra,Mumbai,400076,R696,Closed,DIGITAL EXPRESS MINI
TIY5,Central,Madhya Pradesh,Indore,452001,S0GZ,OPERATIONAL,Digital
8976,East,Odisha,Cuttack,753003,R201,OPERATIONAL,Digital
6819,West 1,Maharashtra,Malegaon,423203,R696,OPERATIONAL,DIGITAL EXPRESS MINI
6778,North 1,Delhi NCR,Delhi,110023,SJ93,OPERATIONAL,DIGITAL EXPRESS MINI
T1JM,South 1,Karnataka,Udupi,576102,R396,OPERATIONAL,Digital
6821,South 2,Andhra Pradesh,Ongole,523001,S0UG,OPERATIONAL,Digital
7836,West 1,Maharashtra,Nagpur,440012,SACU,OPERATIONAL,DIGITAL EXPRESS MINI
7529,South 2,Telangana,Hyderabad,500036,SE40,OPERATIONAL,DIGITAL EXPRESS MINI
7889,South 1,Karnataka,Bangalore,560020,R396,OPERATIONAL,DIGITAL EXPRESS MINI
7497,East,Odisha,Cuttack,753001,R201,OPERATIONAL,DIGITAL EXPRESS MINI
8753,North 1,Delhi NCR,Delhi,110044,SJ93,OPERATIONAL,DIGITAL EXPRESS MINI
TW1Z,North 2,Uttar Pradesh,Aligarh,202001,SJ93,OPERATIONAL,Digital
6540,South 2,Tamil Nadu,Chennai,600043,SJ99,OPERATIONAL,DIGITAL EXPRESS MINI
6517,West 1,Maharashtra,Nagpur,440009,SACU,OPERATIONAL,DIGITAL EXPRESS MINI
6511,West 2,Madhya Pradesh,Indore,452004,S0GZ,OPERATIONAL,DIGITAL EXPRESS MINI
T736,Central,Gujarat,Ahmedabad,380004,SLTY,OPERATIONAL,Digital
3702,East,Jharkhand,Jhumri Tilaiya,825409,R278,OPERATIONAL,DIGITAL EXPRESS MINI
TVK8,North 2,Uttar Pradesh,Lucknow,226030,SC28,OPERATIONAL,Digital
TI04,South 2,Telangana,Mahbubnagar,509001,SE40,OPERATIONAL,Digital
6449,North 2,Uttar Pradesh,Varanasi,221005,SC28,OPERATIONAL,DIGITAL EXPRESS MINI
6303,West 2,Rajasthan,Kota,324007,R810,OPERATIONAL,DIGITAL EXPRESS MINI
TX24,North 1,Delhi NCR,Gurgaon,122003,SJ93,OPERATIONAL,Digital
3712,North 2,Uttar Pradesh,Kairana,247774,SLOR,OPERATIONAL,DIGITAL EXPRESS MINI
TDQ3,East,Jharkhand,Bokaro,827013,R278,OPERATIONAL,DIGITAL EXPRESS MINI
6389,North 1,Punjab,Patiala,147001,S0CV,OPERATIONAL,DIGITAL EXPRESS MINI
TX60,West 2,Rajasthan,Udaipur,313001,R810,OPERATIONAL,DIGITAL EXPRESS MINI
6461,West 2,Rajasthan,Alwar,301001,SJ93,OPERATIONAL,DIGITAL EXPRESS MINI
3734,East,West Bengal,Jalpaiguri,735101,SLLN,OPERATIONAL,DIGITAL EXPRESS MINI
6926,West 2,Gujarat,Surat,395004,SLTY,OPERATIONAL,DIGITAL EXPRESS MINI
9162,South 1,Karnataka,Mangalore,574201,R396,OPERATIONAL,Digital
TA92,North 2,Uttarakhand,Haldwani,263139,SLOR,OPERATIONAL,Digital
TVK7,South 2,Andhra Pradesh,Vizag,530027,R804,OPERATIONAL,Digital
TW2C,South 3,Tamil Nadu,Cuddalore,607001,SJ99,OPERATIONAL,Digital
6882,South 2,Tamil Nadu,Madurai,625002,S0TC,OPERATIONAL,DIGITAL EXPRESS MINI
3707,West 2,Madhya Pradesh,Dhar,454775,S0GZ,OPERATIONAL,DIGITAL EXPRESS MINI
3798,South 2,Tamil Nadu,Tiruchengode,637211,S0TC,OPERATIONAL,DIGITAL EXPRESS MINI
8526,South 2,Andhra Pradesh,Bheemavaram,534201,S0UG,OPERATIONAL,Digital
3815,North 1,Haryana,Panipat,132103,SJ93,OPERATIONAL,Digital
TDF6,North 1,Delhi NCR,Delhi,110064,SJ93,OPERATIONAL,DIGITAL EXPRESS MINI
6136,North 2,Uttar Pradesh,Mubarakpur,276404,SC28,OPERATIONAL,DIGITAL EXPRESS MINI
TK89,South 1,Karnataka,Gadag,582103,R396,OPERATIONAL,Digital
TIY6,South 2,Telangana,Hyderabad,500075,SE40,OPERATIONAL,Digital
7747,North 1,Punjab,Mohali,140603,S0CV,OPERATIONAL,DIGITAL EXPRESS MINI
T0XY,South 2,Telangana,Hyderabad,,SE40,OPERATIONAL,Digital
3506,North 2,Uttar Pradesh,Gola,262802,SC28,OPERATIONAL,DIGITAL EXPRESS MINI
3562,West 2,Gujarat,Ankleshwar,393002,SLTY,OPERATIONAL,DIGITAL EXPRESS MINI
6918,South 2,Andhra Pradesh,Cuddapah,516001,SJ99,OPERATIONAL,Digital
6567,North 1,Punjab,Gurdaspur,143521,S0CV,OPERATIONAL,DIGITAL EXPRESS MINI
6322,South 2,Telangana,Hyderabad,500020,SE40,OPERATIONAL,DIGITAL EXPRESS MINI
7622,South 2,Telangana,Hyderabad,500070,SE40,OPERATIONAL,DIGITAL EXPRESS MINI
6943,North 1,Punjab,Khanna,141401,S0CV,OPERATIONAL,DIGITAL EXPRESS MINI
6862,North 1,Haryana,Ganaur,131101,SJ93,OPERATIONAL,DIGITAL EXPRESS MINI
6888,South 1,Andhra Pradesh,Srikakulam,532201,R804,OPERATIONAL,DIGITAL EXPRESS MINI
6505,East,West Bengal,Kolkata,743330,SLKO,OPERATIONAL,DIGITAL EXPRESS MINI
TUX0,North 2,Bihar,Patna,800008,R394,OPERATIONAL,Digital
8727,South 2,Andhra Pradesh,Kakinada,533001,R804,OPERATIONAL,Digital
TB83,South 2,Telangana,Hyderabad,500082,SE40,OPERATIONAL,Digital
6743,South 1,Karnataka,Bijapur,586103,V014,OPERATIONAL,DIGITAL EXPRESS MINI
TLL0,East,Odisha,Jharsuguda,768201,R201,OPERATIONAL,Digital
9170,West 1,Maharashtra,Bhusawal,425201,V014,OPERATIONAL,DIGITAL EXPRESS MINI
TY73,EAST,Odisha,Bhubaneshwar,751002,R201,OPERATIONAL,DIGITAL EXPRESS MINI
7881,West 1,Maharashtra,Mumbai,400101,R696,OPERATIONAL,DIGITAL EXPRESS MINI
TEH5,North 2,Uttar Pradesh,Meerut,250002,SLOR,OPERATIONAL,DIGITAL EXPRESS MINI
TI03,North 1,Rajasthan,Bhiwadi,301019,SJ93,OPERATIONAL,Digital
6280,West 1,Maharashtra,Nanded,431605,SE40,OPERATIONAL,DIGITAL EXPRESS MINI
7842,North 1,Delhi NCR,Delhi,110093,SJ93,OPERATIONAL,DIGITAL EXPRESS MINI
6295,West 1,Maharashtra,Solapur,413007,V014,OPERATIONAL,DIGITAL EXPRESS MINI
TCE4,East,Assam,Jorhat,785001,S597,OPERATIONAL,DIGITAL EXPRESS MINI
TO33,South 2,Andhra Pradesh,Kakinada,533001,R804,OPERATIONAL,Digital
8667,West,Maharashtra,Mumbai,400610,R696,OPERATIONAL,Digital
TSF3,South 1,Karnataka,Bangalore,560060,R396,OPERATIONAL,Digital
7533,South 1,Karnataka,Bangalore,560085,R396,OPERATIONAL,DIGITAL EXPRESS MINI
TTS4,South 1,Karnataka,Bangalore,562123,R396,OPERATIONAL,Digital
6549,North 2,Bihar,Bhagalpur,812001,R394,OPERATIONAL,DIGITAL EXPRESS MINI
6498,West 2,Rajasthan,Kota,324005,R810,OPERATIONAL,DIGITAL EXPRESS MINI
6911,West 1,Maharashtra,Mumbai,401203,R696,OPERATIONAL,DIGITAL EXPRESS MINI
7642,East,West Bengal,Kolkata,743145,SLKO,OPERATIONAL,DIGITAL EXPRESS MINI
TL68,South 1,Karnataka,Bangalore,560075,R396,OPERATIONAL,DIGITAL EXPRESS MINI
7456,EAST,Jharkhand,Ranchi,834001,R278,OPERATIONAL,DIGITAL EXPRESS MINI
7717,South 1,Andhra Pradesh,Vijaywada,520001,S0UG,OPERATIONAL,DIGITAL EXPRESS MINI
6490,West 2,Gujarat,Ahmedabad,380001,SLTY,OPERATIONAL,DIGITAL EXPRESS MINI
9609,West,Maharashtra,Mumbai,401101,R696,OPERATIONAL,Digital
TG68,South 1,Karnataka,Hospet,583201,R396,OPERATIONAL,Digital
6764,West 1,Maharashtra,Ahmadnagar,414001,V014,OPERATIONAL,DIGITAL EXPRESS MINI
7811,West 1,Maharashtra,Nagpur,440012,SACU,OPERATIONAL,DIGITAL EXPRESS MINI
7761,North 1,Punjab,Jalandhar,144001,S0CV,OPERATIONAL,DIGITAL EXPRESS MINI
TA6P,Central,Gujarat,Ahmedabad,380054,SLTY,OPERATIONAL,Digital
8882,South 1,Karnataka,Bangalore,560084,R396,OPERATIONAL,Digital
T0AW,North 1,Punjab,Jalandhar,,S0CV,OPERATIONAL,Digital
T43O,South 2,Telangana,Nirmal,504106,SE40,OPERATIONAL,Digital
6289,South 1,Karnataka,Bangalore,560091,R396,OPERATIONAL,DIGITAL EXPRESS MINI
6559,East,West Bengal,Kolkata,700054,SLKO,OPERATIONAL,DIGITAL EXPRESS MINI
6133,North 2,Uttar Pradesh,Maunath Bhanjan,275101,SC28,OPERATIONAL,DIGITAL EXPRESS MINI
7968,West 1,Maharashtra,Nashik,422007,R696,OPERATIONAL,DIGITAL EXPRESS MINI
TV17,South 2,Telangana,Hyderabad,500029,SE40,OPERATIONAL,DIGITAL EXPRESS MINI
7759,West 2,Gujarat,Ahmedabad,380008,SLTY,OPERATIONAL,DIGITAL EXPRESS MINI
T4JI,North 2,Uttar Pradesh,Ayodhya,,SC28,OPERATIONAL,DIGITAL EXPRESS MINI
6457,South 1,Andhra Pradesh,Vishakhapatnam,530027,R804,OPERATIONAL,DIGITAL EXPRESS MINI
T9RI,South 2,Andhra Pradesh,Nandyal,,SE40,OPERATIONAL,Digital
TSD8,Central,Madhya Pradesh,Indore,452010,S0GZ,OPERATIONAL,Digital
3803,East,Odisha,Jharsuguda,768203,R201,OPERATIONAL,DIGITAL EXPRESS MINI
3583,North 2,Uttar Pradesh,Khurja,203131,SJ93,OPERATIONAL,DIGITAL EXPRESS MINI
3572,South 2,Tamil Nadu,Namakkal,637001,S0TC,OPERATIONAL,DIGITAL EXPRESS MINI
TC79,South 2,Telangana,Suryapet,508213,SE40,OPERATIONAL,Digital
6506,East,West Bengal,Kolkata,700103,SLKO,OPERATIONAL,DIGITAL EXPRESS MINI
3882,East,Assam,Jorhat,785001,S597,OPERATIONAL,DIGITAL EXPRESS MINI
TH0V,East,West Bengal,Howrah,-,SLKO,OPERATIONAL,DIGITAL EXPRESS MINI
9562,South 1,Karnataka,Bangalore,560062,R396,OPERATIONAL,Digital
TCO2,South 2,Telangana,Armoor,503224,SE40,OPERATIONAL,Digital
6700,East,West Bengal,Kolkata,700079,SLKO,OPERATIONAL,DIGITAL EXPRESS MINI
3597,North 2,Uttar Pradesh,Budaun,243601,SC28,OPERATIONAL,DIGITAL EXPRESS MINI
T0BH,North 1,Rajasthan,Sikar,,R810,OPERATIONAL,Digital
3644,West 1,Chhattisgarh,Dhamtari,493773,S573,OPERATIONAL,DIGITAL EXPRESS MINI
TUC4,South 2,Telangana,Adilabad,504002,SE40,OPERATIONAL,Digital
9142,South 1,Karnataka,Karwar,581301,R396,OPERATIONAL,DIGITAL EXPRESS MINI
3598,West 2,Rajasthan,Hindaun,141001,R810,OPERATIONAL,DIGITAL EXPRESS MINI
TVM3,Central,Gujarat,Junagadh,362001,SLTY,OPERATIONAL,Digital
7937,West 2,Rajasthan,Jodhpur,342001,R810,OPERATIONAL,DIGITAL EXPRESS MINI
6030,South 2,Tamil Nadu,Arkonam,631001,SJ99,OPERATIONAL,DIGITAL EXPRESS MINI
6271,North 2,Uttar Pradesh,Jhansi,284001,SC28,OPERATIONAL,DIGITAL EXPRESS MINI
TGJ8,North 1,Jammu & Kashmir,Jammu,180001,Y695,OPERATIONAL,DIGITAL EXPRESS MINI
3884,North 1,Jammu & Kashmir,Rajouri,185131,Y695,OPERATIONAL,DIGITAL EXPRESS MINI
TJR1,EAST,Jharkhand,Jamshedpur,832110,R278,OPERATIONAL,DIGITAL EXPRESS MINI
6593,South 1,Karnataka,Chikkaballapur,569101,R396,OPERATIONAL,DIGITAL EXPRESS MINI
TY02,Central,Gujarat,Surat,395009,SLTY,OPERATIONAL,Digital
TW27,South 3,Tamil Nadu,Tirupur,641601,S0TC,OPERATIONAL,Digital
6553,South 1,Karnataka,Bellary,583121,R396,OPERATIONAL,DIGITAL EXPRESS MINI
6669,North 2,Bihar,Munger,811201,R394,OPERATIONAL,DIGITAL EXPRESS MINI
7743,North 1,Punjab,Jalandhar,144022,S0CV,OPERATIONAL,DIGITAL EXPRESS MINI
7893,South 2,Kerala,Kochi,682204,SD78,OPERATIONAL,DIGITAL EXPRESS MINI
8989,North 1,Rajasthan,Jodhpur,342001,R810,OPERATIONAL,Digital
TI56,South 2,Andhra Pradesh,Vijayawada,520012,S0UG,OPERATIONAL,Digital
7911,West 2,Madhya Pradesh,Gwalior,474006,SJ93,OPERATIONAL,DIGITAL EXPRESS MINI
6380,North 2,Bihar,Patna,800003,R394,OPERATIONAL,DIGITAL EXPRESS MINI
T52P,South 2,Telangana,Karim Nagar,505001,SE40,OPERATIONAL,Digital
6373,North 1,Delhi NCR,Faridabad,121001,SJ93,OPERATIONAL,DIGITAL EXPRESS MINI
7641,East,West Bengal,Kolkata,700056,SLKO,OPERATIONAL,DIGITAL EXPRESS MINI
T1RI,West 2,Rajasthan,Jaipur,302001,R810,OPERATIONAL,DIGITAL EXPRESS MINI
6879,West 1,Maharashtra,Mumbai,421202,R696,OPERATIONAL,DIGITAL EXPRESS MINI
TH5M,South 3,Tamil Nadu,Chennai,,SJ99,OPERATIONAL,Digital
7479,South 1,Karnataka,Gulbarga,585102,SE40,OPERATIONAL,DIGITAL EXPRESS MINI
TIY7,South 3,Tamil Nadu,Trichy,620019,S0TC,OPERATIONAL,Digital
3866,South 2,Tamil Nadu,Chennai,600042,SJ99,OPERATIONAL,DIGITAL EXPRESS MINI
8458,North 1,Delhi NCR,Delhi,110031,SJ93,OPERATIONAL,DIGITAL EXPRESS MINI
3632,North 2,Uttar Pradesh,Bela,230001,SC28,OPERATIONAL,DIGITAL EXPRESS MINI
6173,West 2,Rajasthan,Nimbahera,312601,R810,OPERATIONAL,DIGITAL EXPRESS MINI
6143,South 2,Tamil Nadu,Nagercoil,629007,S0TC,OPERATIONAL,DIGITAL EXPRESS MINI
6571,West 1,Maharashtra,Achalpur,444806,SACU,OPERATIONAL,DIGITAL EXPRESS MINI
7712,EAST,Odisha,Bhubaneshwar,751006,R201,OPERATIONAL,DIGITAL EXPRESS MINI
6534,South 2,Kerala,Kannur,670002,SD78,OPERATIONAL,DIGITAL EXPRESS MINI
6179,South 2,Tamil Nadu,Mettupalayam,641301,S0TC,OPERATIONAL,DIGITAL EXPRESS MINI
7757,West 2,Gujarat,Ahmedabad,380001,SLTY,OPERATIONAL,DIGITAL EXPRESS MINI
7496,EAST,Odisha,Bhubaneshwar,751016,R201,OPERATIONAL,DIGITAL EXPRESS MINI
8873,Central,Gujarat,Vadodara,390002,SLTY,OPERATIONAL,Digital
T2PM,South 1,karnataka,Rabkavi Banhatti,,V014,OPERATIONAL,DIGITAL EXPRESS MINI
TR68,West,Maharashtra,Aurangabad,431001,V014,OPERATIONAL,Digital
T764,East,Odisha,Anugul,759122,R201,OPERATIONAL,Digital
T2PR,South 2,Andhra Pradesh,Guntur,,S0UG,OPERATIONAL,Digital
TU17,North 2,Uttar Pradesh,Agra,282001,SJ93,OPERATIONAL,DIGITAL EXPRESS MINI
9501,West 2,Gujarat,Gandhidham,370201,SLTY,OPERATIONAL,DIGITAL EXPRESS MINI
3724,South 1,Andhra Pradesh,Tenali,522201,S0UG,OPERATIONAL,DIGITAL EXPRESS MINI
3676,South 1,Andhra Pradesh,Tanuku,534211,S0UG,OPERATIONAL,DIGITAL EXPRESS MINI
3708,West 2,Madhya Pradesh,Jaora,457226,S0GZ,OPERATIONAL,DIGITAL EXPRESS MINI
6632,West 1,Maharashtra,Malegaon,423203,R696,OPERATIONAL,DIGITAL EXPRESS MINI
7536,North 1,Delhi NCR,Delhi,110009,SJ93,OPERATIONAL,DIGITAL EXPRESS MINI
TSF8,East,West Bengal,Kolkata,712311,SLKO,OPERATIONAL,DIGITAL EXPRESS MINI
6153,North 2,Uttar Pradesh,Gorakhpur,273004,SC28,OPERATIONAL,DIGITAL EXPRESS MINI
7669,South 1,Karnataka,Mysore,570001,R396,OPERATIONAL,DIGITAL EXPRESS MINI
TB84,West,Maharashtra,Mumbai,410210,R696,OPERATIONAL,Digital
7869,South 1,Karnataka,Hubli-Dharwad,580001,R396,OPERATIONAL,DIGITAL EXPRESS MINI
7688,South 2,Kerala,Kochi,682020,SD78,OPERATIONAL,DIGITAL EXPRESS MINI
6796,West 2,Gujarat,Jetpur,360370,SLTY,OPERATIONAL,DIGITAL EXPRESS MINI
3665,East,West Bengal,Bishnupur,722122,SLKO,OPERATIONAL,DIGITAL EXPRESS MINI
TU39,East,West Bengal,Siliguri,734005,SLLN,OPERATIONAL,Digital
TD06,East,West Bengal,Howrah,711101,SLKO,OPERATIONAL,DIGITAL EXPRESS MINI
TJI9,South 1,Karnataka,Bangalore,560068,R396,OPERATIONAL,Digital
T45A,South 1,Karnataka,Bagalkote,587102,R396,OPERATIONAL,DIGITAL EXPRESS MINI
6948,South 1,Karnataka,Chintamani,563125,R396,OPERATIONAL,DIGITAL EXPRESS MINI
TLK5,South 3,Tamil Nadu,Thanjavur,613009,S0TC,OPERATIONAL,Digital
3765,East,West Bengal,Kolkata,700047,SLKO,OPERATIONAL,DIGITAL EXPRESS MINI
7444,South 1,Karnataka,Bangalore,560076,R396,OPERATIONAL,DIGITAL EXPRESS MINI
6343,North 2,Uttar Pradesh,Lucknow,226016,SC28,OPERATIONAL,DIGITAL EXPRESS MINI
7547,North 1,Delhi NCR,Delhi,110007,SJ93,OPERATIONAL,DIGITAL EXPRESS MINI
TY90,South 2,Telangana,Kamareddy,503111,SE40,OPERATIONAL,Digital
TP57,North 2,Bihar,Purnia,854326,SLLN,OPERATIONAL,DIGITAL EXPRESS MINI
3656,East,Odisha,Belpahar,768218,R201,OPERATIONAL,DIGITAL EXPRESS MINI
3791,North 1,Himachal Pradesh,Baddi,173205,S0CV,OPERATIONAL,DIGITAL EXPRESS MINI
T766,South 2,Telangana,Hyderabad,500059,SE40,OPERATIONAL,Digital
8840,South 2,Andhra Pradesh,Vijayawada,520010,S0UG,OPERATIONAL,Digital
TO21,North 2,Uttar Pradesh,Lucknow,226020,SC28,OPERATIONAL,Digital
T755,West 2,Gujarat,Surat,395006,SLTY,OPERATIONAL,DIGITAL EXPRESS MINI
TU49,South 2,Telangana,Hyderabad,500082,SE40,OPERATIONAL,DIGITAL EXPRESS MINI
6413,North 2,Uttarakhand,Dehradun,248002,SLOR,OPERATIONAL,DIGITAL EXPRESS MINI
TCT9,North 2,Uttar Pradesh,Lucknow,226006,SC28,OPERATIONAL,DIGITAL EXPRESS MINI
TKD1,North 1,Delhi NCR,Delhi,110053,SJ93,OPERATIONAL,DIGITAL EXPRESS MINI
7985,West 1,Maharashtra,Mumbai,410206,R696,OPERATIONAL,DIGITAL EXPRESS MINI
T837,South 2,Tamil Nadu,Coimbatore,641018,S0TC,OPERATIONAL,DIGITAL EXPRESS MINI
8746,West 1,Maharashtra,Mumbai,400016,R696,OPERATIONAL,DIGITAL EXPRESS MINI
6618,North 2,Uttar Pradesh,Meerut,250001,SLOR,OPERATIONAL,DIGITAL EXPRESS MINI
9499,East,Odisha,Rajgangpur,770017,R278,OPERATIONAL,DIGITAL EXPRESS MINI
7657,South 2,Telangana,Hyderabad,500016,SE40,OPERATIONAL,DIGITAL EXPRESS MINI
6148,West 2,Rajasthan,Gangapur,322201,R810,OPERATIONAL,DIGITAL EXPRESS MINI
TH33,East,West Bengal,Kolkata,700089,SLKO,OPERATIONAL,DIGITAL EXPRESS MINI
6611,West 1,Maharashtra,Mumbai,400081,R696,OPERATIONAL,DIGITAL EXPRESS MINI
3776,South 2,Tamil Nadu,Vaniyambadi,635751,SJ99,OPERATIONAL,DIGITAL EXPRESS MINI
8908,West,Maharashtra,Mumbai,421003,R696,OPERATIONAL,Digital
7578,South 2,Telangana,Hyderabad,500061,SE40,OPERATIONAL,DIGITAL EXPRESS MINI
TN71,West,Maharashtra,Mumbai,421503,R696,OPERATIONAL,Digital
TO73,EAST,West Bengal,Howrah,711113,SLKO,OPERATIONAL,DIGITAL EXPRESS MINI
TH0W,Central,Gujarat,Surat,,SLTY,OPERATIONAL,Digital
6299,West 2,Madhya Pradesh,Ujjain,456001,S0GZ,OPERATIONAL,DIGITAL EXPRESS MINI
TO72,EAST,West Bengal,Basirhat,743412,SLKO,OPERATIONAL,DIGITAL EXPRESS MINI
T1JW,Central,Gujarat,Ahmedabad,380015,SLTY,OPERATIONAL,Digital
7794,North 2,Bihar,Patna,800001,R394,OPERATIONAL,DIGITAL EXPRESS MINI
8734,East,West Bengal,Kolkata,700029,SLKO,OPERATIONAL,Digital
6493,West 2,Madhya Pradesh,Dewas,455001,S0GZ,OPERATIONAL,DIGITAL EXPRESS MINI
TY24,West 1,Maharashtra,Mumbai,400701,R696,Closed,DIGITAL EXPRESS MINI
TW83,South 3,Kerala,Kochi,682021,SD78,OPERATIONAL,Digital
8917,West,Maharashtra,Mumbai,400705,R696,OPERATIONAL,Digital
8875,North 1,Delhi NCR,Gurgaon,122001,SJ93,OPERATIONAL,Digital
7683,East,West Bengal,Kolkata,700007,SLKO,OPERATIONAL,DIGITAL EXPRESS MINI
6686,South 2,Tamil Nadu,Tiruchirappalli,620018,S0TC,OPERATIONAL,DIGITAL EXPRESS MINI
TXFY,North 2,Uttar Pradesh,Prayagraj,211003,SC28,OPERATIONAL,Digital
6916,South 3,Tamil Nadu,Erode,638011,S0TC,OPERATIONAL,Digital
3713,West 1,Maharashtra,Ratnagiri,415612,V014,OPERATIONAL,DIGITAL EXPRESS MINI
7699,West 2,Madhya Pradesh,Bhopal,462008,S0GZ,OPERATIONAL,DIGITAL EXPRESS MINI
6604,West 1,Maharashtra,Chandrapur,442401,SACU,OPERATIONAL,DIGITAL EXPRESS MINI
3740,North 2,Uttar Pradesh,Hapur,245101,SLOR,OPERATIONAL,DIGITAL EXPRESS MINI
TDG8,East,West Bengal,Behrampore,742103,SLKO,OPERATIONAL,DIGITAL EXPRESS MINI
3793,North 2,Uttar Pradesh,Shikohabad,283135,SC28,OPERATIONAL,DIGITAL EXPRESS MINI
TS89,North 1,Delhi NCR,Bhajanpura,110053,SJ93,OPERATIONAL,DIGITAL EXPRESS MINI
TXFV,North 1,Delhi NCR,Delhi,110017,SJ93,OPERATIONAL,Digital
TFJ6,South 2,Telangana,Hyderabad,500032,SE40,OPERATIONAL,Digital
6765,North 2,Uttarakhand,Haldwani,263139,SLOR,OPERATIONAL,DIGITAL EXPRESS MINI
8990,West 1,Maharashtra,Mumbai,400709,R696,OPERATIONAL,DIGITAL EXPRESS MINI
T13M,North 2,Bihar,Bettiah,845438,R394,OPERATIONAL,Digital
3876,West 1,Maharashtra,Malkapur,443101,SACU,Closed,DIGITAL EXPRESS MINI
6935,South 2,Tamil Nadu,Chennai,603103,SJ99,OPERATIONAL,DIGITAL EXPRESS MINI
7597,East,West Bengal,Kolkata,700089,SLKO,OPERATIONAL,DIGITAL EXPRESS MINI
7902,West 1,Maharashtra,Amravati,444601,SACU,OPERATIONAL,DIGITAL EXPRESS MINI
6813,EAST,West Bengal,Barddhaman,713101,SLKO,OPERATIONAL,DIGITAL EXPRESS MINI
T0UM,Central,Chhattisgarh,Bilaspur,,S573,OPERATIONAL,Digital
7863,South 2,Tamil Nadu,Coimbatore,641008,S0TC,OPERATIONAL,DIGITAL EXPRESS MINI
6878,North 1,Delhi NCR,Delhi,110059,SJ93,OPERATIONAL,DIGITAL EXPRESS MINI
6784,North 2,Uttar Pradesh,Lucknow,227105,SC28,OPERATIONAL,DIGITAL EXPRESS MINI
9660,West 1,Maharashtra,Mumbai,421306,R696,OPERATIONAL,DIGITAL EXPRESS MINI
6991,West 1,Maharashtra,Nandurbar,425412,R696,OPERATIONAL,DIGITAL EXPRESS MINI
T79S,Central,Madhya Pradesh,Indore,,S0GZ,OPERATIONAL,Digital
6886,South 2,Tamil Nadu,Kancheepuram,631501,SJ99,OPERATIONAL,DIGITAL EXPRESS MINI
9175,South 1,Karnataka,Bijapur,586101,V014,OPERATIONAL,DIGITAL EXPRESS MINI
7951,North 2,Bihar,Gaya,823001,R394,OPERATIONAL,DIGITAL EXPRESS MINI
6614,South 2,Tamil Nadu,Hosur,635109,R396,OPERATIONAL,DIGITAL EXPRESS MINI
7824,East,West Bengal,Kolkata,700009,SLKO,OPERATIONAL,DIGITAL EXPRESS MINI
8679,South 2,Telangana,Khammam,507001,S0UG,OPERATIONAL,Digital
7745,North 2,Uttar Pradesh,Kanpur,208025,SC28,OPERATIONAL,DIGITAL EXPRESS MINI
TX35,West 1,Maharashtra,Mumbai,400061,R696,OPERATIONAL,DIGITAL EXPRESS MINI
6359,West 1,Maharashtra,Nagpur,440014,SACU,OPERATIONAL,DIGITAL EXPRESS MINI
6183,East,Odisha,Kendujhar,758001,R201,OPERATIONAL,DIGITAL EXPRESS MINI
6269,North 2,Uttar Pradesh,Varanasi,221001,SC28,OPERATIONAL,DIGITAL EXPRESS MINI
8992,North 1,Delhi NCR,Delhi,110051,SJ93,OPERATIONAL,DIGITAL EXPRESS MINI
9132,South 2,Kerala,Kunnathunad,683556,SD78,OPERATIONAL,DIGITAL EXPRESS MINI
TN23,East,West Bengal,Kolkata,712136,SLKO,OPERATIONAL,Digital
8684,South 1,Karnataka,Bangalore,560040,R396,OPERATIONAL,Digital
7546,South 2,Telangana,Hyderabad,500044,SE40,OPERATIONAL,DIGITAL EXPRESS MINI
9139,South 2,Tamil Nadu,Pattukottai,614601,S0TC,OPERATIONAL,DIGITAL EXPRESS MINI
TY64,North 1,Delhi NCR,Delhi,110075,SJ93,OPERATIONAL,DIGITAL EXPRESS MINI
T1KR,West 2,Rajasthan,Banswara,327001,R810,OPERATIONAL,DIGITAL EXPRESS MINI
3859,East,Assam,Dhubri,783301,S597,OPERATIONAL,DIGITAL EXPRESS MINI
7658,South 2,Tamil Nadu,Chennai,600082,SJ99,OPERATIONAL,DIGITAL EXPRESS MINI
7795,South 2,Kerala,Kollam,691008,SD78,OPERATIONAL,DIGITAL EXPRESS MINI
3574,West 2,Gujarat,Ahmedabad,380015,SLTY,OPERATIONAL,DIGITAL EXPRESS MINI
TG67,East,West Bengal,Kolkata,743145,SLKO,OPERATIONAL,Digital
TEI6,East,West Bengal,Hooghly,712202,SLKO,OPERATIONAL,DIGITAL EXPRESS MINI
6654,South 1,Telangana,Wanaparthy,509103,SE40,OPERATIONAL,DIGITAL EXPRESS MINI
6132,North 2,Uttar Pradesh,Lakhimpur,262701,SC28,OPERATIONAL,DIGITAL EXPRESS MINI
6162,East,Odisha,Puri,752002,R201,OPERATIONAL,DIGITAL EXPRESS MINI
TBA6,Central,Gujarat,Vadodara,390018,SLTY,OPERATIONAL,Digital
8795,North 1,Delhi NCR,Delhi,110053,SJ93,OPERATIONAL,DIGITAL EXPRESS MINI
7841,North 1,Delhi NCR,Delhi,110063,SJ93,OPERATIONAL,DIGITAL EXPRESS MINI
7239,East,Odisha,Cuttack,753001,R201,OPERATIONAL,DIGITAL EXPRESS MINI
T590,South 2,Andhra Pradesh,Tirupati,517501,SJ99,OPERATIONAL,Digital
8658,South 3,Tamil Nadu,Chennai,600004,SJ99,OPERATIONAL,Digital
TLK6,North 1,Haryana,Kurukshetra,136038,S0CV,OPERATIONAL,Digital
6818,East,West Bengal,Kolkata,711102,SLKO,OPERATIONAL,DIGITAL EXPRESS MINI
8758,South 1,Karnataka,Bangalore,560043,R396,OPERATIONAL,Digital
6362,South 2,Telangana,Hyderabad,500032,SE40,OPERATIONAL,Digital
9509,South 2,Andhra Pradesh,Madanapalle,517325,R396,OPERATIONAL,Digital
TX90,North 2,Bihar,Siwan,841226,R394,OPERATIONAL,Digital
7993,West 1,Maharashtra,Mumbai,400058,R696,OPERATIONAL,DIGITAL EXPRESS MINI
3897,North 2,Bihar,Jahanabad,804401,R394,OPERATIONAL,DIGITAL EXPRESS MINI
6811,East,West Bengal,Kolkata,711322,SLKO,OPERATIONAL,DIGITAL EXPRESS MINI
3700,South 2,Kerala,Tiruvalla,689101,SD78,OPERATIONAL,DIGITAL EXPRESS MINI
TR13,North 2,Bihar,Patna,800020,R394,OPERATIONAL,DIGITAL EXPRESS MINI
9598,South 2,Kerala,Kunnamkulam,680503,SD78,OPERATIONAL,DIGITAL EXPRESS MINI
8689,North 1,Delhi NCR,Faridabad,121003,SJ93,OPERATIONAL,Digital
8633,North 1,Delhi NCR,Delhi,110092,SJ93,OPERATIONAL,Digital
6190,East,West Bengal,Medinipur,721103,SLKO,OPERATIONAL,DIGITAL EXPRESS MINI
6397,North 1,Delhi NCR,Delhi,110037,SJ93,OPERATIONAL,DIGITAL EXPRESS MINI
6313,North 1,Delhi NCR,Delhi,110014,SJ93,OPERATIONAL,DIGITAL EXPRESS MINI
T763,East,Assam,Silchar,788001,S597,OPERATIONAL,Digital
6981,West 2,Madhya Pradesh,Basoda,464221,S0GZ,OPERATIONAL,DIGITAL EXPRESS MINI
T1CA,East,Arunachal Pradesh,Itanagar,791111,S597,OPERATIONAL,Digital
7545,South 2,Tamil Nadu,Chennai,600059,SJ99,OPERATIONAL,DIGITAL EXPRESS MINI
3811,South 1,Karnataka,Sirsi,581401,R396,OPERATIONAL,DIGITAL EXPRESS MINI
7790,EAST,West Bengal,Asansol,713301,SLKO,OPERATIONAL,DIGITAL EXPRESS MINI
TH0R,West,Maharashtra,Pune,,V014,OPERATIONAL,Digital
3719,North 2,Uttar Pradesh,Mainpuri,205001,SC28,OPERATIONAL,DIGITAL EXPRESS MINI
T1F8,South 3,Tamil Nadu,Chennai,600082,SJ99,OPERATIONAL,Digital
3636,North 1,Delhi NCR,Gurgaon,122001,SJ93,OPERATIONAL,DIGITAL EXPRESS MINI
7677,West 1,Maharashtra,Nagpur,440008,SACU,OPERATIONAL,DIGITAL EXPRESS MINI
8460,North 1,Delhi NCR,Delhi,100085,SJ93,OPERATIONAL,DIGITAL EXPRESS MINI
TW3V,Central,Gujarat,Ahmedabad,382330,SLTY,OPERATIONAL,Digital
7808,North 2,Uttarakhand,Dehradun,248001,SLOR,OPERATIONAL,DIGITAL EXPRESS MINI
7708,South 2,Kerala,Trivandrum,695004,SD78,OPERATIONAL,DIGITAL EXPRESS MINI
9136,South 2,Telangana,Hyderabad,500081,SE40,OPERATIONAL,Digital
6272,South 1,Karnataka,Bangalore,560011,R396,OPERATIONAL,DIGITAL EXPRESS MINI
6450,North 2,Uttar Pradesh,Moradabad,244001,SJ93,OPERATIONAL,DIGITAL EXPRESS MINI
6407,East,West Bengal,Kolkata,712123,SLKO,OPERATIONAL,DIGITAL EXPRESS MINI
6961,West 1,Maharashtra,Latur,413512,V014,OPERATIONAL,DIGITAL EXPRESS MINI
7736,EAST,Assam,Guwahati,781003,S597,OPERATIONAL,DIGITAL EXPRESS MINI
TO58,East,Odisha,Cuttack,753003,R201,OPERATIONAL,DIGITAL EXPRESS MINI
6924,West 1,Maharashtra,Mumbai,400088,R696,OPERATIONAL,DIGITAL EXPRESS MINI
6810,South 2,Kerala,Palakkad,678001,SD78,OPERATIONAL,DIGITAL EXPRESS MINI
3837,North 2,Uttar Pradesh,Rath,210431,SC28,OPERATIONAL,DIGITAL EXPRESS MINI
TDQ2,East,West Bengal,Kolkata,700068,SLKO,OPERATIONAL,DIGITAL EXPRESS MINI
7591,East,West Bengal,Kolkata,700124,SLKO,OPERATIONAL,DIGITAL EXPRESS MINI
7854,South 2,Telangana,Hyderabad,500065,SE40,OPERATIONAL,DIGITAL EXPRESS MINI
TEE1,South 2,Tamil Nadu,Pondicherry,605013,SJ99,OPERATIONAL,DIGITAL EXPRESS MINI
TVK6,South 1,Karnataka,Raichur,584101,SE40,OPERATIONAL,Digital
TH0M,Central,Chhattisgarh,Raipur,,S573,OPERATIONAL,Digital
6941,North 1,Punjab,Hoshiarpur,146001,S0CV,OPERATIONAL,DIGITAL EXPRESS MINI
7531,South 2,Tamil Nadu,Chennai,600108,SJ99,OPERATIONAL,DIGITAL EXPRESS MINI
TKV6,East,West Bengal,Kolkata,700032,SLKO,OPERATIONAL,DIGITAL EXPRESS MINI
6432,West 2,Rajasthan,Jaipur,302002,R810,OPERATIONAL,DIGITAL EXPRESS MINI
TN98,EAST,Assam,Guwahati,784125,S597,OPERATIONAL,DIGITAL EXPRESS MINI
TC78,South 3,Tamil Nadu,Chennai,600040,SJ99,OPERATIONAL,Digital
6902,West 1,Chhattisgarh,Rajnandgaon,491441,S573,OPERATIONAL,DIGITAL EXPRESS MINI
7952,South 3,Tamil Nadu,Tirunelveli,627006,S0TC,OPERATIONAL,Digital
TQ44,West,Maharashtra,Kolhapur,416003,V014,OPERATIONAL,Digital
7459,East,West Bengal,Kolkata,700014,SLKO,OPERATIONAL,DIGITAL EXPRESS MINI
3585,North 2,Uttar Pradesh,Ujhani,243639,SC28,OPERATIONAL,DIGITAL EXPRESS MINI
TUA0,South 2,Andhra Pradesh,Kurnool,518002,SE40,OPERATIONAL,Digital
TEZ5,North 2,Uttar Pradesh,Bareily,243122,SC28,OPERATIONAL,DIGITAL EXPRESS MINI
3782,South 2,Kerala,Chittur,678101,SD78,OPERATIONAL,DIGITAL EXPRESS MINI
9512,South 2,Andhra Pradesh,Rajahmundry,533101,S0UG,OPERATIONAL,Digital
3541,West 1,Maharashtra,Mumbai,400037,R696,OPERATIONAL,DIGITAL EXPRESS MINI
6769,East,West Bengal,Kolkata,700120,SLKO,OPERATIONAL,DIGITAL EXPRESS MINI
7829,North 2,Uttar Pradesh,Allahabad,211003,SC28,OPERATIONAL,DIGITAL EXPRESS MINI
6448,North 2,Uttar Pradesh,Lucknow,226005,SC28,OPERATIONAL,DIGITAL EXPRESS MINI
3844,West 1,Maharashtra,Lonavala,410401,R696,OPERATIONAL,DIGITAL EXPRESS MINI
6617,West 2,Rajasthan,Jodhpur,342001,R810,OPERATIONAL,DIGITAL EXPRESS MINI
TE52,South 2,Kerala,Kanhangad,671315,SD78,OPERATIONAL,DIGITAL EXPRESS MINI
TEU7,West 1,Maharashtra,Mumbai,400607,R696,OPERATIONAL,DIGITAL EXPRESS MINI
T049,East,North East,Jowai,793150,S597,OPERATIONAL,DIGITAL EXPRESS MINI
7866,South 1,Andhra Pradesh,Vijaywada,520001,S0UG,OPERATIONAL,DIGITAL EXPRESS MINI
TX08,West,Maharashtra,Pune,411033,V014,OPERATIONAL,Digital
TU33,South 3,Kerala,Kochi,683542,SD78,OPERATIONAL,Digital
6154,North 1,Delhi NCR,Gurgaon,122002,SJ93,OPERATIONAL,DIGITAL EXPRESS MINI
7520,West 1,Maharashtra,Mumbai,400706,R696,OPERATIONAL,DIGITAL EXPRESS MINI
7644,North 1,Punjab,Ludhiana,141003,S0CV,OPERATIONAL,DIGITAL EXPRESS MINI
7500,North 1,Delhi NCR,Delhi,110008,SJ93,OPERATIONAL,DIGITAL EXPRESS MINI
6925,West 1,Maharashtra,Mumbai,400012,R696,OPERATIONAL,DIGITAL EXPRESS MINI
7464,West 2,Madhya Pradesh,Bhopal,462021,S0GZ,OPERATIONAL,DIGITAL EXPRESS MINI
3657,East,Odisha,Talcher,759100,R201,OPERATIONAL,DIGITAL EXPRESS MINI
9158,West 2,Gujarat,Surat,395007,SLTY,OPERATIONAL,DIGITAL EXPRESS MINI
TVM0,North 1,Delhi NCR,Delhi,110008,SJ93,OPERATIONAL,Digital
8745,South 1,Karnataka,Bangalore,560098,R396,OPERATIONAL,Digital
8718,West,Maharashtra,Nashik,422101,R696,OPERATIONAL,Digital
7802,West 2,Gujarat,Ahmedabad,382443,SLTY,OPERATIONAL,DIGITAL EXPRESS MINI
T2QM,North 2,Uttar Pradesh,Lucknow,,SC28,OPERATIONAL,Digital
6372,North 2,Uttar Pradesh,Moradabad,244001,SJ93,OPERATIONAL,DIGITAL EXPRESS MINI
6842,North 2,Uttar Pradesh,Rampur,244901,SJ93,OPERATIONAL,DIGITAL EXPRESS MINI
TG9N,West,Maharashtra,Pune,,V014,OPERATIONAL,Digital
TK93,North 1,Rajasthan,Ganganagar,335001,S0CV,OPERATIONAL,Digital
TJD7,South 2,Telangana,Hyderabad,500090,SE40,OPERATIONAL,DIGITAL EXPRESS MINI
7558,South 2,Telangana,Hyderabad,500013,SE40,OPERATIONAL,DIGITAL EXPRESS MINI
3551,West 2,Rajasthan,Bharatpur,321001,SJ93,OPERATIONAL,DIGITAL EXPRESS MINI
TDI9,North 1,Delhi NCR,Delhi,110009,SJ93,OPERATIONAL,Digital
7774,East,West Bengal,Kolkata,226025,SLKO,OPERATIONAL,DIGITAL EXPRESS MINI
TCB3,North 2,Bihar,Samastipur,848101,R394,OPERATIONAL,Digital
7962,East,Jharkhand,Ranchi,834001,R278,OPERATIONAL,DIGITAL EXPRESS MINI
7992,West 2,Madhya Pradesh,Indore,452001,S0GZ,OPERATIONAL,DIGITAL EXPRESS MINI
TER9,South 3,Tamil Nadu,Thiruvannamalai,606604,SJ99,OPERATIONAL,Digital
6554,North 2,Uttar Pradesh,Meerut,250001,SLOR,OPERATIONAL,DIGITAL EXPRESS MINI
3757,North 2,Uttar Pradesh,Auraiya,206122,SC28,OPERATIONAL,DIGITAL EXPRESS MINI
TJV9,EAST,West Bengal,Puruliya,723101,SLKO,OPERATIONAL,DIGITAL EXPRESS MINI
9137,East,Assam,Barpeta,781301,S597,OPERATIONAL,DIGITAL EXPRESS MINI
8885,South 1,Karnataka,Bangalore,560043,R396,OPERATIONAL,Digital
TB82,East,West Bengal,Kolkata,700144,SLKO,OPERATIONAL,Digital
TTZ9,West,Maharashtra,Mumbai,421203,R696,OPERATIONAL,Digital
T2VP,South 1,Andhra Pradesh,Srikakulam,,R804,OPERATIONAL,Digital
6113,West 2,Madhya Pradesh,Mhow,453441,S0GZ,OPERATIONAL,DIGITAL EXPRESS MINI
6494,West 1,Maharashtra,Mumbai,400703,R696,OPERATIONAL,DIGITAL EXPRESS MINI
TXFW,North 1,Delhi NCR,Delhi,110034,SJ93,OPERATIONAL,Digital
6194,West 2,Madhya Pradesh,Murwara(Katni),483501,SACU,OPERATIONAL,DIGITAL EXPRESS MINI
7653,East,West Bengal,Kolkata,712101,SLKO,OPERATIONAL,DIGITAL EXPRESS MINI
7698,North 2,Bihar,Patna,800008,R394,OPERATIONAL,DIGITAL EXPRESS MINI
3581,North 2,Uttar Pradesh,Azamgarh,276001,SC28,OPERATIONAL,DIGITAL EXPRESS MINI
6892,North 2,Bihar,Katihar,854105,SLLN,OPERATIONAL,DIGITAL EXPRESS MINI
7528,East,West Bengal,Kolkata,700051,SLKO,OPERATIONAL,DIGITAL EXPRESS MINI
8887,South 1,Karnataka,Bangalore,560092,R396,OPERATIONAL,Digital
8884,South 1,Karnataka,Bangalore,560048,R396,OPERATIONAL,Digital
6296,East,Jharkhand,Ranchi,834001,R278,OPERATIONAL,DIGITAL EXPRESS MINI
8975,East,Meghalaya,Shillong,793001,S597,OPERATIONAL,Digital
9138,West 1,Maharashtra,Shegaon,444203,SACU,OPERATIONAL,DIGITAL EXPRESS MINI
6601,North 2,Bihar,Sasaram,821115,R394,OPERATIONAL,DIGITAL EXPRESS MINI
TX81,South 2,Andhra Pradesh,Vizag,530016,R804,OPERATIONAL,Digital
6666,North 2,Bihar,Aurangabad-B,824101,R394,OPERATIONAL,DIGITAL EXPRESS MINI
TVA7,South 3,Tamil Nadu,Karaikudi,630001,S0TC,OPERATIONAL,Digital
7817,West 1,Maharashtra,Mumbai,400062,R696,OPERATIONAL,DIGITAL EXPRESS MINI
7958,West 1,Maharashtra,Kolhapur,416012,V014,OPERATIONAL,DIGITAL EXPRESS MINI
7636,West 1,Maharashtra,Mumbai,400057,R696,OPERATIONAL,DIGITAL EXPRESS MINI
3867,North 2,Uttarakhand,Ramnagar,244715,SLOR,OPERATIONAL,DIGITAL EXPRESS MINI
6477,North 1,Haryana,Karnal,132001,SJ93,OPERATIONAL,DIGITAL EXPRESS MINI
3891,North 1,Himachal Pradesh,Shimla,175001,S0CV,OPERATIONAL,DIGITAL EXPRESS MINI
TUX1,South 1,Karnataka,Bangalore,560023,R396,OPERATIONAL,Digital
6578,West 2,Madhya Pradesh,Bhind,477001,SJ93,OPERATIONAL,DIGITAL EXPRESS MINI
8709,East,West Bengal,Kolkata,700016,SLKO,OPERATIONAL,Digital
6634,West 2,Madhya Pradesh,Indore,452005,S0GZ,OPERATIONAL,DIGITAL EXPRESS MINI
3786,South 1,Karnataka,Rabkavi-Banhatti,587314,R396,OPERATIONAL,DIGITAL EXPRESS MINI
6647,South 1,Andhra Pradesh,Chirala,523155,S0UG,OPERATIONAL,DIGITAL EXPRESS MINI
6679,North 1,Punjab,Chandigarh,160047,S0CV,OPERATIONAL,DIGITAL EXPRESS MINI
TCS7,East,West Bengal,Kolkata,743503,SLKO,OPERATIONAL,Digital
6785,South 1,Karnataka,Gulbarga,585105,SE40,OPERATIONAL,DIGITAL EXPRESS MINI
6660,South 1,Telangana,Gadwal,509125,SE40,OPERATIONAL,DIGITAL EXPRESS MINI
7772,West 1,Maharashtra,Pune,411057,V014,OPERATIONAL,DIGITAL EXPRESS MINI
3841,South 1,Andhra Pradesh,Piduguralla,522437,S0UG,OPERATIONAL,DIGITAL EXPRESS MINI
TW2E,South 3,Tamil Nadu,Dharmapuri,636705,S0TC,OPERATIONAL,Digital
TW93,West,Maharashtra,Sangamner,422605,R696,OPERATIONAL,Digital
TW40,North 2,Uttar Pradesh,Bareily,243001,SC28,OPERATIONAL,Digital
TVL9,South 1,Karnataka,Bangalore,560049,R396,OPERATIONAL,Digital
7807,North 2,Uttar Pradesh,Meerut,250001,SLOR,OPERATIONAL,DIGITAL EXPRESS MINI
6627,South 2,Telangana,Hyderabad,501218,SE40,OPERATIONAL,DIGITAL EXPRESS MINI
TJI0,South 2,Andhra Pradesh,Nellore,524003,SJ99,OPERATIONAL,Digital
TVM7,East,Assam,Silchar,788005,S597,OPERATIONAL,DIGITAL EXPRESS MINI
7981,West 2,Gujarat,Jamnagar,361005,SLTY,OPERATIONAL,DIGITAL EXPRESS MINI
6446,West 2,Madhya Pradesh,Sagar,470002,S0GZ,OPERATIONAL,DIGITAL EXPRESS MINI
3681,West 2,Madhya Pradesh,Harda,461331,S0GZ,OPERATIONAL,DIGITAL EXPRESS MINI
6683,North 2,Uttar Pradesh,Meerut,250002,SLOR,OPERATIONAL,DIGITAL EXPRESS MINI
TF06,East,West Bengal,Howrah,711106,SLKO,OPERATIONAL,DIGITAL EXPRESS MINI
6495,West 1,Chhattisgarh,Bilaspur,495001,S573,OPERATIONAL,DIGITAL EXPRESS MINI
6748,South 1,Andhra Pradesh,Tirupati,517501,SJ99,OPERATIONAL,DIGITAL EXPRESS MINI
6776,West 1,Maharashtra,Mumbai,400099,R696,OPERATIONAL,DIGITAL EXPRESS MINI
TG0Q,South 2,Kerala,Kottiyam,691571,SD78,OPERATIONAL,DIGITAL EXPRESS MINI
8695,South 2,Andhra Pradesh,Chittoor,517501,SJ99,OPERATIONAL,Digital
8793,South 1,Karnataka,Bangalore,560045,R396,OPERATIONAL,Digital
9128,East,West Bengal,Kolkata,700124,SLKO,OPERATIONAL,DIGITAL EXPRESS MINI
8798,East,West Bengal,Siliguri,734001,SLLN,OPERATIONAL,Digital
8953,East,West Bengal,Kolkata,700047,SLKO,OPERATIONAL,Digital
T749,North 2,Bihar,Darbhanga,856004,R394,OPERATIONAL,DIGITAL EXPRESS MINI
3675,South 1,Karnataka,Bijapur,586103,V014,OPERATIONAL,Digital
TEE0,North 1,Haryana,Ambala,134003,S0CV,OPERATIONAL,Digital
7812,West 1,Maharashtra,Nashik,422003,R696,OPERATIONAL,DIGITAL EXPRESS MINI
TG1O,West 1,Maharashtra,Mumbai,401404,R696,OPERATIONAL,DIGITAL EXPRESS MINI
TEE6,West 1,Maharashtra,Wardha,442001,SACU,OPERATIONAL,DIGITAL EXPRESS MINI
3764,South 2,Tamil Nadu,Udumalaipettai,642126,S0TC,OPERATIONAL,DIGITAL EXPRESS MINI
3587,West 2,Rajasthan,Karoli,322230,R810,OPERATIONAL,DIGITAL EXPRESS MINI
6758,West 2,Gujarat,Ahmedabad,380007,SLTY,OPERATIONAL,DIGITAL EXPRESS MINI
9166,North 2,Uttar Pradesh,Vrindavan,281121,SJ93,OPERATIONAL,DIGITAL EXPRESS MINI
3578,West 2,Rajasthan,Baran,325205,R810,OPERATIONAL,DIGITAL EXPRESS MINI
8834,South 2,Telangana,Hyderabad,500060,SE40,OPERATIONAL,Digital
T1JX,Central,Gujarat,Ahmedabad,382421,SLTY,OPERATIONAL,Digital
6390,North 1,Delhi NCR,Delhi,110019,SJ93,OPERATIONAL,DIGITAL EXPRESS MINI
T050,South 3,Tamil Nadu,Chennai,600087,SJ99,OPERATIONAL,Digital
TW2B,East,West Bengal,Raniganj,713301,SLKO,OPERATIONAL,Digital
8898,South 1,Karnataka,Mysore,570010,R396,OPERATIONAL,Digital
6625,South 2,Tamil Nadu,Thoothukkudi,628002,S0TC,OPERATIONAL,DIGITAL EXPRESS MINI
T3BB,West 1,Chhattisgarh,Ambikapur,,S573,OPERATIONAL,Digital
8903,Central,Madhya Pradesh,Indore,452001,S0GZ,OPERATIONAL,Digital
TIX5,West 2,Madhya Pradesh,Bhopal,462008,S0GZ,OPERATIONAL,DIGITAL EXPRESS MINI
3560,West 2,Gujarat,Vadodara,390022,SLTY,OPERATIONAL,DIGITAL EXPRESS MINI
6831,South 2,Tamil Nadu,Chennai,600023,SJ99,OPERATIONAL,DIGITAL EXPRESS MINI
7835,South 2,Telangana,Hyderabad,500076,SE40,OPERATIONAL,DIGITAL EXPRESS MINI
TEX4,North 2,Uttar Pradesh,Allahabad,211008,SC28,OPERATIONAL,DIGITAL EXPRESS MINI
3682,West 2,Madhya Pradesh,Rewa,486001,SACU,OPERATIONAL,DIGITAL EXPRESS MINI
7721,West 2,Rajasthan,Jaipur,302039,R810,OPERATIONAL,DIGITAL EXPRESS MINI
9178,East,North East,Lunglei,796701,S597,OPERATIONAL,DIGITAL EXPRESS MINI
8787,West,Maharashtra,Mumbai,400070,R696,OPERATIONAL,Digital
TI3I,West,Maharashtra,Pune,,V014,OPERATIONAL,Digital
7471,South 1,Karnataka,Devangere,577002,R396,OPERATIONAL,DIGITAL EXPRESS MINI
TCJ8,North 2,Bihar,Purnea,854301,SLLN,OPERATIONAL,Digital
9169,East,Assam,Bongaigaon,783380,S597,OPERATIONAL,DIGITAL EXPRESS MINI
7492,West 1,Chhattisgarh,Durg-Bhilainagar,491001,S573,OPERATIONAL,DIGITAL EXPRESS MINI
7477,South 2,Kerala,Kannur,670001,SD78,OPERATIONAL,DIGITAL EXPRESS MINI
3896,North 1,Jammu & Kashmir,Kathua,184101,Y695,OPERATIONAL,DIGITAL EXPRESS MINI
T751,South 2,Telangana,Secunderabad,500026,SE40,OPERATIONAL,Digital
TDI7,North 1,Delhi NCR,Delhi,110077,SJ93,OPERATIONAL,Digital
TY7C,North 2,Jharkhand,Ranchi,834008,R278,OPERATIONAL,Digital
7629,West 1,Maharashtra,Pune,411005,V014,OPERATIONAL,DIGITAL EXPRESS MINI
3688,East,West Bengal,Krishnanagar,741101,SLKO,OPERATIONAL,DIGITAL EXPRESS MINI
6536,East,West Bengal,Kolkata,711303,SLKO,OPERATIONAL,DIGITAL EXPRESS MINI
T36N,North 2,Uttarakhand,Haldwani,263139,SLOR,OPERATIONAL,DIGITAL EXPRESS MINI
6291,North 1,Punjab,Ludhiana,141010,S0CV,OPERATIONAL,DIGITAL EXPRESS MINI
3655,East,West Bengal,Gangarampur,733124,SLLN,OPERATIONAL,DIGITAL EXPRESS MINI
3592,North 1,Punjab,Maloud,152107,S0CV,OPERATIONAL,DIGITAL EXPRESS MINI
7716,North 2,Uttar Pradesh,Kanpur,208006,SC28,OPERATIONAL,DIGITAL EXPRESS MINI
3890,North 1,Punjab,Nakodar,144040,S0CV,OPERATIONAL,DIGITAL EXPRESS MINI
TFT0,North 2,Uttar Pradesh,Fatehpur,212601,SC28,OPERATIONAL,DIGITAL EXPRESS MINI
7818,West 1,Chhattisgarh,Raipur,492001,S573,OPERATIONAL,DIGITAL EXPRESS MINI
7707,South 2,Kerala,Trivandrum,695009,SD78,OPERATIONAL,DIGITAL EXPRESS MINI
6420,West 2,Madhya Pradesh,Bhopal,462001,S0GZ,OPERATIONAL,DIGITAL EXPRESS MINI
3549,West 1,Maharashtra,Hinganghat,442301,SACU,OPERATIONAL,DIGITAL EXPRESS MINI
TES9,North 2,Uttar Pradesh,Lucknow,226004,SC28,OPERATIONAL,DIGITAL EXPRESS MINI
TFI3,West,Maharashtra,Aurangabad,431001,V014,OPERATIONAL,Digital
3894,South 1,Karnataka,Basavakalyan,585401,SE40,OPERATIONAL,DIGITAL EXPRESS MINI
3535,North 2,Uttar Pradesh,Faridpur,243503,SC28,OPERATIONAL,DIGITAL EXPRESS MINI
3747,South 2,Tamil Nadu,Pudukkottai,622001,S0TC,OPERATIONAL,DIGITAL EXPRESS MINI
8827,South 2,Telangana,Hyderabad,500049,SE40,OPERATIONAL,Digital
T30E,North 2,Uttar Pradesh,Kanpur,208002,SC28,OPERATIONAL,Digital
8985,East,West Bengal,Burdwan,713101,SLKO,OPERATIONAL,Digital
9702,North 1,Rajasthan,Bikaner,334001,R810,OPERATIONAL,Digital
7936,West 2,Gujarat,Jamnagar,361140,SLTY,OPERATIONAL,DIGITAL EXPRESS MINI
7565,South 1,Karnataka,Bangalore,560034,R396,OPERATIONAL,DIGITAL EXPRESS MINI
TKR8,West,Maharashtra,Pune,411013,V014,OPERATIONAL,Digital
8671,North 2,Bihar,Patna,800014,R394,OPERATIONAL,Digital
TY25,North 2,Uttarakhand,Kashipur,244713,SLOR,OPERATIONAL,DIGITAL EXPRESS MINI
7950,South 2,Telangana,Hyderabad,500073,SE40,OPERATIONAL,DIGITAL EXPRESS MINI
7867,West 1,Maharashtra,Kolhapur,416008,V014,OPERATIONAL,DIGITAL EXPRESS MINI
8788,West 1,Maharashtra,Mumbai,400102,R696,OPERATIONAL,DIGITAL EXPRESS MINI
3536,North 2,Uttar Pradesh,Kosikalan,281403,SJ93,OPERATIONAL,DIGITAL EXPRESS MINI
6786,West 2,Madhya Pradesh,Sagar,470001,S0GZ,OPERATIONAL,DIGITAL EXPRESS MINI
TML2,South 1,Karnataka,Bangalore,560008,R396,OPERATIONAL,Digital
6338,North 2,Bihar,Bhagalpur,812001,R394,OPERATIONAL,DIGITAL EXPRESS MINI
9154,North 1,Delhi NCR,Noida,201301,SJ93,OPERATIONAL,Digital
TBA7,North 2,Uttar Pradesh,Kanpur,208001,SC28,OPERATIONAL,DIGITAL EXPRESS MINI
3654,East,Odisha,Jajpore Road,764001,R201,OPERATIONAL,DIGITAL EXPRESS MINI
6149,West 1,Maharashtra,Phaltan,415523,V014,OPERATIONAL,DIGITAL EXPRESS MINI
7769,West 2,Gujarat,Ahmedabad,382481,SLTY,OPERATIONAL,DIGITAL EXPRESS MINI
9187,West 2,Gujarat,Bilimora,396321,SLTY,OPERATIONAL,DIGITAL EXPRESS MINI
7442,South 2,Kerala,Trivandrum,695006,SD78,OPERATIONAL,DIGITAL EXPRESS MINI
3718,North 1,Himachal Pradesh,Una,174303,S0CV,OPERATIONAL,DIGITAL EXPRESS MINI
6442,East,Odisha,Rourkela,769004,R278,OPERATIONAL,DIGITAL EXPRESS MINI
6361,Central,Gujarat,Surat,395009,SLTY,OPERATIONAL,Digital
6267,West 1,Maharashtra,Amravati,444606,SACU,OPERATIONAL,DIGITAL EXPRESS MINI
8769,South 2,Telangana,Hyderabad,500070,SE40,OPERATIONAL,Digital
7816,West 2,Rajasthan,Jaipur,302012,R810,OPERATIONAL,DIGITAL EXPRESS MINI
6901,North 2,Bihar,Dehri,821307,R394,OPERATIONAL,DIGITAL EXPRESS MINI
TVL0,South 3,Tamil Nadu,Madurai,625016,S0TC,OPERATIONAL,Digital
7760,West 2,Gujarat,Ahmedabad,380008,SLTY,OPERATIONAL,DIGITAL EXPRESS MINI
7954,West 1,Maharashtra,Nashik,422401,R696,OPERATIONAL,DIGITAL EXPRESS MINI
8939,South 3,Tamil Nadu,Chennai,600083,SJ99,OPERATIONAL,Digital
6300,North 1,Punjab,Jalandhar,144005,S0CV,OPERATIONAL,DIGITAL EXPRESS MINI
TIX6,South 1,Karnataka,Bangalore,560076,R396,OPERATIONAL,DIGITAL EXPRESS MINI
TED7,West,Maharashtra,Mumbai,421301,R696,OPERATIONAL,Digital
7897,South 1,Andhra Pradesh,Vishakhapatnam,530026,R804,OPERATIONAL,DIGITAL EXPRESS MINI
7947,West 2,Gujarat,Bhavnagar,364005,SLTY,OPERATIONAL,DIGITAL EXPRESS MINI
6684,EAST,West Bengal,English Bazar(Malda),732101,SLLN,OPERATIONAL,DIGITAL EXPRESS MINI
6423,North 2,Uttar Pradesh,Bareily,243001,SC28,OPERATIONAL,DIGITAL EXPRESS MINI
6184,North 2,Uttar Pradesh,Allahabad,211002,SC28,OPERATIONAL,DIGITAL EXPRESS MINI
8935,South 3,Tamil Nadu,Chennai,600042,SJ99,OPERATIONAL,Digital
TLY3,Central,Gujarat,Nadiad,387001,SLTY,OPERATIONAL,Digital
TN88,South 1,Karnataka,Bangalore,560010,R396,OPERATIONAL,DIGITAL EXPRESS MINI
TKC2,East,West Bengal,Kharagpur,721305,SLKO,OPERATIONAL,Digital
9161,North 1,Rajasthan,Bharatpur,321001,SJ93,OPERATIONAL,Digital
T2VH,South 1,KARNATAKA,BENGALURU,,R396,OPERATIONAL,Digital
8750,South 2,Andhra Pradesh,Anantapur,515001,R396,OPERATIONAL,Digital
8754,South 3,Kerala,Kochi,682024,SD78,OPERATIONAL,Digital
T43N,Central,Gujarat,Amreli,365601,SLTY,OPERATIONAL,Digital
TM29,West 2,Gujarat,Veraval,362265,SLTY,OPERATIONAL,DIGITAL EXPRESS MINI
6906,EAST,West Bengal,Behala,700061,SLKO,OPERATIONAL,DIGITAL EXPRESS MINI
6496,West 1,Maharashtra,Ichalkaranji,416115,V014,OPERATIONAL,DIGITAL EXPRESS MINI
7648,North 2,Uttar Pradesh,Lucknow,226016,SC28,OPERATIONAL,DIGITAL EXPRESS MINI
6437,South 1,Telangana,Khammam,507001,SE40,OPERATIONAL,DIGITAL EXPRESS MINI
TLN7,West 1,Maharashtra,Latur,413512,V014,OPERATIONAL,DIGITAL EXPRESS MINI
7912,West 2,Rajasthan,Jodhpur,342003,R810,OPERATIONAL,DIGITAL EXPRESS MINI
9164,South 1,Andhra Pradesh,Dharmavaram,515671,R396,OPERATIONAL,DIGITAL EXPRESS MINI
7915,West 2,Madhya Pradesh,Bhopal,462011,S0GZ,OPERATIONAL,DIGITAL EXPRESS MINI
T762,West,Maharashtra,Pune,411046,V014,OPERATIONAL,Digital
8932,North 1,Rajasthan,Kota,324005,R810,OPERATIONAL,Digital
TI74,Central,Chhattisgarh,Korba,495677,S573,OPERATIONAL,Digital
7906,North 1,Punjab,Jalandhar,144007,S0CV,OPERATIONAL,DIGITAL EXPRESS MINI
3865,North 2,Uttar Pradesh,Jaunpur,222001,SC28,OPERATIONAL,DIGITAL EXPRESS MINI
3743,South 2,Kerala,Muvattupuzha,686661,SD78,OPERATIONAL,DIGITAL EXPRESS MINI
6398,South 2,Tamil Nadu,Erode,638002,S0TC,OPERATIONAL,DIGITAL EXPRESS MINI
TEI3,North 2,Bihar,Patna,801503,R394,OPERATIONAL,Digital
TLL1,North 2,Uttar Pradesh,Lucknow,226022,SC28,OPERATIONAL,Digital
8703,North 1,Rajasthan,Ajmer,305001,R810,OPERATIONAL,Digital
7940,North 2,Uttar Pradesh,Allahabad,211008,SC28,OPERATIONAL,DIGITAL EXPRESS MINI
7861,East,Jharkhand,Jamshedpur,831003,R278,OPERATIONAL,DIGITAL EXPRESS MINI
7541,West 1,Maharashtra,Mumbai,400092,R696,OPERATIONAL,DIGITAL EXPRESS MINI
7655,East,West Bengal,Kolkata,711204,SLKO,OPERATIONAL,DIGITAL EXPRESS MINI
TVL5,West,Maharashtra,Amravati,444607,SACU,OPERATIONAL,Digital
TJN2,EAST,Assam,Nazira,785685,S597,OPERATIONAL,DIGITAL EXPRESS MINI
TJQ7,South 1,Karnataka,Bangalore,560072,R396,OPERATIONAL,DIGITAL EXPRESS MINI
8909,West,Maharashtra,Mumbai,400604,R696,OPERATIONAL,Digital
8960,Central,Gujarat,Ahmedabad,380006,SLTY,OPERATIONAL,Digital
T2HF,Central,Gujarat,Mehsana,,SLTY,OPERATIONAL,Digital
7538,South 1,Karnataka,Bangalore,560097,R396,OPERATIONAL,DIGITAL EXPRESS MINI
9115,South 2,Tamil Nadu,Udhagamandalam,643001,S0TC,OPERATIONAL,DIGITAL EXPRESS MINI
6657,South 1,Telangana,Bodhan,503185,SE40,OPERATIONAL,DIGITAL EXPRESS MINI
T2LB,South 2,Kumbakonam,Tamil Nadu,,S0TC,OPERATIONAL,Digital
T752,South 2,Telangana,Hyderabad,502032,SE40,OPERATIONAL,Digital
7809,North 2,Uttarakhand,Dehradun,248001,SLOR,OPERATIONAL,DIGITAL EXPRESS MINI
3880,East,West Bengal,Kolkata,700026,SLKO,OPERATIONAL,DIGITAL EXPRESS MINI
3716,North 1,Himachal Pradesh,Kangra(Dharamsala),176001,S0CV,OPERATIONAL,DIGITAL EXPRESS MINI
6443,West 2,Madhya Pradesh,Bhopal,462001,S0GZ,OPERATIONAL,DIGITAL EXPRESS MINI
3850,South 1,Karnataka,Ramanagaram,573201,R396,OPERATIONAL,DIGITAL EXPRESS MINI
T619,South 1,Karnataka,Bangalore,560003,R396,OPERATIONAL,Digital
8946,North 1,Delhi NCR,Ghaziabad,201010,SJ93,OPERATIONAL,Digital
8757,North 2,Jharkhand,Ranchi,834001,R278,OPERATIONAL,Digital
9505,South 2,Andhra Pradesh,Adoni,518301,SE40,OPERATIONAL,Digital
6189,East,West Bengal,Birnagar,741127,SLKO,OPERATIONAL,DIGITAL EXPRESS MINI
TJH4,East,West Bengal,Murshidabad,742101,SLKO,OPERATIONAL,Digital
3801,South 2,Tamil Nadu,Bodinayakkanur,625513,S0TC,OPERATIONAL,DIGITAL EXPRESS MINI
6023,West 1,Chhattisgarh,Ambikapur,497001,S573,OPERATIONAL,DIGITAL EXPRESS MINI
TH22,South 2,Andhra Pradesh,Guntakal,515801,R396,OPERATIONAL,Digital
TA91,South 1,Karnataka,Bangalore,560061,R396,OPERATIONAL,Digital
TO51,North 2,Bihar,Bhagalpur,812005,R394,OPERATIONAL,Digital
8955,East,West Bengal,Kolkata,700156,SLKO,OPERATIONAL,Digital
6369,Central,Gujarat,Surat,395006,SLTY,OPERATIONAL,Digital
6562,North 2,Uttar Pradesh,Lucknow,226020,SC28,OPERATIONAL,DIGITAL EXPRESS MINI
TATS,South 3,Kerala,Thiruvalla,689107,SD78,OPERATIONAL,Digital
7919,South 2,Tamil Nadu,Coimbatore,641006,S0TC,OPERATIONAL,DIGITAL EXPRESS MINI
7763,South 2,Kerala,Thrissur,680307,SD78,OPERATIONAL,DIGITAL EXPRESS MINI
7651,West 1,Maharashtra,Panvel,410206,R696,OPERATIONAL,DIGITAL EXPRESS MINI
TV05,EAST,Jharkhand,Ranchi,834008,R278,OPERATIONAL,DIGITAL EXPRESS MINI
T747,East,North East,Pasighat,791102,S597,OPERATIONAL,DIGITAL EXPRESS MINI
6288,West 2,Madhya Pradesh,Gwalior,474002,SJ93,OPERATIONAL,DIGITAL EXPRESS MINI
8905,West,Maharashtra,Mumbai,400601,R696,OPERATIONAL,Digital
TE58,East,Odisha,Bhubaneshwar,751010,R201,OPERATIONAL,Digital
8937,South 3,Tamil Nadu,Chennai,600010,SJ99,OPERATIONAL,Digital
7856,North 1,Delhi NCR,Delhi,110015,SJ93,OPERATIONAL,DIGITAL EXPRESS MINI
T2UZ,West,Maharashtra,Mumbai,,R696,OPERATIONAL,Digital
TOA2,West,Maharashtra,Nagpur,440010,SACU,OPERATIONAL,Digital
TVK4,South 1,Goa,Margao,403602,R396,OPERATIONAL,Digital
6185,West 2,Gujarat,Surendranagar/ Wadhwan,363002,SLTY,OPERATIONAL,DIGITAL EXPRESS MINI
TKA1,West 1,Maharashtra,Nagpur,440024,SACU,OPERATIONAL,DIGITAL EXPRESS MINI
9121,North 1,Jammu & Kashmir,Srinagar,190010,Y695,OPERATIONAL,DIGITAL EXPRESS MINI
9506,South 1,Telangana,Jagtial,505327,SE40,OPERATIONAL,DIGITAL EXPRESS MINI
3878,West 2,Rajasthan,Pali,306040,R810,OPERATIONAL,DIGITAL EXPRESS MINI
9498,North 2,Uttar Pradesh,Hapur,245304,SLOR,OPERATIONAL,DIGITAL EXPRESS MINI
7926,North 2,Uttarakhand,Dehradun,248001,SLOR,OPERATIONAL,DIGITAL EXPRESS MINI
6574,West 1,Maharashtra,Ballarpur,442701,SACU,OPERATIONAL,DIGITAL EXPRESS MINI
8751,Central,Gujarat,Vadodara,390020,SLTY,OPERATIONAL,Digital
T51D,South 1,Telangana,Nirmal,504106,SE40,OPERATIONAL,DIGITAL EXPRESS MINI
3852,South 1,Karnataka,Bangalore,560072,R396,OPERATIONAL,Digital
3533,West 2,Rajasthan,Hanumangarh,335001,R810,OPERATIONAL,DIGITAL EXPRESS MINI
TSE8,Central,Chhattisgarh,Bilaspur,495001,S573,OPERATIONAL,Digital
6664,South 1,Karnataka,Sira,572137,R396,OPERATIONAL,DIGITAL EXPRESS MINI
7946,North 2,Uttar Pradesh,Allahabad,211003,SC28,OPERATIONAL,DIGITAL EXPRESS MINI
7907,South 2,Telangana,Hyderabad,500057,SE40,OPERATIONAL,DIGITAL EXPRESS MINI
6135,West 2,Madhya Pradesh,Betul,460001,S0GZ,OPERATIONAL,DIGITAL EXPRESS MINI
6783,North 2,Uttar Pradesh,Moradabad,244001,SJ93,OPERATIONAL,DIGITAL EXPRESS MINI
TNP5,West,Maharashtra,Pune,411057,V014,OPERATIONAL,Digital
7539,South 2,Tamil Nadu,Chennai,600040,SJ99,OPERATIONAL,DIGITAL EXPRESS MINI
6308,South 1,Karnataka,Mangalore,575001,R396,OPERATIONAL,DIGITAL EXPRESS MINI
6248,South 2,Kerala,Trivandrum,695607,SD78,OPERATIONAL,DIGITAL EXPRESS MINI
6157,West 2,Rajasthan,Fatehpur_Raj,332301,R810,OPERATIONAL,DIGITAL EXPRESS MINI
TEE8,South 1,Karnataka,Hubli,580021,R396,OPERATIONAL,DIGITAL EXPRESS MINI
6342,North 2,Uttar Pradesh,Muzaffarnagar,251002,SLOR,OPERATIONAL,DIGITAL EXPRESS MINI
7441,North 1,Haryana,Yamunanagar,135003,S0CV,OPERATIONAL,DIGITAL EXPRESS MINI
8765,South 3,Tamil Nadu,Chennai,600004,SJ99,OPERATIONAL,Digital
6445,West 1,Maharashtra,Ahmadnagar,414003,V014,OPERATIONAL,DIGITAL EXPRESS MINI
TSD6,West,Maharashtra,Mumbai,401201,R696,OPERATIONAL,Digital
7714,North 1,Punjab,Chandigarh,140301,S0CV,OPERATIONAL,DIGITAL EXPRESS MINI
TK92,North 1,Rajasthan,Hanumangarh,335512,S0CV,OPERATIONAL,Digital
8728,South 3,Tamil Nadu,Madurai,625001,S0TC,OPERATIONAL,Digital
6954,North 1,Punjab,Pathankot,145001,S0CV,OPERATIONAL,DIGITAL EXPRESS MINI
7971,West 2,Gujarat,Rajkot,360002,SLTY,OPERATIONAL,DIGITAL EXPRESS MINI
7693,West 1,Maharashtra,Pune,411001,V014,OPERATIONAL,DIGITAL EXPRESS MINI
TW86,South 1,Telangana,Kothagudem,507115,SE40,OPERATIONAL,DIGITAL EXPRESS MINI
3883,South 1,Telangana,Mahbubnagar,509001,SE40,OPERATIONAL,DIGITAL EXPRESS MINI
6817,South 2,Tamil Nadu,Tiruppur,641602,S0TC,OPERATIONAL,DIGITAL EXPRESS MINI
TCR6,West 2,Rajasthan,Bikaner,334401,R810,OPERATIONAL,DIGITAL EXPRESS MINI
TQ71,South 3,Kerala,Trivandrum,695010,SD78,OPERATIONAL,Digital
TJ5N,South 1,Karnataka,Hassan,,R396,OPERATIONAL,Digital
TY50,EAST,Jharkhand,Jamshedpur,831002,R278,OPERATIONAL,DIGITAL EXPRESS MINI
3518,North 2,Uttar Pradesh,Shamli,247776,SLOR,OPERATIONAL,DIGITAL EXPRESS MINI
TY71,EAST,North East,Agartala,799001,S597,OPERATIONAL,DIGITAL EXPRESS MINI
7796,South 2,Kerala,Kochi,682025,SD78,OPERATIONAL,DIGITAL EXPRESS MINI
8635,West,Maharashtra,Mumbai,400701,R696,OPERATIONAL,Digital
7635,West 1,Maharashtra,Mumbai,400002,R696,OPERATIONAL,DIGITAL EXPRESS MINI
9165,East,Assam,Dibrugarh,786001,S597,OPERATIONAL,DIGITAL EXPRESS MINI
TE96,East,West Bengal,Ranigunj,713347,SLKO,OPERATIONAL,DIGITAL EXPRESS MINI
TS16,North 2,Uttar Pradesh,Allahabad,211003,SC28,OPERATIONAL,DIGITAL EXPRESS MINI
TGR9,North 1,Rajasthan,Kota,324007,R810,OPERATIONAL,Digital
TY69,North 2,Bihar,Saharsa,852201,R394,OPERATIONAL,DIGITAL EXPRESS MINI
8883,South 1,Karnataka,Bangalore,560078,R396,OPERATIONAL,Digital
TJV7,East,West Bengal,Jalpaiguri,735101,SLLN,OPERATIONAL,Digital
TVK5,West,Maharashtra,Nashik,422005,R696,OPERATIONAL,Digital
3520,North 2,Uttar Pradesh,Farukhabad,209625,SC28,OPERATIONAL,DIGITAL EXPRESS MINI
7938,West 2,Madhya Pradesh,Jabalpur,482004,SACU,OPERATIONAL,DIGITAL EXPRESS MINI
9650,West 2,Rajasthan,Balotra,344022,R810,OPERATIONAL,DIGITAL EXPRESS MINI
3517,North 2,Uttar Pradesh,Pilibhit,262001,SC28,OPERATIONAL,DIGITAL EXPRESS MINI
7458,West 2,Madhya Pradesh,Jabalpur,482002,SACU,OPERATIONAL,DIGITAL EXPRESS MINI
T42R,North 1,Himachal Pradesh,Solan,173212,S0CV,OPERATIONAL,Digital
TCR5,East,Assam,Dibrugarh,786001,S597,OPERATIONAL,Digital
TSD5,South 2,Telangana,Hyderabad,500008,SE40,OPERATIONAL,Digital
3790,North 1,Haryana,Rohtak,124001,SJ93,OPERATIONAL,Digital
TL14,South 2,Andhra Pradesh,Guntur,522201,S0UG,OPERATIONAL,Digital
7785,South 1,Telangana,Warangal,506001,SE40,OPERATIONAL,DIGITAL EXPRESS MINI
6463,West 2,Madhya Pradesh,Dewas,455001,S0GZ,OPERATIONAL,DIGITAL EXPRESS MINI
3643,West 2,Madhya Pradesh,Khandwa,450001,S0GZ,OPERATIONAL,DIGITAL EXPRESS MINI
3677,South 1,Andhra Pradesh,Markapur,523316,S0UG,OPERATIONAL,DIGITAL EXPRESS MINI
TEL5,East,Assam,Nagaon,782002,S597,OPERATIONAL,DIGITAL EXPRESS MINI
9118,North 1,Jammu & Kashmir,Anantnag,192101,Y695,OPERATIONAL,DIGITAL EXPRESS MINI
7948,North 2,Bihar,Gaya,823001,R394,OPERATIONAL,DIGITAL EXPRESS MINI
8934,South 3,Tamil Nadu,Chennai,600040,SJ99,OPERATIONAL,Digital
8951,North 1,Delhi NCR,Noida,201301,SJ93,OPERATIONAL,Digital
T592,South 3,Tamil Nadu,Nagarcoil,629403,S0TC,OPERATIONAL,Digital
8919,West,Maharashtra,Pune,411014,V014,OPERATIONAL,Digital
6186,North 1,Delhi NCR,Delhi,110045,SJ93,OPERATIONAL,DIGITAL EXPRESS MINI
6630,West 1,Maharashtra,Dhule,424001,R696,OPERATIONAL,DIGITAL EXPRESS MINI
TL28,South 1,Andhra Pradesh,Vishakhapatnam,530013,R804,OPERATIONAL,DIGITAL EXPRESS MINI
TR61,West 2,Madhya Pradesh,Bhopal,462022,S0GZ,OPERATIONAL,DIGITAL EXPRESS MINI
TEU6,North 1,Delhi NCR,Ghaziabad,201009,SJ93,OPERATIONAL,DIGITAL EXPRESS MINI
TKH2,West 1,Goa,Siolim,403517,R396,OPERATIONAL,DIGITAL EXPRESS MINI
TR65,West,Maharashtra,Latur,413531,V014,OPERATIONAL,Digital
8725,South 3,Tamil Nadu,Salem,636004,S0TC,OPERATIONAL,Digital
7742,West 1,Maharashtra,Nashik,422009,R696,OPERATIONAL,DIGITAL EXPRESS MINI
3633,North 2,Uttar Pradesh,Bahraich,271801,SC28,OPERATIONAL,DIGITAL EXPRESS MINI
3720,North 2,Uttar Pradesh,Mirzapur,231001,SC28,OPERATIONAL,DIGITAL EXPRESS MINI
8791,West 1,Maharashtra,Mumbai,400706,R696,OPERATIONAL,DIGITAL EXPRESS MINI
6277,South 2,Tamil Nadu,Vellore,632007,SJ99,OPERATIONAL,DIGITAL EXPRESS MINI
TGJ7,South 2,Tamil Nadu,Chennai,600116,SJ99,OPERATIONAL,DIGITAL EXPRESS MINI
T648,North 2,Bihar,Arrah,802301,R394,OPERATIONAL,DIGITAL EXPRESS MINI
6596,West 1,Maharashtra,Osmanabad,413501,V014,OPERATIONAL,DIGITAL EXPRESS MINI
TP31,South 1,Karnataka,Puttur,574201,R396,OPERATIONAL,DIGITAL EXPRESS MINI
TZB5,South 1,Karnataka,Gulbarga,585102,SE40,OPERATIONAL,Digital
TARE,South 3,Tamil Nadu,Tirunelveli,627007,S0TC,OPERATIONAL,Digital
TVM1,North 1,Delhi NCR,Ghaziabad,201001,SJ93,OPERATIONAL,Digital
7852,East,West Bengal,Asansol,713325,SLKO,OPERATIONAL,DIGITAL EXPRESS MINI
6467,East,West Bengal,Kolkata,700072,SLKO,OPERATIONAL,DIGITAL EXPRESS MINI
9148,East,West Bengal,Ranaghat,741201,SLKO,OPERATIONAL,DIGITAL EXPRESS MINI
6156,East,West Bengal,Balurghat,733101,SLLN,OPERATIONAL,DIGITAL EXPRESS MINI
9595,North 1,Delhi NCR,Delhi,110075,SJ93,OPERATIONAL,Digital
TNE5,North 1,Delhi NCR,Delhi,110017,SJ93,OPERATIONAL,Digital
7633,South 2,Andhra Pradesh,Vizianagaram,535001,R804,OPERATIONAL,Digital
7855,North 1,Punjab,Ludhiana,141008,S0CV,OPERATIONAL,DIGITAL EXPRESS MINI
TN25,EAST,West Bengal,Bardhaman,713103,SLKO,OPERATIONAL,DIGITAL EXPRESS MINI
7616,East,West Bengal,Kolkata,700023,SLKO,OPERATIONAL,DIGITAL EXPRESS MINI
6663,South 1,Karnataka,Sagar_Kar,573201,R396,OPERATIONAL,DIGITAL EXPRESS MINI
6606,North 1,Punjab,Bhatinda,151001,S0CV,OPERATIONAL,DIGITAL EXPRESS MINI
3527,North 1,Punjab,Gobindgarh,147301,S0CV,OPERATIONAL,DIGITAL EXPRESS MINI
3586,North 2,Uttar Pradesh,Bulandshahar,203001,SLOR,OPERATIONAL,DIGITAL EXPRESS MINI
T2WX,East,West Bengal,Kolkata,,SLKO,OPERATIONAL,Digital
8928,East,Odisha,Bhubaneshwar,751001,R201,OPERATIONAL,Digital
8910,West,Maharashtra,Mumbai,400086,R696,OPERATIONAL,Digital
7751,EAST,Assam,Guwahati,781007,S597,OPERATIONAL,DIGITAL EXPRESS MINI
3886,East,Assam,Lumding,782447,S597,OPERATIONAL,DIGITAL EXPRESS MINI
6808,South 1,Telangana,Nizamabad,503001,SE40,OPERATIONAL,DIGITAL EXPRESS MINI
TDI5,South 2,Andhra Pradesh,Machlipatnam,521002,S0UG,OPERATIONAL,Digital
3858,West 1,Maharashtra,Kopargaon,423601,V014,OPERATIONAL,DIGITAL EXPRESS MINI
T2LK,East,Jharkhand,Giridih,,R278,OPERATIONAL,Digital
6509,West 2,Rajasthan,Ganganagar,335001,R810,OPERATIONAL,DIGITAL EXPRESS MINI
T75V,West,Maharashtra,Pune,411028,V014,OPERATIONAL,Digital
6200,South 2,Andhra Pradesh,Nellore,524001,SJ99,OPERATIONAL,Digital
3849,East,West Bengal,Bolpur,731204,SLKO,OPERATIONAL,DIGITAL EXPRESS MINI
TZZZ,Central,Gujarat,Rajkot,360004,SLTY,OPERATIONAL,Digital
3614,West 2,Rajasthan,Chomu,302013,R810,OPERATIONAL,DIGITAL EXPRESS MINI
3605,South 1,Karnataka,Kollegal,570020,R396,OPERATIONAL,DIGITAL EXPRESS MINI
6907,North 1,Haryana,Sonipat,131001,SJ93,OPERATIONAL,DIGITAL EXPRESS MINI
TDB3,West 2,Madhya Pradesh,Jabalpur,482001,SACU,OPERATIONAL,DIGITAL EXPRESS MINI
3529,West 2,Gujarat,Godhra,389001,SLTY,OPERATIONAL,DIGITAL EXPRESS MINI
7662,North 1,Delhi NCR,Delhi,110009,SJ93,OPERATIONAL,DIGITAL EXPRESS MINI
9173,East,Assam,Sibsagar,785640,S597,OPERATIONAL,DIGITAL EXPRESS MINI
TYW1,East,Odisha,Talcher,759100,R201,OPERATIONAL,Digital
6258,North 1,Delhi NCR,Gurgaon,122003,SJ93,OPERATIONAL,DIGITAL EXPRESS MINI
TXFX,East,West Bengal,Kolkata,743165,SLKO,OPERATIONAL,Digital
TJH6,North 1,Delhi NCR,Ghaziabad,201002,SJ93,OPERATIONAL,DIGITAL EXPRESS MINI
6532,East,West Bengal,Kolkata,741235,SLKO,OPERATIONAL,DIGITAL EXPRESS MINI
3855,West 2,Rajasthan,Sardarshahar,331403,R810,OPERATIONAL,DIGITAL EXPRESS MINI
7979,South 1,Karnataka,Bangalore,560073,R396,OPERATIONAL,DIGITAL EXPRESS MINI
3691,North 2,Uttar Pradesh,Hathras,204101,SJ93,OPERATIONAL,DIGITAL EXPRESS MINI
6551,North 1,Haryana,Panipat,132103,SJ93,OPERATIONAL,DIGITAL EXPRESS MINI
3646,North 2,Uttar Pradesh,Modinagar,201204,SLOR,OPERATIONAL,DIGITAL EXPRESS MINI
SUVV,North 2,Bihar,Patna,801503,R394,OPERATIONAL,DIGITAL EXPRESS MINI
TW26,South 3,Tamil Nadu,Trichy,620018,S0TC,OPERATIONAL,Digital
T750,South 2,Telangana,Hyderabad,500037,SE40,OPERATIONAL,Digital
6834,East,West Bengal,Kolkata,700107,SLKO,OPERATIONAL,DIGITAL EXPRESS MINI
7832,South 2,Tamil Nadu,Chennai,600100,SJ99,OPERATIONAL,DIGITAL EXPRESS MINI
6583,East,West Bengal,Kolkata,743398,SLKO,OPERATIONAL,DIGITAL EXPRESS MINI
TIY8,West,Maharashtra,Pune,411022,V014,OPERATIONAL,Digital
7741,EAST,Jharkhand,Jamshedpur,831002,R278,OPERATIONAL,DIGITAL EXPRESS MINI
7725,EAST,Assam,Guwahati,781029,S597,OPERATIONAL,DIGITAL EXPRESS MINI
TSF1,Central,Gujarat,Surat,395007,SLTY,OPERATIONAL,Digital
6895,North 2,Bihar,Buxar,802101,R394,OPERATIONAL,DIGITAL EXPRESS MINI
9611,East,Odisha,Balasore,756003,R201,OPERATIONAL,Digital
7549,North 1,Delhi NCR,Noida,201306,SJ93,OPERATIONAL,DIGITAL EXPRESS MINI
TFL1,West 1,Maharashtra,Nagpur,440037,SACU,OPERATIONAL,DIGITAL EXPRESS MINI
7481,West 2,Rajasthan,Udaipur,313001,R810,OPERATIONAL,DIGITAL EXPRESS MINI
6283,South 1,Andhra Pradesh,Rajahmundry,533103,S0UG,OPERATIONAL,DIGITAL EXPRESS MINI
TZRA,South 2,Andhra Pradesh,Amalapuram,533201,S0UG,OPERATIONAL,Digital
TS19,North 2,Uttar Pradesh,Gorakhpur,273016,SC28,OPERATIONAL,DIGITAL EXPRESS MINI
TVL2,North 1,Rajasthan,Jaipur,302018,R810,OPERATIONAL,Digital
6809,East,West Bengal,Kolkata,700006,SLKO,OPERATIONAL,DIGITAL EXPRESS MINI
7800,South 2,Telangana,Hyderabad,500034,SE40,OPERATIONAL,DIGITAL EXPRESS MINI
7849,West 2,Rajasthan,Kota,324002,R810,OPERATIONAL,DIGITAL EXPRESS MINI
6680,South 2,Andhra Pradesh,Guntur,522007,S0UG,OPERATIONAL,DIGITAL EXPRESS MINI
6741,South 1,Andhra Pradesh,Anantapur,515001,R396,OPERATIONAL,DIGITAL EXPRESS MINI
9114,East,Odisha,Berhampur,760001,R201,OPERATIONAL,Digital
7618,South 1,Karnataka,Bangalore,560043,R396,OPERATIONAL,DIGITAL EXPRESS MINI
6502,South 1,Karnataka,Mysore,570017,R396,OPERATIONAL,DIGITAL EXPRESS MINI
TZZO,East,Nagaland,Dimapur,797112,S597,OPERATIONAL,Digital
TA9U,North 1,Delhi NCR,Noida,201301,SJ93,OPERATIONAL,Digital
T32N,South 1,Karnataka,Bangalore,560085,R396,OPERATIONAL,Digital
6368,North 2,Bihar,Gaya,823001,R394,OPERATIONAL,Digital
3507,West 1,Maharashtra,Mumbai,421301,R696,OPERATIONAL,DIGITAL EXPRESS MINI
T2UB,East,West Bengal,MATIGARA,,SLLN,OPERATIONAL,Digital
7967,East,West Bengal,Durgapur,713213,SLKO,OPERATIONAL,DIGITAL EXPRESS MINI
3602,West 2,Rajasthan,Rajsamand,311001,R810,OPERATIONAL,DIGITAL EXPRESS MINI
7237,North 1,Delhi NCR,Ghaziabad,201005,SJ93,OPERATIONAL,DIGITAL EXPRESS MINI
9189,North 1,Delhi NCR,Delhi,110059,SJ93,OPERATIONAL,DIGITAL EXPRESS MINI
TDE1,North 1,Delhi NCR,Gurgaon,122001,SJ93,OPERATIONAL,DIGITAL EXPRESS MINI
6340,North 2,Uttar Pradesh,Bareily,243005,SC28,OPERATIONAL,DIGITAL EXPRESS MINI
TP32,North 1,Delhi NCR,Greater Noida,201301,SJ93,OPERATIONAL,Digital
8770,North 1,Punjab,Bathinda,151001,S0CV,OPERATIONAL,Digital
7594,South 1,Karnataka,Bangalore,560095,R396,OPERATIONAL,DIGITAL EXPRESS MINI
6859,South 2,Tamil Nadu,Chennai,600094,SJ99,OPERATIONAL,DIGITAL EXPRESS MINI
TFA5,South 1,Karnataka,Bangalore,560071,R396,OPERATIONAL,DIGITAL EXPRESS MINI
3638,East,West Bengal,Katwa,713130,SLKO,OPERATIONAL,DIGITAL EXPRESS MINI
3772,East,West Bengal,Darjiling,724101,SLLN,OPERATIONAL,DIGITAL EXPRESS MINI
6965,South 1,Karnataka,Mandya,571401,R396,OPERATIONAL,DIGITAL EXPRESS MINI
7660,East,West Bengal,Kolkata,700063,SLKO,OPERATIONAL,DIGITAL EXPRESS MINI
6459,South 2,Tamil Nadu,Madurai,625007,S0TC,OPERATIONAL,DIGITAL EXPRESS MINI
6470,South 2,Tamil Nadu,Karur,639001,S0TC,OPERATIONAL,DIGITAL EXPRESS MINI
6028,West 1,Maharashtra,Parbhani,431401,V014,OPERATIONAL,DIGITAL EXPRESS MINI
7991,South 2,Kerala,Kozhikode,673001,SD78,OPERATIONAL,DIGITAL EXPRESS MINI
T048,East,North East,Tura,794001,S597,OPERATIONAL,DIGITAL EXPRESS MINI
TP56,South 2,Telangana,Hyderabad,500035,SE40,OPERATIONAL,Digital
7678,North 1,Punjab,Amritsar,143006,S0CV,OPERATIONAL,DIGITAL EXPRESS MINI
TVL3,South 3,Tamil Nadu,Tiruvallur,602001,SJ99,OPERATIONAL,Digital
9146,East,West Bengal,Kolkata,700114,SLKO,OPERATIONAL,Digital
TFF3,Central,Gujarat,Ahmedabad,380024,SLTY,OPERATIONAL,Digital
TOQ2,North 2,Uttar Pradesh,Lucknow,226005,SC28,OPERATIONAL,Digital
6482,South 2,Tamil Nadu,Thoothukkudi,628002,S0TC,OPERATIONAL,DIGITAL EXPRESS MINI
8796,North 1,Delhi NCR,Delhi,110014,SJ93,OPERATIONAL,DIGITAL EXPRESS MINI
6768,North 2,Uttar Pradesh,Moradabad,244001,SJ93,OPERATIONAL,DIGITAL EXPRESS MINI
7753,EAST,West Bengal,Asansol,713303,SLKO,OPERATIONAL,DIGITAL EXPRESS MINI
6264,North 2,Uttar Pradesh,Bareily,243122,SC28,OPERATIONAL,DIGITAL EXPRESS MINI
TZ99,EAST,West Bengal,Krishnanagar,741101,SLKO,OPERATIONAL,DIGITAL EXPRESS MINI
7801,North 2,Bihar,Patna,801503,R394,OPERATIONAL,DIGITAL EXPRESS MINI
3611,South 1,Telangana,Miryalguda,508207,SE40,OPERATIONAL,DIGITAL EXPRESS MINI
TL11,South 1,Karnataka,Bangalore,560033,R396,OPERATIONAL,DIGITAL EXPRESS MINI
6191,South 1,Andhra Pradesh,Ponnuru,522124,S0UG,OPERATIONAL,DIGITAL EXPRESS MINI
8764,Central,Gujarat,Rajkot,360005,SLTY,OPERATIONAL,Digital
3511,North 2,Uttar Pradesh,Amroha,244221,SJ93,OPERATIONAL,DIGITAL EXPRESS MINI
7676,South 2,Tamil Nadu,Tiruchirappalli,620001,S0TC,OPERATIONAL,DIGITAL EXPRESS MINI
3606,West 2,Madhya Pradesh,Shajapur,465001,S0GZ,OPERATIONAL,DIGITAL EXPRESS MINI
6281,South 1,Andhra Pradesh,Rajahmundry,533103,S0UG,OPERATIONAL,DIGITAL EXPRESS MINI
6306,West 2,Madhya Pradesh,Ujjain,456010,S0GZ,OPERATIONAL,DIGITAL EXPRESS MINI
8952,East,West Bengal,Asansol,713325,SLKO,OPERATIONAL,Digital
8473,North 1,Delhi NCR,Delhi,110031,SJ93,OPERATIONAL,DIGITAL EXPRESS MINI
T767,South 3,Tamil Nadu,Chennai,600073,SJ99,OPERATIONAL,Digital
TI05,West,Maharashtra,Nanded,431602,SE40,OPERATIONAL,Digital
3872,North 1,Delhi NCR,Delhi,110075,SJ93,OPERATIONAL,DIGITAL EXPRESS MINI
T665,South 1,Karnataka,Davangere,577001,R396,OPERATIONAL,Digital
TS21,North 1,Rajasthan,Jodhpur,342005,R810,OPERATIONAL,Digital
3652,East,Jharkhand,Phusro,829144,R278,OPERATIONAL,DIGITAL EXPRESS MINI
3854,South 1,Karnataka,Chamrajnagar,570017,R396,OPERATIONAL,DIGITAL EXPRESS MINI
3759,West 1,Maharashtra,Chalisgaon,424101,R696,OPERATIONAL,DIGITAL EXPRESS MINI
7449,North 2,Uttar Pradesh,Agra,282001,SJ93,OPERATIONAL,DIGITAL EXPRESS MINI
3881,South 1,Andhra Pradesh,Chilakalurupet,522616,S0UG,OPERATIONAL,DIGITAL EXPRESS MINI
9152,South 1,Karnataka,Bhadravati,577301,R396,OPERATIONAL,DIGITAL EXPRESS MINI
TXSN,South 1,Karnataka,Bangalore,560077,R396,OPERATIONAL,Digital
TVL4,East,West Bengal,Habra,743263,SLKO,OPERATIONAL,Digital
T1KQ,South 1,Karnataka,Bangalore,560062,R396,OPERATIONAL,Digital
7806,North 2,Uttar Pradesh,Meerut,250110,SLOR,OPERATIONAL,DIGITAL EXPRESS MINI
TDJ8,South 2,Andhra Pradesh,Vijayawada,521108,S0UG,OPERATIONAL,Digital
3788,South 2,Tamil Nadu,Virudhunagar,626001,S0TC,OPERATIONAL,DIGITAL EXPRESS MINI
7484,North 1,Haryana,Panipat,132103,SJ93,OPERATIONAL,DIGITAL EXPRESS MINI
6976,West 1,Goa,Marmagao,403802,R396,OPERATIONAL,DIGITAL EXPRESS MINI
TKT6,EAST,Odisha,Barbil,758035,R201,OPERATIONAL,DIGITAL EXPRESS MINI
7853,South 2,Telangana,Hyderabad,500089,SE40,OPERATIONAL,DIGITAL EXPRESS MINI
6628,North 2,Uttar Pradesh,Mathura,281001,SJ93,OPERATIONAL,DIGITAL EXPRESS MINI
7462,EAST,Jharkhand,Jamshedpur,831005,R278,OPERATIONAL,DIGITAL EXPRESS MINI
7929,North 2,Uttar Pradesh,Allahabad,211016,SC28,OPERATIONAL,DIGITAL EXPRESS MINI
6815,West 2,Gujarat,Gandhinagar,382021,SLTY,OPERATIONAL,DIGITAL EXPRESS MINI
T1KP,Central,Gujarat,Ahmedabad,380063,SLTY,OPERATIONAL,Digital
TNE6,North 1,Delhi NCR,Delhi,110007,SJ93,OPERATIONAL,Digital
TKD2,North 1,Haryana,Kurukshetra,136118,SJ93,OPERATIONAL,DIGITAL EXPRESS MINI
TVK9,South 1,Karnataka,Kushalnagar,571234,R396,OPERATIONAL,Digital
9612,Central,Gujarat,Surat,394210,SLTY,OPERATIONAL,Digital
7810,South 2,Telangana,Hyderabad,500072,SE40,OPERATIONAL,DIGITAL EXPRESS MINI
TZZT,Central,Chhattisgarh,Durg,491001,S573,OPERATIONAL,Digital
9168,East,Assam,Tinsukia,786125,S597,OPERATIONAL,DIGITAL EXPRESS MINI
6366,North 1,Punjab,Patiala,147001,S0CV,OPERATIONAL,DIGITAL EXPRESS MINI
TCC1,East,Odisha,Jajpur,755019,R201,OPERATIONAL,Digital
6165,East,West Bengal,Raiganj,733134,SLLN,OPERATIONAL,DIGITAL EXPRESS MINI
6997,West 1,Maharashtra,Baramati,413102,V014,OPERATIONAL,DIGITAL EXPRESS MINI
T13N,South 3,Kerala,Perithalamana,679322,SD78,OPERATIONAL,Digital
TY70,North 2,Uttar Pradesh,Meerut,250001,SLOR,OPERATIONAL,DIGITAL EXPRESS MINI
T84W,West 2,Gujarat,Surat,395009,SLTY,OPERATIONAL,DIGITAL EXPRESS MINI
7860,North 2,Jharkhand,Dhanbad,826001,R278,OPERATIONAL,DIGITAL EXPRESS MINI
6832,South 1,Telangana,Karimnagar,505001,SE40,OPERATIONAL,DIGITAL EXPRESS MINI
7659,West 1,Maharashtra,Mumbai,400080,R696,OPERATIONAL,DIGITAL EXPRESS MINI
6861,South 1,Andhra Pradesh,Tirupati,517501,SJ99,OPERATIONAL,DIGITAL EXPRESS MINI
7577,South 2,Telangana,Hyderabad,500072,SE40,OPERATIONAL,DIGITAL EXPRESS MINI
TJ3Y,East,West Bengal,Kolkata,,SLKO,OPERATIONAL,DIGITAL EXPRESS MINI
3863,West 2,Rajasthan,Sikar,332001,R810,OPERATIONAL,DIGITAL EXPRESS MINI
T761,North 1,Punjab,Ludhiana,141001,S0CV,OPERATIONAL,Digital
TWXI,West,Maharashtra,Mumbai,401208,R696,OPERATIONAL,Digital
TPN6,West,Maharashtra,Mumbai,421308,R696,OPERATIONAL,Digital
3875,North 1,Jammu & Kashmir,Jammu,180004,Y695,OPERATIONAL,DIGITAL EXPRESS MINI
6475,North 2,Uttar Pradesh,Agra,282004,SJ93,OPERATIONAL,DIGITAL EXPRESS MINI
6850,West 1,Maharashtra,Mumbai,400028,R696,OPERATIONAL,DIGITAL EXPRESS MINI
7593,West 1,Maharashtra,Pune,411037,V014,OPERATIONAL,DIGITAL EXPRESS MINI
TJV8,North 1,Uttar Pradesh,Ghaziabad,201011,SJ93,OPERATIONAL,Digital
6790,West 2,Gujarat,Vadodara,390021,SLTY,OPERATIONAL,DIGITAL EXPRESS MINI
3760,West 1,Maharashtra,Akluj,413101,V014,OPERATIONAL,DIGITAL EXPRESS MINI
T32O,South 3,Tamil Nadu,Anuparpalayam,641652,S0TC,OPERATIONAL,Digital
3647,West 2,Madhya Pradesh,Neemuch,458441,S0GZ,OPERATIONAL,DIGITAL EXPRESS MINI
8755,South 3,Tamil Nadu,Chennai,600011,SJ99,OPERATIONAL,Digital
6427,South 1,Andhra Pradesh,Vizayanagaram,535001,R804,OPERATIONAL,DIGITAL EXPRESS MINI
8967,South 1,Karnataka,Gulbarga,585102,SE40,OPERATIONAL,Digital
TFF9,South 2,Tamil Nadu,Coimbatore,641044,S0TC,OPERATIONAL,DIGITAL EXPRESS MINI
3623,North 2,Uttar Pradesh,Shahabad,241124,SC28,OPERATIONAL,DIGITAL EXPRESS MINI
9141,East,Odisha,Brajarajnagar,768216,R201,OPERATIONAL,DIGITAL EXPRESS MINI
6334,West 1,Chhattisgarh,Raipur,492007,S573,OPERATIONAL,DIGITAL EXPRESS MINI
8897,South 1,Karnataka,Mangalore,575003,R396,OPERATIONAL,Digital
9475,East,Odisha,Khurda,752005,R201,OPERATIONAL,DIGITAL EXPRESS MINI
6367,South 2,Kerala,Trivandrum,695002,SD78,OPERATIONAL,DIGITAL EXPRESS MINI
6607,West 1,Maharashtra,Vasai,401202,R696,OPERATIONAL,DIGITAL EXPRESS MINI
7638,North 1,Delhi NCR,Delhi,110044,SJ93,OPERATIONAL,DIGITAL EXPRESS MINI
TCW7,West 1,Maharashtra,Mumbai,421201,R696,OPERATIONAL,DIGITAL EXPRESS MINI
8729,South 1,Karnataka,Tumkur,572101,R396,OPERATIONAL,Digital
7973,East,West Bengal,Kolkata,711101,SLKO,OPERATIONAL,DIGITAL EXPRESS MINI
3686,South 3,Tamil Nadu,Puducherry,605001,SJ99,OPERATIONAL,Digital
T765,South 3,Tamil Nadu,Chennai,600063,SJ99,OPERATIONAL,Digital
3561,West 1,Maharashtra,Mumbai,400018,R696,OPERATIONAL,DIGITAL EXPRESS MINI
6674,South 1,Karnataka,Bidar,585401,SE40,OPERATIONAL,DIGITAL EXPRESS MINI
TJ4U,North 2,Bihar,Patna,,R394,OPERATIONAL,DIGITAL EXPRESS MINI
8669,Central,Gujarat,Jamnagar,361006,SLTY,OPERATIONAL,Digital
6125,South 2,Tamil Nadu,Dharmapuri,636701,S0TC,OPERATIONAL,DIGITAL EXPRESS MINI
8982,North 2,Uttar Pradesh,Allahabad,211002,SC28,OPERATIONAL,Digital
3848,East,West Bengal,Jhargram,721507,SLKO,OPERATIONAL,DIGITAL EXPRESS MINI
TX92,North 2,Bihar,Khagaria,851204,R394,OPERATIONAL,DIGITAL EXPRESS MINI
7705,South 2,Tamil Nadu,Coimbatore,641004,S0TC,OPERATIONAL,DIGITAL EXPRESS MINI
TU16,South 2,Telangana,Hyderabad,500008,SE40,OPERATIONAL,DIGITAL EXPRESS MINI
6198,West 2,Rajasthan,Sawai Madhopur,322001,R810,OPERATIONAL,DIGITAL EXPRESS MINI
6311,South 2,Telangana,Hyderabad,500038,SE40,OPERATIONAL,DIGITAL EXPRESS MINI
3651,East,Jharkhand,Dumka,814101,R278,OPERATIONAL,DIGITAL EXPRESS MINI
TG9V,South 2,Telangana,Miryalaguda,,SE40,OPERATIONAL,Digital
9658,West,Maharashtra,Mumbai,401203,R696,OPERATIONAL,Digital
8839,South 2,Andhra Pradesh,Vijayawada,520010,S0UG,OPERATIONAL,Digital
8738,South 1,Karnataka,Mysore,570012,R396,OPERATIONAL,Digital
7446,West 1,Maharashtra,Mumbai,401107,R696,OPERATIONAL,DIGITAL EXPRESS MINI
TIP7,West 1,Maharashtra,Pune,411015,V014,OPERATIONAL,DIGITAL EXPRESS MINI
7770,South 2,Tamil Nadu,Coimbatore,641012,S0TC,OPERATIONAL,DIGITAL EXPRESS MINI
T9HC,North 2,Uttar Pradesh,Bulandshahar,203001,SJ93,OPERATIONAL,DIGITAL EXPRESS MINI
TK91,East,West Bengal,Kolkata,712202,SLKO,OPERATIONAL,Digital
6963,West 1,Maharashtra,Palghar,410404,R696,OPERATIONAL,DIGITAL EXPRESS MINI
TO57,North 2,Bihar,Patna,800001,R394,OPERATIONAL,Digital
9186,South 1,Karnataka,Bidar,585401,SE40,OPERATIONAL,Digital
7922,West 2,Rajasthan,Bikaner,334001,R810,OPERATIONAL,DIGITAL EXPRESS MINI
9180,South 2,Kerala,Changanassery,686104,SD78,OPERATIONAL,DIGITAL EXPRESS MINI
8954,East,West Bengal,Kolkata,700052,SLKO,OPERATIONAL,Digital
8961,South 2,Telangana,Hyderabad,500076,SE40,OPERATIONAL,Digital
8645,Central,Gujarat,Vadodara,390001,SLTY,OPERATIONAL,Digital
9143,West,Maharashtra,Mumbai,410206,R696,OPERATIONAL,Digital
6138,North 2,Uttar Pradesh,Hasanpur,244241,SJ93,OPERATIONAL,DIGITAL EXPRESS MINI
TW2F,East,Assam,Guwahati,781014,S597,OPERATIONAL,Digital
T9CS,North 1,Himachal Pradesh,Una,174303,S0CV,OPERATIONAL,Digital
7766,West 1,Maharashtra,Sangli,416101,V014,OPERATIONAL,DIGITAL EXPRESS MINI
3616,South 2,Tamil Nadu,Paramakudi,623707,S0TC,OPERATIONAL,DIGITAL EXPRESS MINI
7486,West 1,Maharashtra,Nagpur,440010,SACU,OPERATIONAL,DIGITAL EXPRESS MINI
7901,West 1,Maharashtra,Pune,412207,V014,OPERATIONAL,DIGITAL EXPRESS MINI
7943,West 2,Rajasthan,Jodhpur,342001,R810,OPERATIONAL,DIGITAL EXPRESS MINI
3736,East,West Bengal,Koch Bihar,736101,SLLN,OPERATIONAL,DIGITAL EXPRESS MINI
6771,South 1,Andhra Pradesh,Vizayanagaram,535002,R804,OPERATIONAL,DIGITAL EXPRESS MINI
7540,South 2,Tamil Nadu,Chennai,603210,SJ99,OPERATIONAL,DIGITAL EXPRESS MINI
6803,West 1,Maharashtra,Mumbai,400602,R696,OPERATIONAL,DIGITAL EXPRESS MINI
TW47,South 3,Tamil Nadu,Chennai,600116,SJ99,OPERATIONAL,Digital
TLL2,Central,Madhya Pradesh,Jabalpur,482002,SACU,OPERATIONAL,Digital
TXFZ,South 1,Karnataka,Devanhalli,562110,R396,OPERATIONAL,Digital
7457,South 2,Tamil Nadu,Salem,636001,S0TC,OPERATIONAL,DIGITAL EXPRESS MINI
TVM6,West,Maharashtra,Satara,415001,V014,OPERATIONAL,Digital
6548,West 1,Maharashtra,Pune,411028,V014,OPERATIONAL,DIGITAL EXPRESS MINI
7614,West 1,Maharashtra,Mumbai,400067,R696,OPERATIONAL,DIGITAL EXPRESS MINI
7650,West 2,Rajasthan,Jaipur,302003,R810,OPERATIONAL,DIGITAL EXPRESS MINI
6581,West 2,Madhya Pradesh,Mandla,481661,SACU,OPERATIONAL,DIGITAL EXPRESS MINI
6501,West 2,Gujarat,Ahmedabad,380060,SLTY,OPERATIONAL,DIGITAL EXPRESS MINI
9177,EAST,North East,Agartala,799001,S597,OPERATIONAL,DIGITAL EXPRESS MINI
6744,North 1,Delhi NCR,Gurgaon,122002,SJ93,OPERATIONAL,Digital
T1DR,North 2,Bihar,Patna,800001,R394,OPERATIONAL,Digital
T2GG,West 1,Maharashtra,Mumbai,,R696,OPERATIONAL,DIGITAL EXPRESS MINI
3755,West 1,Maharashtra,Karanja,444105,SACU,OPERATIONAL,DIGITAL EXPRESS MINI
6145,East,Jharkhand,Hazaribag,825301,R278,OPERATIONAL,DIGITAL EXPRESS MINI
6807,West 2,Gujarat,Nadiad,387001,SLTY,OPERATIONAL,DIGITAL EXPRESS MINI
8916,West,Maharashtra,Nashik,422002,R696,OPERATIONAL,Digital
6309,South 2,Tamil Nadu,Chennai,600032,SJ99,OPERATIONAL,DIGITAL EXPRESS MINI
6403,East,Odisha,Berhampur,760001,R201,OPERATIONAL,DIGITAL EXPRESS MINI
3742,North 2,Bihar,Siwan,841226,R394,OPERATIONAL,DIGITAL EXPRESS MINI
6491,North 2,Uttarakhand,Haridwar,249401,SLOR,OPERATIONAL,DIGITAL EXPRESS MINI
6693,North 1,Delhi NCR,Delhi,110005,SJ93,OPERATIONAL,DIGITAL EXPRESS MINI
6478,North 1,Punjab,Ludhiana,141008,S0CV,OPERATIONAL,DIGITAL EXPRESS MINI
8726,Central,Chhattisgarh,Durg-Bhilainagar,490020,S573,OPERATIONAL,Digital
3868,South 1,Karnataka,Belgaum,590006,R396,OPERATIONAL,Digital
T0Y2,West,Bihar,Aurangabad,,R394,OPERATIONAL,Digital
TCS8,East,West Bengal,Kolkata,700010,SLKO,OPERATIONAL,DIGITAL EXPRESS MINI
TP19,Central,Gujarat,Anand,388001,SLTY,OPERATIONAL,Digital
8759,West 1,Maharashtra,Mumbai,400603,R696,OPERATIONAL,DIGITAL EXPRESS MINI
7722,South 1,Andhra Pradesh,Vijaywada,520010,S0UG,OPERATIONAL,DIGITAL EXPRESS MINI
6904,South 1,Telangana,Adilabad,504001,SE40,OPERATIONAL,DIGITAL EXPRESS MINI
TR21,East,West Bengal,Haldia,721657,SLKO,OPERATIONAL,Digital
8957,East,West Bengal,Kolkata,700055,SLKO,OPERATIONAL,Digital
6514,West 1,Maharashtra,Akola,444005,SACU,OPERATIONAL,DIGITAL EXPRESS MINI
3711,North 2,Uttar Pradesh,Konch,285001,SC28,OPERATIONAL,DIGITAL EXPRESS MINI
T1KS,East,West Bengal,Malda,732142,SLLN,OPERATIONAL,DIGITAL EXPRESS MINI
6932,West 2,Gujarat,Kalol,382721,SLTY,OPERATIONAL,DIGITAL EXPRESS MINI
TSE5,North 2,Uttarakhand,Haridwar,249407,SLOR,OPERATIONAL,Digital
6408,West 2,Rajasthan,Bikaner,334003,R810,OPERATIONAL,DIGITAL EXPRESS MINI
6844,North 1,Haryana,Bahadurgarh,124507,SJ93,OPERATIONAL,DIGITAL EXPRESS MINI
6168,West 1,Chhattisgarh,Jagdalpur,494001,S573,OPERATIONAL,DIGITAL EXPRESS MINI
6021,West 2,Madhya Pradesh,Vidisha,464001,S0GZ,OPERATIONAL,DIGITAL EXPRESS MINI
3737,South 2,Kerala,Guruvayoor,680101,SD78,OPERATIONAL,DIGITAL EXPRESS MINI
9163,South 1,Karnataka,Shimoga,577201,R396,OPERATIONAL,Digital
7752,East,West Bengal,Kolkata,712136,SLKO,OPERATIONAL,DIGITAL EXPRESS MINI
7702,North 1,Delhi NCR,Delhi,110065,SJ93,OPERATIONAL,DIGITAL EXPRESS MINI
TTZ7,East,West Bengal,Kolkata,700054,SLKO,OPERATIONAL,Digital
7822,North 2,Bihar,Patna,800014,R394,OPERATIONAL,DIGITAL EXPRESS MINI
7777,North 2,Uttar Pradesh,Kanpur,208002,SC28,OPERATIONAL,DIGITAL EXPRESS MINI
3575,West 1,Maharashtra,Mumbai,400070,R696,OPERATIONAL,DIGITAL EXPRESS MINI
TEG8,South 2,Andhra Pradesh,Tadepallygudem,534101,S0UG,OPERATIONAL,Digital
7965,East,West Bengal,Kolkata,743127,SLKO,OPERATIONAL,DIGITAL EXPRESS MINI
6642,South 2,Kerala,Alappuzha,688001,SD78,OPERATIONAL,DIGITAL EXPRESS MINI
3642,East,West Bengal,Alipurduar,736121,SLLN,OPERATIONAL,DIGITAL EXPRESS MINI
6388,West 1,Maharashtra,Pune,411018,V014,OPERATIONAL,DIGITAL EXPRESS MINI
TL06,South 1,Karnataka,Bangalore,560060,R396,OPERATIONAL,DIGITAL EXPRESS MINI
7949,North 2,Bihar,Gaya,823001,R394,OPERATIONAL,DIGITAL EXPRESS MINI
TSF7,Central,Gujarat,Ahmedabad,382418,SLTY,OPERATIONAL,Digital
T38V,North 1,Delhi NCR,Delhi Ncr,110017,SJ93,OPERATIONAL,DIGITAL EXPRESS MINI
6692,EAST,Jharkhand,Jamshedpur,831013,R278,OPERATIONAL,DIGITAL EXPRESS MINI
3807,West 2,Rajasthan,Jhunjhunun,333001,R810,OPERATIONAL,DIGITAL EXPRESS MINI
7466,West 2,Madhya Pradesh,Bhopal,462001,S0GZ,OPERATIONAL,DIGITAL EXPRESS MINI
TJH5,West 1,Maharashtra,Satara,415002,V014,OPERATIONAL,DIGITAL EXPRESS MINI
T1PF,South 1,Andhra Pradesh,Nuzvid,521201,S0UG,OPERATIONAL,DIGITAL EXPRESS MINI
T57T,South 2,Kerala,Kottayam,686002,SD78,OPERATIONAL,DIGITAL EXPRESS MINI
7437,EAST,Assam,Guwahati,781024,S597,OPERATIONAL,DIGITAL EXPRESS MINI
7675,North 2,Uttar Pradesh,Kanpur,208012,SC28,OPERATIONAL,DIGITAL EXPRESS MINI
8977,South 3,Tamil Nadu,Chennai,600041,SJ99,OPERATIONAL,Digital
6400,North 2,Jharkhand,Bokaro Steel City,827001,R278,OPERATIONAL,Digital
6344,North 1,Punjab,Ludhiana,141003,S0CV,OPERATIONAL,DIGITAL EXPRESS MINI
9514,East,West Bengal,Asansol,713304,SLKO,OPERATIONAL,DIGITAL EXPRESS MINI
T3BZ,South 2,Andhra Pradesh,Guntur,,S0UG,OPERATIONAL,DIGITAL EXPRESS MINI
6964,West 1,Maharashtra,Pune,411039,V014,OPERATIONAL,DIGITAL EXPRESS MINI
7782,West 1,Chhattisgarh,Raipur,492013,S573,OPERATIONAL,DIGITAL EXPRESS MINI
7887,East,Odisha,Cuttack,753004,R201,OPERATIONAL,DIGITAL EXPRESS MINI
TKR1,East,West Bengal,Kolkata,700074,SLKO,OPERATIONAL,Digital
3699,South 2,Kerala,Calicut,673011,SD78,OPERATIONAL,DIGITAL EXPRESS MINI
6688,North 2,Bihar,Patna,800002,R394,OPERATIONAL,DIGITAL EXPRESS MINI
TEH1,North 2,Uttar Pradesh,Raebareli,229001,SC28,OPERATIONAL,Digital
6558,EAST,West Bengal,Kharagpur,721300,SLKO,OPERATIONAL,DIGITAL EXPRESS MINI
6697,South 2,Tamil Nadu,Tiruchirappalli,620017,S0TC,OPERATIONAL,DIGITAL EXPRESS MINI
6992,West 1,Maharashtra,Shri Rampur,413709,V014,OPERATIONAL,DIGITAL EXPRESS MINI
T1JN,South 3,Tamil Nadu,Tirupathur,635601,SJ99,OPERATIONAL,Digital
7474,West 1,Maharashtra,Mumbai,400012,R696,OPERATIONAL,DIGITAL EXPRESS MINI
7498,West 1,Chhattisgarh,Bilaspur,495001,S573,OPERATIONAL,DIGITAL EXPRESS MINI
6471,West 1,Maharashtra,Latur,413512,V014,OPERATIONAL,DIGITAL EXPRESS MINI
TW48,North 2,Uttar Pradesh,Lucknow,226004,SC28,OPERATIONAL,DIGITAL EXPRESS MINI
7470,West 1,Maharashtra,Aurangabad,431001,V014,OPERATIONAL,DIGITAL EXPRESS MINI
TLW7,South 2,Andhra Pradesh,Tirupati,517502,SJ99,OPERATIONAL,Digital
6520,South 1,Karnataka,Tumkur,572102,R396,OPERATIONAL,DIGITAL EXPRESS MINI
6881,West 1,Maharashtra,Mumbai,400068,R696,OPERATIONAL,DIGITAL EXPRESS MINI
8767,Central,Gujarat,Bhavnagar,364001,SLTY,OPERATIONAL,Digital
6526,South 2,Tamil Nadu,Hosur,635109,R396,OPERATIONAL,DIGITAL EXPRESS MINI
T0EA,South 2,Telangana,Tiruvannamalai,,SJ99,OPERATIONAL,DIGITAL EXPRESS MINI
3771,South 2,Tamil Nadu,Ranipet,632402,SJ99,OPERATIONAL,DIGITAL EXPRESS MINI
6676,South 1,Karnataka,Hassan,573201,R396,OPERATIONAL,DIGITAL EXPRESS MINI
8742,South 2,Telangana,Hyderabad,500070,SE40,OPERATIONAL,Digital
9140,North 2,Uttarakhand,Mussoorie,248179,SLOR,OPERATIONAL,DIGITAL EXPRESS MINI
T2MD,North 2,Uttar Pradesh,Mau,,SC28,OPERATIONAL,Digital
7647,West 2,Rajasthan,Jaipur,302016,R810,OPERATIONAL,DIGITAL EXPRESS MINI
8886,South 1,Karnataka,Bangalore,560076,R396,OPERATIONAL,Digital
6956,West 1,Maharashtra,Pune,411061,V014,OPERATIONAL,DIGITAL EXPRESS MINI
7830,West 1,Maharashtra,Aurangabad,431003,V014,OPERATIONAL,DIGITAL EXPRESS MINI
3704,South 2,Tamil Nadu,Ambur,635802,SJ99,OPERATIONAL,DIGITAL EXPRESS MINI
3599,West 2,Rajasthan,Dhaulpur,328001,SJ93,OPERATIONAL,DIGITAL EXPRESS MINI
6780,West 2,Gujarat,Ahmedabad,380027,SLTY,OPERATIONAL,DIGITAL EXPRESS MINI
3519,West 2,Gujarat,Gandhinagar,382009,SLTY,OPERATIONAL,DIGITAL EXPRESS MINI
TW3W,North 2,Uttar Pradesh,Saharanpur,247001,SLOR,OPERATIONAL,Digital
TKE0,South 1,Karnataka,Bangalore,560077,R396,OPERATIONAL,DIGITAL EXPRESS MINI
T9RH,North 1,Haryana,Jind,126102,SJ93,OPERATIONAL,Digital
3554,South 2,Tamil Nadu,Kodaikanal,624101,S0TC,OPERATIONAL,DIGITAL EXPRESS MINI
3810,East,Assam,Golaghat,785621,S597,OPERATIONAL,DIGITAL EXPRESS MINI
3874,North 1,Jammu & Kashmir,Udhampur,182101,Y695,OPERATIONAL,DIGITAL EXPRESS MINI
9600,East,North East,Thoubal,795138,S597,OPERATIONAL,DIGITAL EXPRESS MINI
TR66,West,Maharashtra,Mumbai,400080,R696,OPERATIONAL,Digital
6747,West 1,Maharashtra,Mumbai,400705,R696,OPERATIONAL,DIGITAL EXPRESS MINI
7571,South 2,Tamil Nadu,Chennai,600053,SJ99,OPERATIONAL,DIGITAL EXPRESS MINI
7803,East,West Bengal,Kolkata,700075,SLKO,OPERATIONAL,DIGITAL EXPRESS MINI
7015,North 2,Uttar Pradesh,Kanpur,208016,SC28,OPERATIONAL,DIGITAL EXPRESS MINI
6337,East,West Bengal,Kolkata,700033,SLKO,OPERATIONAL,DIGITAL EXPRESS MINI
TC81,North 2,Jharkhand,Jamshedpur,831001,R278,OPERATIONAL,Digital
6252,West 1,Chhattisgarh,Durg-Bhilainagar,491001,S573,OPERATIONAL,DIGITAL EXPRESS MINI
7453,North 2,Uttar Pradesh,Aligarh,202001,SJ93,OPERATIONAL,DIGITAL EXPRESS MINI
3774,South 1,Andhra Pradesh,Narasapuram,534275,S0UG,OPERATIONAL,DIGITAL EXPRESS MINI
7515,South 1,Karnataka,Bangalore,560062,R396,OPERATIONAL,DIGITAL EXPRESS MINI
8694,North 1,Haryana,Rewari,123401,SJ93,OPERATIONAL,Digital
8988,East,West Bengal,Kolkata,700063,SLKO,OPERATIONAL,Digital
3573,East,West Bengal,Kolkata,700004,SLKO,OPERATIONAL,DIGITAL EXPRESS MINI
TVL7,North 2,Uttar Pradesh,Mathura,281001,SJ93,OPERATIONAL,Digital
TI8W,West 1,Maharashtra,Mumbai,,R696,OPERATIONAL,DIGITAL EXPRESS MINI
6276,South 2,Tamil Nadu,Madurai,625001,S0TC,OPERATIONAL,DIGITAL EXPRESS MINI
6699,South 1,Karnataka,Shimoga,577201,R396,OPERATIONAL,DIGITAL EXPRESS MINI
TNO7,EAST,West Bengal,Taltala,700014,SLKO,OPERATIONAL,DIGITAL EXPRESS MINI
3739,North 2,Uttar Pradesh,Baraut,250004,SLOR,OPERATIONAL,DIGITAL EXPRESS MINI
TR64,North 2,Bihar,Patna,800013,R394,OPERATIONAL,Digital
6912,West 2,Gujarat,Vapi,396191,SLTY,OPERATIONAL,DIGITAL EXPRESS MINI
7652,East,West Bengal,Kolkata,700117,SLKO,OPERATIONAL,DIGITAL EXPRESS MINI
7851,West 2,Gujarat,Ahmedabad,382330,SLTY,OPERATIONAL,DIGITAL EXPRESS MINI
TCW8,East,West Bengal,Hooghly,712503,SLKO,OPERATIONAL,DIGITAL EXPRESS MINI
7598,West 1,Maharashtra,Pune,411030,V014,OPERATIONAL,DIGITAL EXPRESS MINI
6949,North 1,Punjab,Gidderbaha,152101,S0CV,OPERATIONAL,DIGITAL EXPRESS MINI
TM20,South 1,Karnataka,Bangalore,560072,R396,OPERATIONAL,DIGITAL EXPRESS MINI
TSF4,North 1,Delhi NCR,Gurgaon,122001,SJ93,OPERATIONAL,Digital
8463,North 1,Delhi NCR,Delhi,110096,SJ93,OPERATIONAL,DIGITAL EXPRESS MINI
TCJ5,South 3,Tamil Nadu,Pollachi,642001,S0TC,OPERATIONAL,Digital
7995,West 2,Madhya Pradesh,Indore,452001,S0GZ,OPERATIONAL,DIGITAL EXPRESS MINI
6650,South 1,Telangana,Kamareddy,503111,SE40,OPERATIONAL,DIGITAL EXPRESS MINI
7980,West 1,Maharashtra,Amravati,444601,SACU,OPERATIONAL,DIGITAL EXPRESS MINI
6320,East,Jharkhand,Jamshedpur,831011,R278,OPERATIONAL,DIGITAL EXPRESS MINI
6825,West 2,Gujarat,Palanpur,385001,SLTY,OPERATIONAL,DIGITAL EXPRESS MINI
7626,West 1,Maharashtra,Pune,411029,V014,OPERATIONAL,DIGITAL EXPRESS MINI
6563,South 2,Tamil Nadu,Coimbatore,641045,S0TC,OPERATIONAL,DIGITAL EXPRESS MINI
TUC5,South 2,Telangana,Hyderabad,500035,SE40,OPERATIONAL,Digital
3619,South 2,Tamil Nadu,Ramanathpuram,623526,S0TC,OPERATIONAL,DIGITAL EXPRESS MINI
T9MG,South 1,Andhra Pradesh,Hindupuram,515201,R396,OPERATIONAL,DIGITAL EXPRESS MINI
TJI1,East,Odisha,Cuttack,753014,R201,OPERATIONAL,Digital
TEB3,West 1,Maharashtra,Mumbai,421605,R696,OPERATIONAL,DIGITAL EXPRESS MINI
3709,West 2,Gujarat,Deesa,385535,SLTY,OPERATIONAL,DIGITAL EXPRESS MINI
6920,South 1,Andhra Pradesh,Rayadurg,515865,R396,OPERATIONAL,DIGITAL EXPRESS MINI
6917,South 2,Telangana,Karimnagar,505001,SE40,OPERATIONAL,Digital
TB86,West,Maharashtra,Nagpur,440003,SACU,OPERATIONAL,Digital
7656,South 2,Telangana,Hyderabad,500039,SE40,OPERATIONAL,DIGITAL EXPRESS MINI
6787,South 1,Karnataka,Devangere,577004,R396,OPERATIONAL,DIGITAL EXPRESS MINI
3768,West 1,Maharashtra,Gondia,441601,SACU,OPERATIONAL,DIGITAL EXPRESS MINI
8740,West,Maharashtra,Mumbai,401303,R696,OPERATIONAL,Digital
8950,North 2,Uttar Pradesh,Lucknow,226001,SC28,OPERATIONAL,Digital
6466,South 2,Tamil Nadu,Salem,636006,S0TC,OPERATIONAL,DIGITAL EXPRESS MINI
3640,North 2,Uttar Pradesh,Mughal Sarai,232101,SC28,OPERATIONAL,DIGITAL EXPRESS MINI
6759,North 2,Uttar Pradesh,Varanasi,221001,SC28,OPERATIONAL,DIGITAL EXPRESS MINI
6791,South 2,Tamil Nadu,Chennai,600033,SJ99,OPERATIONAL,DIGITAL EXPRESS MINI
6894,North 2,Bihar,Nawada,805110,R394,OPERATIONAL,DIGITAL EXPRESS MINI
8471,West 1,Maharashtra,Mumbai,400056,R696,OPERATIONAL,DIGITAL EXPRESS MINI
7595,South 1,Karnataka,Bangalore,560009,R396,OPERATIONAL,DIGITAL EXPRESS MINI
8956,East,West Bengal,Kolkata,711102,SLKO,OPERATIONAL,Digital
6379,South 2,Andhra Pradesh,Kurnool,518001,SE40,OPERATIONAL,Digital
8693,West,Maharashtra,Aurangabad,431001,V014,OPERATIONAL,Digital
8877,North 1,Delhi NCR,Gurgaon,122017,SJ93,OPERATIONAL,Digital
8997,North 1,Delhi NCR,Delhi,110015,SJ93,OPERATIONAL,DIGITAL EXPRESS MINI
TN26,South 1,Karnataka,Bangalore,560079,R396,OPERATIONAL,DIGITAL EXPRESS MINI
6816,West 1,Chhattisgarh,Durg-Bhilainagar,490023,S573,OPERATIONAL,DIGITAL EXPRESS MINI
3593,North 1,Punjab,Kapurthala,144001,S0CV,OPERATIONAL,DIGITAL EXPRESS MINI
3637,North 2,Uttar Pradesh,Sitapur,261001,SC28,OPERATIONAL,DIGITAL EXPRESS MINI
TDQ1,North 1,Rajasthan,Chittogarh,312001,R810,OPERATIONAL,Digital
6989,West 2,Madhya Pradesh,Satna,485001,SACU,OPERATIONAL,DIGITAL EXPRESS MINI
6582,West 2,Madhya Pradesh,Panna,488001,S0GZ,OPERATIONAL,DIGITAL EXPRESS MINI
7831,West 1,Maharashtra,Aurangabad,431005,V014,OPERATIONAL,DIGITAL EXPRESS MINI
6414,North 2,Uttar Pradesh,Mathura,281004,SJ93,OPERATIONAL,DIGITAL EXPRESS MINI
T4LD,East,West Bengal,Belghoria,,SLKO,OPERATIONAL,DIGITAL EXPRESS MINI
6746,West 1,Maharashtra,Mumbai,400003,R696,OPERATIONAL,DIGITAL EXPRESS MINI
6598,North 2,Bihar,Bihar Sharif,803101,R394,OPERATIONAL,DIGITAL EXPRESS MINI
8736,South 2,Telangana,Warangal,506001,SE40,OPERATIONAL,Digital
TJM9,West 2,Rajasthan,Jaipur,302002,R810,OPERATIONAL,DIGITAL EXPRESS MINI
9191,West 2,Madhya Pradesh,Indore,452001,S0GZ,OPERATIONAL,DIGITAL EXPRESS MINI
TL32,EAST,Odisha,Jajpur,755019,R201,OPERATIONAL,DIGITAL EXPRESS MINI
TCO4,West 1,Maharashtra,Pune,411021,V014,Closed,DIGITAL EXPRESS MINI
3567,West 2,Gujarat,Khambhat,388620,SLTY,Closed,DIGITAL EXPRESS MINI
7544,South 1,Karnataka,Bangalore,560096,R396,Closed,DIGITAL EXPRESS MINI
6971,North 1,Punjab,Nabha,147201,S0CV,Closed,DIGITAL EXPRESS MINI
6552,North 1,Haryana,Sonipat,131001,SJ93,Closed,DIGITAL EXPRESS MINI
3846,North 1,Haryana,Ambala,134003,S0CV,Closed,DIGITAL EXPRESS MINI
6139,West 2,Rajasthan,Banswara,327001,R810,OPERATIONAL,DIGITAL EXPRESS MINI
T540,East,West Bengal,Madhyamgram,700129,SLKO,Closed,Digital
7695,South 1,Karnataka,Hubli-Dharwad,580029,R396,Closed,DIGITAL EXPRESS MINI
9515,West 1,Maharashtra,Mumbai,400709,R696,Closed,TECH PARK
3715,North 1,Himachal Pradesh,Kullu,175101,S0CV,Closed,DIGITAL EXPRESS MINI
3564,West 1,Maharashtra,Shirdi,423107,V014,Closed,DIGITAL EXPRESS MINI
TK90,North 1,Delhi NCR,Delhi,110027,SJ93,Closed,Digital
6845,North 1,Haryana,Barwala,125121,SJ93,OPERATIONAL,DIGITAL EXPRESS MINI
6837,West 2,Gujarat,Surat,395001,SLTY,OPERATIONAL,DIGITAL EXPRESS MINI
3595,East,West Bengal,Rampurhat,731224,SLKO,OPERATIONAL,DIGITAL EXPRESS MINI
3621,North 1,Delhi NCR,Delhi,110027,SJ93,Closed,DIGITAL EXPRESS MINI
6538,South 2,Tamil Nadu,Vellore,632004,SJ99,Closed,DIGITAL EXPRESS MINI
6847,North 1,Haryana,Charkhidadri,127306,SJ93,Closed,DIGITAL EXPRESS MINI
6142,West 2,Gujarat,Junagadh,362001,SLTY,Closed,DIGITAL EXPRESS MINI
TQ25,West 1,Maharashtra,Mumbai,400068,R696,Closed,DIGITAL EXPRESS MINI
3717,North 1,Himachal Pradesh,Sundernagar,175002,S0CV,Closed,DIGITAL EXPRESS MINI
9179,South 2,Kerala,Aatingal,695101,SD78,OPERATIONAL,DIGITAL EXPRESS MINI
3722,West 2,Gujarat,Bhuj,370020,SLTY,Closed,DIGITAL EXPRESS MINI
6257,North 1,Delhi NCR,Delhi,110010,SJ93,Closed,DIGITAL EXPRESS MINI
6903,South 1,Andhra Pradesh,Amalapuram,533201,S0UG,OPERATIONAL,DIGITAL EXPRESS MINI
6797,West 2,Gujarat,Dwarka,361335,SLTY,OPERATIONAL,DIGITAL EXPRESS MINI
3726,South 1,Karnataka,Ranibennur,561115,R396,OPERATIONAL,DIGITAL EXPRESS MINI
6120,West 1,Maharashtra,Wani,445304,SACU,Closed,DIGITAL EXPRESS MINI
INAP,-,North East,Jio Point - Tamenglong,795141,S597,OPERATIONAL,JP
6877,North 1,Haryana,Tohana,125120,SJ93,Closed,DIGITAL EXPRESS MINI
9500,East,Jharkhand,Sahibganj,816109,R278,Closed,DIGITAL EXPRESS MINI
6600,North 1,Haryana,Thanesar,136118,SJ93,Closed,DIGITAL EXPRESS MINI
T517,South 2,Tamil Nadu,Chennai,600024,SJ99,OPERATIONAL,DIGITAL EXPRESS MINI
6515,West 1,Maharashtra,Akola,444001,SACU,Closed,DIGITAL EXPRESS MINI
7665,West 2,Madhya Pradesh,Indore,452008,S0GZ,Closed,DIGITAL EXPRESS MINI
3840,North 2,Uttar Pradesh,Bijnor,246701,SLOR,Closed,DIGITAL EXPRESS MINI
3694,South 2,Kerala,Neyyattinkara,695121,SD78,OPERATIONAL,DIGITAL EXPRESS MINI
IR66,-,Jammu & Kashmir,Jio Point - Budhal,185233,Y695,OPERATIONAL,JP
3861,South 2,Kerala,Payyanur,670307,SD78,OPERATIONAL,DIGITAL EXPRESS MINI
8749,West 1,Maharashtra,Mumbai,400016,R696,Closed,DIGITAL EXPRESS MINI
T0BE,North 1,Jammu & Kashmir,Jammu,,Y695,OPERATIONAL,Digital
TAIV,West,Maharashtra,Mumbai,400099,R696,OPERATIONAL,Digital
TV03,West 1,Maharashtra,Mumbai,400072,R696,Closed,DIGITAL EXPRESS MINI
7931,North 2,Bihar,Patna,800006,R394,OPERATIONAL,DIGITAL EXPRESS MINI
9167,West 2,Gujarat,Viramgam,382150,SLTY,OPERATIONAL,DIGITAL EXPRESS MINI
INA8,-,North East,Jio Point - Jiribam,795116,S597,OPERATIONAL,JP
